{"type":"FeatureCollection", "features": [
{"type":"Feature","geometry":{"type":"Polygon","coordinates":[[[129.4226,36.6166],[129.4409,36.6578],[129.4635,36.6925],[129.4739,36.7306],[129.4712,36.7719],[129.438,36.8561],[129.4287,36.8974],[129.4199,36.9868],[129.4131,37.0277],[129.4341,37.0611],[129.4302,37.0731],[129.3789,37.1301],[129.3601,37.1718],[129.3464,37.2475],[129.3311,37.2822],[129.2828,37.3244],[129.2628,37.3709],[129.2354,37.3983],[129.19,37.4694],[129.1612,37.4876],[129.1482,37.5051],[129.119,37.5806],[129.1087,37.5974],[129.0733,37.613],[129.0671,37.6339],[129.0642,37.6789],[129.0123,37.7272],[129.0013,37.7344],[128.9238,37.8023],[128.8591,37.8768],[128.6925,38.0649],[128.6787,38.0943],[128.6428,38.1293],[128.6316,38.145],[128.5628,38.289],[128.4745,38.4261],[128.4507,38.4741],[128.4414,38.5058],[128.3649,38.6243],[128.3084,38.6013],[128.2811,38.5844],[128.2748,38.5715],[128.2854,38.5198],[128.2811,38.4844],[128.2681,38.4535],[128.2256,38.3998],[128.1724,38.356],[128.1085,38.3235],[128.0399,38.3043],[127.9718,38.3],[127.8669,38.3048],[127.8008,38.2939],[127.787,38.2967],[127.7537,38.3254],[127.5608,38.3121],[127.5021,38.2981],[127.4719,38.2959],[127.3771,38.3185],[127.2538,38.31],[127.222,38.3127],[127.1575,38.3072],[127.0905,38.2859],[127.0267,38.2545],[126.9661,38.213],[127.036,38.1803],[127.0444,38.1646],[127.0643,38.1491],[127.0823,38.1199],[127.0947,38.1212],[127.1401,38.0875],[127.1768,38.0738],[127.1898,38.0899],[127.19,38.1228],[127.2002,38.1393],[127.2127,38.1162],[127.2328,38.1054],[127.2555,38.1085],[127.2906,38.1381],[127.3137,38.1335],[127.2962,38.1025],[127.2968,38.0836],[127.3281,38.0649],[127.3664,38.0576],[127.4082,38.0692],[127.4252,38.0597],[127.445,38.0655],[127.4613,38.0373],[127.4664,37.9902],[127.4787,37.9638],[127.5045,37.9488],[127.5503,37.9492],[127.5642,37.9197],[127.6022,37.9098],[127.6258,37.8811],[127.6207,37.8405],[127.6092,37.8266],[127.5886,37.8213],[127.5379,37.7916],[127.5402,37.76],[127.5344,37.7464],[127.5473,37.7103],[127.5181,37.6832],[127.53,37.671],[127.5565,37.6778],[127.552,37.6378],[127.5397,37.6046],[127.562,37.5897],[127.5887,37.5964],[127.6163,37.593],[127.723,37.547],[127.8048,37.534],[127.8311,37.5085],[127.8207,37.4907],[127.8008,37.4841],[127.7692,37.4481],[127.775,37.4256],[127.7673,37.4031],[127.7057,37.2985],[127.6613,37.2115],[127.607,37.1314],[127.7126,37.1545],[127.819,37.1661],[127.8104,37.1178],[127.8408,37.1235],[127.8714,37.1218],[127.8885,37.1144],[127.9232,37.1374],[127.9177,37.186],[127.9366,37.2045],[127.9876,37.2183],[128.0256,37.1862],[128.0256,37.1647],[128.038,37.1508],[128.0712,37.1572],[128.1243,37.1843],[128.1482,37.1803],[128.1911,37.2028],[128.2469,37.1869],[128.3219,37.1754],[128.3103,37.1544],[128.2815,37.138],[128.2643,37.1168],[128.2753,37.1069],[128.2984,37.1005],[128.3378,37.112],[128.3855,37.1163],[128.3954,37.1076],[128.3936,37.0933],[128.4207,37.0637],[128.5084,37.0741],[128.5585,37.0461],[128.61,37.0397],[128.6503,37.0223],[128.7006,37.0031],[128.756,36.996],[128.7651,37.0404],[128.7585,37.065],[128.7767,37.0827],[128.8038,37.0929],[128.8311,37.0912],[128.8452,37.0715],[128.8819,37.061],[128.8817,37.0261],[128.9116,37.0355],[128.9401,37.0532],[128.9607,37.0401],[128.9849,37.0433],[129.0241,37.0381],[129.061,37.0245],[129.0871,37.0298],[129.1143,37.0413],[129.1485,37.0349],[129.1797,37.0199],[129.1895,36.9968],[129.1658,36.9827],[129.1366,36.9919],[129.1009,36.9759],[129.0937,36.9511],[129.0981,36.9187],[129.1187,36.8938],[129.1516,36.8813],[129.1684,36.8416],[129.2128,36.824],[129.2861,36.8196],[129.2821,36.7969],[129.2985,36.7829],[129.2744,36.7311],[129.2771,36.7031],[129.289,36.6561],[129.2779,36.6323],[129.3472,36.6117],[129.3792,36.6231],[129.4226,36.6166]]]},"properties":{"name":"Gangwon","name_en":"Gangwon","name_ja":"江原道","name_zh":"江原道","name_ko":"강원도","adm0_a3":"KOR","postal":"KW","iso_3166_2":"KR-42","type_en":"Province","geonunit":"South Korea"}},
{"type":"Feature","geometry":{"type":"MultiPolygon","coordinates":[[[[126.9661,38.213],[126.9537,38.2007],[126.9198,38.1346],[126.9033,38.1196],[126.8473,38.082],[126.7619,37.979],[126.7221,37.9539],[126.6778,37.9446],[126.6658,37.9376],[126.6605,37.9138],[126.6675,37.8278],[126.6925,37.8371],[126.7,37.8297],[126.6895,37.8137],[126.6869,37.7736],[126.7005,37.743],[126.6956,37.7217],[126.6788,37.6863],[126.7364,37.6533],[126.7552,37.6379],[126.731,37.6391],[126.6921,37.652],[126.6615,37.6724],[126.6673,37.7088],[126.6668,37.7462],[126.6485,37.765],[126.6033,37.7545],[126.5482,37.7702],[126.5349,37.7682],[126.531,37.7547],[126.5454,37.6725],[126.5562,37.641],[126.5605,37.6074],[126.5911,37.5729],[126.6038,37.5493],[126.7006,37.552],[126.7595,37.5071],[126.7594,37.4834],[126.7702,37.4638],[126.7958,37.443],[126.7721,37.3965],[126.7516,37.3844],[126.72,37.3771],[126.6875,37.344],[126.6898,37.3325],[126.7333,37.3062],[126.7646,37.2983],[126.8225,37.2956],[126.8289,37.288],[126.8599,37.2821],[126.8707,37.2679],[126.8486,37.2653],[126.8192,37.2744],[126.8023,37.2543],[126.7925,37.2235],[126.782,37.2202],[126.7676,37.2323],[126.7676,37.2543],[126.7522,37.2483],[126.71,37.2617],[126.6585,37.2543],[126.6802,37.2177],[126.7158,37.2163],[126.7069,37.1997],[126.6707,37.1856],[126.6685,37.1618],[126.7069,37.1649],[126.686,37.1393],[126.6856,37.1301],[126.7029,37.1247],[126.7236,37.1339],[126.7593,37.1647],[126.8023,37.1854],[126.8074,37.1653],[126.8298,37.1587],[126.8645,37.1791],[126.8707,37.1755],[126.8635,37.1503],[126.8112,37.1441],[126.7783,37.1328],[126.7529,37.1007],[126.7512,37.0701],[126.7552,37.0488],[126.8013,37.0377],[126.8397,37.0449],[126.8587,37.0413],[126.8705,37.0908],[126.8905,37.0959],[126.8831,37.0696],[126.9067,37.0331],[126.911,37.0141],[126.8926,37.0222],[126.8707,37.0215],[126.8843,37.0079],[126.8244,37.0026],[126.8379,36.9759],[126.8734,36.948],[126.9127,36.9296],[126.9458,36.9259],[126.9763,36.939],[126.9732,36.97],[126.9822,36.9802],[127.042,36.9936],[127.0394,36.982],[126.9942,36.9669],[127.0072,36.9526],[127.0003,36.9284],[126.9617,36.9051],[127.0086,36.8974],[127.0478,36.8974],[127.1309,36.9258],[127.1741,36.91],[127.2127,36.8841],[127.26,36.8789],[127.3048,36.8895],[127.3473,36.9059],[127.3806,36.9148],[127.3896,36.9442],[127.4059,36.9584],[127.4315,36.9673],[127.4519,36.9964],[127.4674,37.0096],[127.4926,37.0003],[127.5177,37.0143],[127.5761,37.1016],[127.5919,37.111],[127.607,37.1314],[127.6613,37.2115],[127.7057,37.2985],[127.7673,37.4031],[127.775,37.4256],[127.7692,37.4481],[127.8008,37.4841],[127.8207,37.4907],[127.8311,37.5085],[127.8048,37.534],[127.723,37.547],[127.6163,37.593],[127.5887,37.5964],[127.562,37.5897],[127.5397,37.6046],[127.552,37.6378],[127.5565,37.6778],[127.53,37.671],[127.5181,37.6832],[127.5473,37.7103],[127.5344,37.7464],[127.5402,37.76],[127.5379,37.7916],[127.5886,37.8213],[127.6092,37.8266],[127.6207,37.8405],[127.6258,37.8811],[127.6022,37.9098],[127.5642,37.9197],[127.5503,37.9492],[127.5045,37.9488],[127.4787,37.9638],[127.4664,37.9902],[127.4613,38.0373],[127.445,38.0655],[127.4252,38.0597],[127.4082,38.0692],[127.3664,38.0576],[127.3281,38.0649],[127.2968,38.0836],[127.2962,38.1025],[127.3137,38.1335],[127.2906,38.1381],[127.2555,38.1085],[127.2328,38.1054],[127.2127,38.1162],[127.2002,38.1393],[127.19,38.1228],[127.1898,38.0899],[127.1768,38.0738],[127.1401,38.0875],[127.0947,38.1212],[127.0823,38.1199],[127.0643,38.1491],[127.0444,38.1646],[127.036,38.1803],[126.9661,38.213]],[[127.1159,37.5506],[127.1433,37.5508],[127.1871,37.5578],[127.1921,37.5283],[127.1629,37.5147],[127.1713,37.4894],[127.1446,37.4578],[127.1187,37.4455],[127.0902,37.4402],[127.0608,37.4285],[127.0493,37.4494],[126.9637,37.4283],[126.9208,37.4295],[126.8914,37.4601],[126.8625,37.4671],[126.8425,37.4775],[126.8373,37.5062],[126.7937,37.5517],[126.8087,37.5772],[126.8367,37.5758],[126.8688,37.5603],[126.9137,37.5769],[126.9212,37.61],[126.966,37.6134],[126.9891,37.6367],[127.0031,37.6603],[127.0231,37.6772],[127.0543,37.6831],[127.0903,37.6808],[127.1074,37.6574],[127.114,37.6256],[127.1245,37.6033],[127.1251,37.5789],[127.1159,37.5506]]],[[[126.2953,37.8025],[126.2605,37.8148],[126.2341,37.8023],[126.2205,37.7713],[126.2245,37.7604],[126.2546,37.7682],[126.2962,37.7611],[126.3182,37.7623],[126.3359,37.7744],[126.3425,37.7921],[126.3333,37.8004],[126.2953,37.8025]]],[[[126.3567,37.6951],[126.3367,37.7099],[126.3237,37.7456],[126.3006,37.7324],[126.2908,37.7056],[126.282,37.6993],[126.3499,37.6574],[126.3701,37.6584],[126.3788,37.6787],[126.3567,37.6951]]],[[[126.5078,37.5969],[126.5291,37.6249],[126.542,37.631],[126.5277,37.6515],[126.5277,37.6959],[126.514,37.7235],[126.5215,37.7512],[126.5036,37.7774],[126.4714,37.7902],[126.4253,37.8244],[126.4071,37.8207],[126.3696,37.7853],[126.3692,37.7191],[126.4048,37.6652],[126.4167,37.6518],[126.4009,37.6374],[126.3701,37.631],[126.3906,37.6093],[126.4102,37.602],[126.4627,37.6043],[126.4761,37.6111],[126.5078,37.5969]]],[[[124.7327,37.9805],[124.7049,37.9887],[124.6494,37.9733],[124.624,37.9805],[124.6136,37.9451],[124.6441,37.9245],[124.6849,37.92],[124.7053,37.9327],[124.6784,37.942],[124.678,37.9525],[124.7088,37.9563],[124.7282,37.947],[124.742,37.955],[124.7437,37.9697],[124.7327,37.9805]]],[[[126.0999,37.228],[126.1216,37.2109],[126.1423,37.2154],[126.1592,37.2319],[126.127,37.2489],[126.1047,37.2675],[126.0918,37.2459],[126.0886,37.226],[126.0999,37.228]]],[[[126.4841,37.279],[126.4612,37.2806],[126.4353,37.264],[126.4357,37.2384],[126.4695,37.2335],[126.4832,37.2543],[126.4983,37.2614],[126.4841,37.279]]],[[[126.6139,37.2552],[126.5779,37.2711],[126.5735,37.2885],[126.5594,37.2786],[126.5408,37.2829],[126.5554,37.2661],[126.5604,37.2393],[126.5474,37.2275],[126.5505,37.2149],[126.5393,37.1981],[126.5625,37.2004],[126.6135,37.2328],[126.6139,37.2552]]],[[[125.6882,37.6793],[125.6792,37.6697],[125.6878,37.6518],[125.7062,37.6723],[125.6882,37.6793]]],[[[124.7165,37.8469],[124.7092,37.8476],[124.6765,37.8249],[124.6847,37.8039],[124.7142,37.8096],[124.7258,37.8374],[124.7165,37.8469]]]]},"properties":{"name":"Gyeonggi","name_en":"Gyeonggi","name_ja":"京畿道","name_zh":"京畿道","name_ko":"경기도","adm0_a3":"KOR","postal":"KG","iso_3166_2":"KR-41","type_en":"Province","geonunit":"South Korea"}},
{"type":"Feature","geometry":{"type":"MultiPolygon","coordinates":[[[[126.4054,36.4588],[126.4048,36.4796],[126.3838,36.4871],[126.4048,36.4933],[126.3794,36.5184],[126.3811,36.5363],[126.3634,36.5738],[126.3753,36.5861],[126.3602,36.6094],[126.3412,36.6041],[126.3148,36.5818],[126.3252,36.5539],[126.3336,36.4951],[126.3281,36.4711],[126.3433,36.4666],[126.3569,36.4796],[126.3638,36.4735],[126.3457,36.4533],[126.3426,36.4384],[126.3538,36.4341],[126.3776,36.4462],[126.3611,36.4263],[126.3638,36.4114],[126.4226,36.4115],[126.4321,36.4079],[126.4054,36.4588]]],[[[126.8121,36.0473],[126.8571,36.0922],[126.9049,36.0965],[126.9612,36.1062],[127.0647,36.1326],[127.1016,36.1267],[127.0927,36.0825],[127.114,36.0557],[127.1716,36.069],[127.2267,36.0776],[127.2763,36.0904],[127.3065,36.1212],[127.3384,36.0982],[127.3834,36.0327],[127.4294,36.0165],[127.4325,35.9871],[127.4903,35.9809],[127.5414,35.9863],[127.5711,35.993],[127.619,36.0295],[127.5759,36.0874],[127.5673,36.1217],[127.5687,36.1563],[127.5583,36.186],[127.5276,36.2012],[127.498,36.209],[127.4657,36.2036],[127.4648,36.2597],[127.4768,36.2984],[127.5187,36.3628],[127.5351,36.3728],[127.5389,36.3902],[127.5122,36.3987],[127.4823,36.3745],[127.4774,36.351],[127.4643,36.334],[127.4498,36.2908],[127.3658,36.2436],[127.3166,36.2332],[127.2959,36.2876],[127.2907,36.3601],[127.2726,36.3886],[127.219,36.4562],[127.1508,36.4412],[127.0598,36.4556],[127.0689,36.4766],[127.0841,36.4883],[127.0809,36.6398],[127.1042,36.6916],[127.2465,36.646],[127.3037,36.7149],[127.3225,36.7158],[127.3393,36.7648],[127.3223,36.7923],[127.3233,36.8128],[127.3102,36.8202],[127.293,36.8479],[127.2678,36.8641],[127.26,36.8789],[127.2127,36.8841],[127.1741,36.91],[127.1309,36.9258],[127.0478,36.8974],[127.0086,36.8974],[126.9617,36.9051],[126.9425,36.8934],[126.8602,36.8696],[126.8705,36.8528],[126.9048,36.8223],[126.8633,36.8291],[126.8716,36.804],[126.8567,36.7764],[126.8508,36.754],[126.8298,36.7751],[126.8491,36.788],[126.8407,36.8192],[126.8318,36.8311],[126.8365,36.8669],[126.8343,36.8955],[126.823,36.9184],[126.8128,36.9169],[126.782,36.8912],[126.7977,36.9344],[126.7962,36.9558],[126.7578,36.9822],[126.7143,36.993],[126.6815,36.9947],[126.665,36.9885],[126.6454,36.958],[126.6492,36.9334],[126.6311,36.9116],[126.6336,36.9374],[126.6217,36.9598],[126.6361,36.9825],[126.6261,36.9961],[126.5191,37.0554],[126.5007,37.055],[126.5123,37.0164],[126.533,37.0009],[126.5662,36.9908],[126.5721,36.9775],[126.5503,36.9731],[126.5316,36.9829],[126.5054,37.0066],[126.4934,36.997],[126.5591,36.9424],[126.5826,36.898],[126.5684,36.8985],[126.5486,36.9259],[126.5191,36.9479],[126.4912,36.8711],[126.4839,36.8415],[126.4659,36.8669],[126.4659,36.9116],[126.4796,36.929],[126.4686,36.9576],[126.4387,36.9458],[126.4324,36.962],[126.4529,36.9902],[126.4454,37.0034],[126.4277,37.0084],[126.3909,37.0079],[126.3953,36.9929],[126.3831,36.9912],[126.3638,37.0015],[126.3357,36.9868],[126.3694,36.9841],[126.3765,36.9749],[126.3699,36.9594],[126.3555,36.9678],[126.3539,36.9552],[126.3765,36.9416],[126.4114,36.9389],[126.4192,36.9223],[126.4155,36.8998],[126.4014,36.8814],[126.3773,36.8707],[126.4046,36.8632],[126.4046,36.857],[126.3699,36.8462],[126.3653,36.8354],[126.3394,36.857],[126.3287,36.847],[126.336,36.8247],[126.3567,36.7888],[126.3279,36.8046],[126.3153,36.8043],[126.2913,36.7893],[126.2817,36.8123],[126.3089,36.8291],[126.3015,36.857],[126.3235,36.8832],[126.311,36.9096],[126.3067,36.9315],[126.3089,36.9669],[126.2857,36.9611],[126.281,36.9365],[126.2817,36.8837],[126.2686,36.871],[126.23,36.873],[126.2339,36.9042],[126.1922,36.8859],[126.1908,36.872],[126.2134,36.857],[126.1969,36.8357],[126.1987,36.8232],[126.24,36.8161],[126.2207,36.8017],[126.1922,36.8086],[126.2134,36.7813],[126.1854,36.7813],[126.1656,36.8161],[126.1566,36.7942],[126.1282,36.7613],[126.1289,36.7119],[126.1328,36.7038],[126.1502,36.7239],[126.1582,36.7608],[126.2026,36.7424],[126.2134,36.7267],[126.2136,36.7116],[126.2031,36.7059],[126.1619,36.7062],[126.1656,36.6789],[126.188,36.6738],[126.2293,36.6847],[126.2557,36.7116],[126.2742,36.7199],[126.2817,36.6926],[126.273,36.6732],[126.3023,36.6344],[126.2886,36.61],[126.2953,36.5827],[126.3148,36.6016],[126.343,36.61],[126.3262,36.6284],[126.3357,36.6441],[126.3291,36.6606],[126.3015,36.6994],[126.3243,36.6997],[126.343,36.7404],[126.3591,36.7427],[126.3699,36.7323],[126.3664,36.707],[126.3779,36.7026],[126.372,36.6831],[126.3672,36.6291],[126.3864,36.6189],[126.4057,36.6182],[126.4242,36.6066],[126.4439,36.6381],[126.4395,36.6643],[126.4469,36.6838],[126.4386,36.7094],[126.4412,36.7235],[126.457,36.729],[126.4796,36.7471],[126.5007,36.7199],[126.4773,36.7169],[126.4697,36.7046],[126.4745,36.6879],[126.4985,36.6843],[126.508,36.6704],[126.4838,36.6496],[126.5199,36.6262],[126.5123,36.6032],[126.4915,36.6038],[126.4577,36.5956],[126.4642,36.5841],[126.4703,36.5402],[126.4916,36.5287],[126.5139,36.5288],[126.4834,36.497],[126.4828,36.4858],[126.4977,36.4484],[126.5076,36.4387],[126.5234,36.4411],[126.545,36.467],[126.5591,36.4735],[126.6174,36.4735],[126.598,36.4651],[126.5568,36.4558],[126.5375,36.4332],[126.4988,36.4201],[126.5138,36.3977],[126.5007,36.3909],[126.5274,36.3698],[126.5762,36.3663],[126.5826,36.353],[126.5733,36.3426],[126.5288,36.3339],[126.5138,36.3227],[126.5715,36.3056],[126.5826,36.2947],[126.568,36.2868],[126.5349,36.2196],[126.5486,36.206],[126.5801,36.1994],[126.6033,36.1718],[126.5613,36.1816],[126.5314,36.1739],[126.4974,36.16],[126.4934,36.1308],[126.5003,36.1257],[126.5096,36.151],[126.5292,36.1535],[126.5518,36.1418],[126.5523,36.1308],[126.5719,36.137],[126.5894,36.1308],[126.6123,36.099],[126.645,36.0847],[126.6311,36.0756],[126.6653,36.0346],[126.6773,36.0059],[126.6925,35.9999],[126.7544,36.0177],[126.7915,36.0422],[126.8121,36.0473]]]]},"properties":{"name":"South Chungcheong","name_en":"South Chungcheong","name_ja":"忠清南道","name_zh":"忠清南道","name_ko":"충청남도","adm0_a3":"KOR","postal":"GN","iso_3166_2":"KR-44","type_en":"Province","geonunit":"South Korea"}},
{"type":"Feature","geometry":{"type":"MultiPolygon","coordinates":[[[[126.72,37.3771],[126.7516,37.3844],[126.7721,37.3965],[126.7958,37.443],[126.7702,37.4638],[126.7594,37.4834],[126.7595,37.5071],[126.7006,37.552],[126.6038,37.5493],[126.5989,37.5251],[126.6065,37.4968],[126.642,37.4961],[126.6048,37.4857],[126.595,37.4723],[126.596,37.4397],[126.6303,37.425],[126.6386,37.4138],[126.6151,37.3797],[126.6403,37.3644],[126.6648,37.3892],[126.7172,37.3838],[126.72,37.3771]]],[[[126.5633,37.5144],[126.5264,37.5251],[126.5148,37.5343],[126.5007,37.5302],[126.4937,37.5078],[126.4734,37.4993],[126.4189,37.4969],[126.3736,37.4716],[126.3555,37.4662],[126.3832,37.4375],[126.3995,37.4449],[126.4014,37.4345],[126.4163,37.4346],[126.4205,37.4224],[126.4434,37.4206],[126.487,37.4468],[126.5066,37.4656],[126.5406,37.4777],[126.5658,37.48],[126.5831,37.4904],[126.5633,37.5144]]]]},"properties":{"name":"Incheon","name_en":"Incheon","name_ja":"仁川広域市","name_zh":"仁川廣域市","name_ko":"인천광역시","adm0_a3":"KOR","postal":"IN","iso_3166_2":"KR-28","type_en":"Metropolitan City","region":"Incheon","geonunit":"South Korea"}},
{"type":"Feature","geometry":{"type":"MultiPolygon","coordinates":[[[[126.4369,35.3706],[126.5549,35.3982],[126.5837,35.3918],[126.5715,35.3283],[126.5701,35.3012],[126.595,35.2944],[126.6565,35.3099],[126.69,35.314],[126.7179,35.3293],[126.7514,35.3398],[126.773,35.3633],[126.7703,35.3842],[126.7921,35.4032],[126.7913,35.4302],[126.8164,35.4486],[126.8503,35.4459],[126.8669,35.462],[126.9026,35.4549],[126.9332,35.4345],[126.9801,35.3826],[127.011,35.3829],[127.0198,35.4104],[127.0368,35.4284],[127.0663,35.4297],[127.0864,35.4046],[127.0775,35.3758],[127.0836,35.3572],[127.104,35.3385],[127.1027,35.3054],[127.1267,35.2844],[127.1639,35.2799],[127.1927,35.294],[127.2612,35.3015],[127.2935,35.2838],[127.3302,35.2832],[127.431,35.291],[127.4602,35.3166],[127.4964,35.3331],[127.5604,35.3142],[127.6175,35.2766],[127.6384,35.2942],[127.6465,35.3456],[127.6883,35.3864],[127.6943,35.4138],[127.6799,35.4216],[127.6697,35.4405],[127.6714,35.4661],[127.6548,35.5133],[127.6291,35.5222],[127.6302,35.5473],[127.6441,35.5705],[127.6644,35.6319],[127.6925,35.6779],[127.6954,35.7086],[127.7066,35.7348],[127.751,35.7696],[127.7698,35.8027],[127.8179,35.8128],[127.8676,35.8342],[127.8773,35.8552],[127.9139,35.8871],[127.9185,35.9508],[127.8776,36.0074],[127.852,35.987],[127.8227,36.0047],[127.7858,35.9912],[127.7537,35.9752],[127.7284,35.9884],[127.6836,36.0003],[127.6517,36.0228],[127.6371,36.0141],[127.619,36.0295],[127.5711,35.993],[127.5414,35.9863],[127.4903,35.9809],[127.4325,35.9871],[127.4294,36.0165],[127.3834,36.0327],[127.3384,36.0982],[127.3065,36.1212],[127.2763,36.0904],[127.2267,36.0776],[127.1716,36.069],[127.114,36.0557],[127.0927,36.0825],[127.1016,36.1267],[127.0647,36.1326],[126.9612,36.1062],[126.9049,36.0965],[126.8571,36.0922],[126.8121,36.0473],[126.8707,36.062],[126.8689,36.0475],[126.8491,36.036],[126.8023,36.0209],[126.7655,35.9983],[126.7445,35.9896],[126.7273,35.9936],[126.7112,35.9858],[126.6613,35.9834],[126.5214,35.9705],[126.5257,35.9404],[126.5697,35.946],[126.6088,35.9311],[126.6123,35.8902],[126.7085,35.8846],[126.7332,35.8856],[126.8067,35.9097],[126.8216,35.9081],[126.8375,35.8933],[126.8193,35.8881],[126.8062,35.8667],[126.7849,35.862],[126.72,35.8633],[126.7007,35.8398],[126.791,35.7914],[126.782,35.7602],[126.7713,35.7752],[126.7331,35.7924],[126.698,35.7959],[126.6622,35.793],[126.6294,35.7755],[126.6251,35.7456],[126.5972,35.7139],[126.5303,35.6832],[126.491,35.6491],[126.4676,35.6396],[126.4637,35.602],[126.5132,35.5769],[126.655,35.5958],[126.6702,35.5887],[126.6925,35.5344],[126.679,35.538],[126.6429,35.5728],[126.623,35.5686],[126.5942,35.5425],[126.5253,35.5349],[126.4927,35.5253],[126.4698,35.4985],[126.4255,35.4177],[126.4182,35.394],[126.4369,35.3706]]],[[[126.2581,35.5706],[126.3057,35.6032],[126.303,35.6193],[126.2761,35.6129],[126.2565,35.596],[126.2505,35.581],[126.2581,35.5706]]]]},"properties":{"name":"North Jeolla","name_en":"North Jeolla","name_ja":"全羅北道","name_zh":"全罗北道","name_ko":"전라북도","adm0_a3":"KOR","postal":"CB","iso_3166_2":"KR-45","type_en":"Province","geonunit":"South Korea"}},
{"type":"Feature","geometry":{"type":"MultiPolygon","coordinates":[[[[127.805,34.9571],[127.8026,34.9802],[127.7891,35.0073],[127.7268,35.0629],[127.7074,35.1025],[127.6605,35.1364],[127.6469,35.1563],[127.6427,35.2094],[127.6327,35.235],[127.6121,35.2548],[127.6175,35.2766],[127.5604,35.3142],[127.4964,35.3331],[127.4602,35.3166],[127.431,35.291],[127.3302,35.2832],[127.2935,35.2838],[127.2612,35.3015],[127.1927,35.294],[127.1639,35.2799],[127.1267,35.2844],[127.1027,35.3054],[127.104,35.3385],[127.0836,35.3572],[127.0775,35.3758],[127.0864,35.4046],[127.0663,35.4297],[127.0368,35.4284],[127.0198,35.4104],[127.011,35.3829],[126.9801,35.3826],[126.9332,35.4345],[126.9026,35.4549],[126.8669,35.462],[126.8503,35.4459],[126.8164,35.4486],[126.7913,35.4302],[126.7921,35.4032],[126.7703,35.3842],[126.773,35.3633],[126.7514,35.3398],[126.7179,35.3293],[126.69,35.314],[126.6565,35.3099],[126.595,35.2944],[126.5701,35.3012],[126.5715,35.3283],[126.5837,35.3918],[126.5549,35.3982],[126.4369,35.3706],[126.4585,35.3454],[126.4319,35.3494],[126.4114,35.3699],[126.3894,35.3425],[126.3773,35.3115],[126.3838,35.2917],[126.3567,35.26],[126.3773,35.2526],[126.3201,35.2446],[126.3089,35.2333],[126.3374,35.2336],[126.3635,35.2395],[126.3616,35.2257],[126.3773,35.2116],[126.3635,35.188],[126.3711,35.1735],[126.4039,35.1422],[126.4142,35.1197],[126.4524,35.1003],[126.4503,35.0666],[126.4251,35.0198],[126.4072,35.039],[126.4114,35.0613],[126.3773,35.0682],[126.3617,35.0773],[126.3567,35.0961],[126.345,35.0964],[126.3501,35.1456],[126.343,35.157],[126.3279,35.1226],[126.3152,35.116],[126.3072,35.1318],[126.2891,35.1394],[126.2686,35.1372],[126.2542,35.1234],[126.2578,35.1068],[126.2835,35.0788],[126.2742,35.0682],[126.2883,35.053],[126.3025,35.0534],[126.3094,35.0662],[126.3015,35.0887],[126.3206,35.0833],[126.3382,35.0701],[126.3667,35.0378],[126.3741,35.0168],[126.3462,34.9941],[126.3492,34.9726],[126.313,34.9774],[126.3015,34.9726],[126.3289,34.9447],[126.3152,34.9379],[126.3452,34.9264],[126.3633,34.9274],[126.3773,34.9379],[126.3706,34.9685],[126.4114,34.9863],[126.4364,34.9814],[126.4305,34.9726],[126.3977,34.9515],[126.3958,34.935],[126.4126,34.8987],[126.4251,34.8907],[126.4087,34.874],[126.4093,34.8445],[126.3701,34.8013],[126.384,34.7863],[126.4193,34.792],[126.4295,34.8056],[126.4561,34.8007],[126.4872,34.8138],[126.5007,34.8081],[126.4872,34.7871],[126.5133,34.7823],[126.5237,34.7939],[126.5349,34.828],[126.5469,34.8477],[126.5405,34.8749],[126.5527,34.8957],[126.5814,34.898],[126.5891,34.8729],[126.5758,34.8553],[126.5758,34.8218],[126.6277,34.8256],[126.6504,34.8222],[126.6653,34.8081],[126.6311,34.8007],[126.6382,34.788],[126.6148,34.7895],[126.5689,34.8007],[126.5444,34.7957],[126.5325,34.7829],[126.5349,34.746],[126.5059,34.751],[126.4601,34.7788],[126.4221,34.7648],[126.3923,34.7686],[126.364,34.7492],[126.3671,34.7397],[126.3902,34.7334],[126.4154,34.739],[126.4358,34.7281],[126.4653,34.7297],[126.5084,34.7185],[126.5411,34.684],[126.5628,34.671],[126.5554,34.6635],[126.6026,34.6329],[126.6236,34.63],[126.6027,34.6255],[126.5739,34.6331],[126.5316,34.6526],[126.5191,34.6504],[126.5401,34.6276],[126.5357,34.6232],[126.5003,34.6458],[126.4824,34.6517],[126.4529,34.671],[126.4533,34.6979],[126.4479,34.7059],[126.406,34.7134],[126.3786,34.7112],[126.3844,34.6937],[126.3768,34.6795],[126.3861,34.6358],[126.4029,34.6507],[126.4161,34.6527],[126.4126,34.6298],[126.435,34.6068],[126.4727,34.602],[126.4646,34.5847],[126.4531,34.5838],[126.4319,34.5959],[126.3823,34.6027],[126.3699,34.6089],[126.3492,34.6567],[126.3442,34.6779],[126.3567,34.6982],[126.3196,34.7477],[126.2903,34.7502],[126.2886,34.7256],[126.2694,34.6713],[126.2711,34.6425],[126.3186,34.6191],[126.3155,34.6041],[126.3015,34.6089],[126.2953,34.5891],[126.3186,34.5717],[126.3401,34.5744],[126.346,34.5846],[126.3567,34.5685],[126.3805,34.5589],[126.3909,34.5338],[126.4173,34.5404],[126.4659,34.5407],[126.4735,34.5565],[126.4863,34.5609],[126.5076,34.5543],[126.5274,34.5685],[126.5393,34.5536],[126.5138,34.5338],[126.531,34.527],[126.5418,34.5133],[126.4902,34.5086],[126.4703,34.4965],[126.4659,34.4724],[126.4837,34.4702],[126.4758,34.4333],[126.5138,34.424],[126.5149,34.4036],[126.5007,34.3823],[126.4885,34.3806],[126.4796,34.3488],[126.5057,34.3499],[126.5274,34.3414],[126.5293,34.33],[126.5199,34.306],[126.5328,34.2922],[126.5789,34.3048],[126.6033,34.3004],[126.6053,34.3217],[126.6296,34.3892],[126.6448,34.4035],[126.6822,34.414],[126.6902,34.4359],[126.7269,34.433],[126.7271,34.4428],[126.7088,34.4499],[126.7232,34.4608],[126.7615,34.4792],[126.7391,34.5027],[126.7351,34.5149],[126.766,34.5234],[126.7552,34.5577],[126.7669,34.578],[126.7887,34.5891],[126.8001,34.582],[126.8079,34.5532],[126.8023,34.5407],[126.8062,34.5211],[126.802,34.4704],[126.8098,34.4512],[126.857,34.4376],[126.898,34.4177],[126.8923,34.4294],[126.9048,34.4587],[126.9314,34.4477],[126.9408,34.4546],[126.939,34.4959],[126.9942,34.5407],[126.9867,34.5537],[127.0072,34.5815],[127.0103,34.6125],[127.03,34.6184],[127.0991,34.6545],[127.1253,34.6798],[127.148,34.6915],[127.1853,34.6867],[127.2137,34.7056],[127.2339,34.7482],[127.2481,34.7665],[127.2727,34.7338],[127.2908,34.7214],[127.3316,34.7412],[127.3579,34.6982],[127.3299,34.6567],[127.303,34.655],[127.2884,34.6772],[127.292,34.6945],[127.2748,34.7051],[127.2406,34.671],[127.2415,34.6558],[127.261,34.63],[127.2613,34.6004],[127.2467,34.5837],[127.2222,34.5764],[127.1929,34.5748],[127.2075,34.604],[127.2134,34.6369],[127.1988,34.631],[127.1792,34.602],[127.159,34.58],[127.1296,34.5639],[127.1245,34.5407],[127.1338,34.5263],[127.1792,34.5133],[127.1724,34.5276],[127.2235,34.5468],[127.261,34.5133],[127.2751,34.4895],[127.3159,34.4449],[127.3436,34.445],[127.3308,34.4565],[127.3278,34.4739],[127.3566,34.492],[127.3749,34.485],[127.3918,34.5048],[127.4392,34.5407],[127.4184,34.5553],[127.3804,34.5471],[127.3579,34.5543],[127.3436,34.5782],[127.363,34.5939],[127.3921,34.602],[127.4067,34.5981],[127.4522,34.5748],[127.4841,34.5766],[127.5036,34.5913],[127.4952,34.6232],[127.4522,34.6369],[127.4876,34.6369],[127.4662,34.6622],[127.4349,34.6787],[127.406,34.7],[127.3921,34.7398],[127.4024,34.7471],[127.3853,34.7602],[127.3665,34.754],[127.3616,34.7733],[127.3831,34.7833],[127.4255,34.7944],[127.4255,34.8007],[127.3785,34.8151],[127.3653,34.824],[127.3816,34.828],[127.4447,34.8292],[127.4873,34.8415],[127.5166,34.8911],[127.5281,34.8798],[127.5218,34.859],[127.5396,34.8231],[127.5403,34.8038],[127.5559,34.8007],[127.5798,34.7631],[127.5845,34.7462],[127.562,34.7057],[127.5559,34.6846],[127.5608,34.6622],[127.5723,34.6474],[127.5901,34.6393],[127.614,34.6369],[127.6407,34.618],[127.6453,34.6263],[127.638,34.671],[127.6243,34.6982],[127.638,34.6982],[127.6563,34.7313],[127.7064,34.7159],[127.7415,34.7256],[127.7498,34.7371],[127.7613,34.7871],[127.7745,34.8293],[127.7756,34.8491],[127.7568,34.8408],[127.7214,34.8446],[127.7,34.8423],[127.6565,34.8119],[127.6189,34.8364],[127.6012,34.8564],[127.5764,34.8969],[127.5807,34.9337],[127.5916,34.9464],[127.6072,34.9413],[127.6261,34.9097],[127.6411,34.8991],[127.6621,34.9068],[127.7,34.9316],[127.7205,34.9652],[127.7192,34.9901],[127.7307,34.9826],[127.7444,34.9602],[127.805,34.9571]],[[126.9856,35.2388],[127.0058,35.193],[126.9664,35.1501],[126.9047,35.1581],[126.8503,35.1849],[126.8229,35.2341],[126.8445,35.2508],[126.8803,35.243],[126.934,35.2546],[126.9856,35.2388]]],[[[127.173,34.4837],[127.1403,34.4787],[127.1105,34.4649],[127.1238,34.4552],[127.1174,34.4376],[127.153,34.4196],[127.169,34.4177],[127.2287,34.4302],[127.2419,34.4455],[127.2451,34.4641],[127.2342,34.4803],[127.2043,34.4868],[127.173,34.4837]]],[[[126.3801,34.4984],[126.3504,34.5382],[126.3495,34.5468],[126.3223,34.5338],[126.3054,34.5543],[126.2639,34.5758],[126.2411,34.5665],[126.2668,34.5498],[126.2744,34.5373],[126.2683,34.522],[126.2383,34.5157],[126.2266,34.5276],[126.2238,34.5134],[126.1963,34.5028],[126.1812,34.4865],[126.1721,34.4649],[126.1442,34.4632],[126.1157,34.4362],[126.1033,34.4028],[126.1243,34.3823],[126.1243,34.4035],[126.1585,34.3823],[126.1426,34.3638],[126.1564,34.3526],[126.21,34.3588],[126.3052,34.4017],[126.3093,34.424],[126.3359,34.4035],[126.3539,34.4196],[126.3735,34.4544],[126.3816,34.4847],[126.3801,34.4984]]],[[[127.7821,34.6846],[127.7942,34.6938],[127.7966,34.7142],[127.7859,34.7182],[127.7625,34.7128],[127.7759,34.6915],[127.765,34.6601],[127.7419,34.6436],[127.74,34.6137],[127.7754,34.584],[127.7979,34.5797],[127.8151,34.602],[127.8172,34.6308],[127.8088,34.6558],[127.7925,34.6824],[127.7821,34.6846]]],[[[125.989,34.7133],[125.9706,34.7257],[125.9524,34.7051],[125.9229,34.6954],[125.916,34.6876],[125.9295,34.6723],[125.9769,34.6564],[125.999,34.6774],[126.0054,34.6926],[125.989,34.7133]]],[[[126.0072,34.781],[125.9893,34.79],[125.9387,34.7765],[125.9251,34.7808],[125.9019,34.7711],[125.8909,34.7498],[125.8978,34.726],[125.9064,34.7193],[125.93,34.7226],[125.9387,34.7314],[125.9461,34.7567],[125.9779,34.7571],[125.9865,34.7665],[126.0076,34.7597],[126.0072,34.781]]],[[[126.056,34.9136],[126.0523,34.9075],[126.028,34.9099],[126.0143,34.8996],[125.9865,34.8627],[126.0314,34.869],[126.0547,34.8592],[126.0807,34.871],[126.0915,34.8969],[126.0891,34.9113],[126.0701,34.9289],[126.056,34.9136]]],[[[126.1106,35.0512],[126.1228,35.0698],[126.1448,35.0825],[126.1314,35.1002],[126.1278,35.1206],[126.1348,35.129],[126.1652,35.1435],[126.1499,35.1469],[126.1113,35.1333],[126.0989,35.1133],[126.0691,35.1024],[126.056,35.0613],[126.1106,35.0512]]],[[[127.3091,34.0201],[127.2964,34.0376],[127.2957,34.0615],[127.28,34.0574],[127.2783,34.0446],[127.2957,34.0141],[127.3235,34.0058],[127.3091,34.0201]]],[[[127.5319,34.4506],[127.5099,34.47],[127.4917,34.4622],[127.4583,34.4729],[127.4522,34.453],[127.4946,34.4143],[127.5106,34.4183],[127.5364,34.4348],[127.5319,34.4506]]],[[[127.783,34.507],[127.7611,34.5431],[127.7481,34.5511],[127.7129,34.5424],[127.7075,34.5339],[127.7322,34.5085],[127.7712,34.4882],[127.7918,34.492],[127.783,34.507]]],[[[126.1001,34.5967],[126.0994,34.6055],[126.0676,34.6255],[126.0601,34.6208],[126.0813,34.5808],[126.065,34.5638],[126.0313,34.5564],[126.0535,34.5523],[126.0352,34.5339],[126.0576,34.5325],[126.0994,34.5587],[126.1043,34.5898],[126.1001,34.5967]]],[[[126.0381,34.5695],[126.0576,34.5726],[126.0604,34.5843],[126.0286,34.6342],[126.0166,34.6061],[126.0205,34.5714],[126.0381,34.5695]]],[[[125.4458,34.6885],[125.4295,34.6984],[125.4129,34.692],[125.3934,34.6597],[125.3988,34.632],[125.4085,34.6286],[125.4274,34.6542],[125.4592,34.6868],[125.4458,34.6885]]],[[[126.1741,34.7328],[126.1636,34.755],[126.1419,34.7576],[126.1052,34.7716],[126.0696,34.7697],[126.0934,34.7443],[126.1113,34.7177],[126.1384,34.7235],[126.1594,34.7028],[126.1779,34.7134],[126.1741,34.7328]]],[[[126.1687,34.7923],[126.1494,34.8081],[126.0925,34.7876],[126.1216,34.7765],[126.1463,34.7619],[126.1642,34.7698],[126.1687,34.7923]]],[[[126.0794,34.8227],[126.0962,34.7988],[126.1159,34.8031],[126.1189,34.8238],[126.1421,34.8329],[126.1397,34.8579],[126.1531,34.865],[126.1423,34.8791],[126.1133,34.8712],[126.1126,34.8534],[126.0938,34.8576],[126.0671,34.8505],[126.0641,34.8426],[126.0794,34.8227]]],[[[126.2464,34.9162],[126.2532,34.9335],[126.2224,34.932],[126.2254,34.9134],[126.2464,34.9162]]],[[[126.1784,35.0485],[126.1438,35.0577],[126.1278,35.0482],[126.1438,35.0339],[126.154,35.0357],[126.1724,35.0236],[126.1817,35.0291],[126.1784,35.0485]]],[[[125.1277,34.0486],[125.1364,34.0593],[125.1221,34.0838],[125.1022,34.0959],[125.0921,34.0718],[125.1277,34.0486]]],[[[126.599,34.1686],[126.5679,34.1686],[126.5481,34.1791],[126.5329,34.1791],[126.5151,34.1689],[126.5071,34.1389],[126.5178,34.1271],[126.5369,34.1265],[126.573,34.1477],[126.5818,34.1574],[126.604,34.1522],[126.616,34.157],[126.599,34.1686]]],[[[126.672,34.1533],[126.6619,34.1657],[126.6707,34.1899],[126.6453,34.1972],[126.6365,34.1872],[126.645,34.1775],[126.6365,34.1415],[126.6387,34.1281],[126.6555,34.1168],[126.6704,34.1269],[126.672,34.1533]]],[[[126.9094,34.1977],[126.8993,34.2097],[126.8822,34.2133],[126.8609,34.2019],[126.8491,34.1744],[126.8532,34.159],[126.867,34.1628],[126.887,34.1514],[126.9136,34.1577],[126.925,34.1849],[126.9094,34.1977]]],[[[126.6122,34.2182],[126.5962,34.226],[126.5597,34.2345],[126.5622,34.2223],[126.5488,34.1946],[126.5686,34.179],[126.5838,34.1756],[126.584,34.1863],[126.6066,34.1883],[126.617,34.2045],[126.6122,34.2182]]],[[[126.0887,34.3079],[126.0332,34.3149],[126.0217,34.2956],[126.0493,34.2802],[126.0693,34.279],[126.0894,34.2896],[126.0887,34.3079]]],[[[126.8539,34.3085],[126.8768,34.3122],[126.8933,34.3413],[126.8377,34.3537],[126.8029,34.3387],[126.7859,34.3432],[126.7576,34.3361],[126.7887,34.321],[126.8206,34.3256],[126.8406,34.3034],[126.8539,34.3085]]],[[[127.0916,34.3449],[127.0774,34.3593],[127.0537,34.3548],[127.0286,34.3804],[126.9915,34.3563],[127.0243,34.3482],[127.0237,34.3392],[127.0492,34.3314],[127.0388,34.3129],[127.0916,34.3449]]],[[[126.7639,34.3092],[126.7456,34.3242],[126.7219,34.3813],[126.71,34.3929],[126.6878,34.402],[126.6537,34.3952],[126.6418,34.373],[126.6449,34.3371],[126.6636,34.3234],[126.6956,34.3208],[126.689,34.3011],[126.7317,34.2894],[126.7417,34.2982],[126.7715,34.2919],[126.7639,34.3092]]],[[[126.7625,34.383],[126.7757,34.3547],[126.7933,34.3789],[126.8333,34.397],[126.8538,34.3918],[126.8602,34.3989],[126.8366,34.4186],[126.8355,34.4381],[126.8023,34.4358],[126.7825,34.4267],[126.7532,34.3869],[126.7625,34.383]]],[[[126.3407,34.8641],[126.3201,34.8659],[126.32,34.8811],[126.3452,34.8962],[126.3325,34.9067],[126.2974,34.9175],[126.2865,34.9129],[126.2976,34.8942],[126.2927,34.8807],[126.2723,34.8668],[126.2307,34.8546],[126.2487,34.8447],[126.3062,34.8559],[126.3382,34.8415],[126.3313,34.8258],[126.3421,34.8225],[126.3617,34.8374],[126.3596,34.8586],[126.3407,34.8641]]],[[[126.2342,35.0471],[126.2429,35.0273],[126.2611,35.0246],[126.2632,35.0419],[126.2492,35.0633],[126.2185,35.0766],[126.2385,35.0919],[126.2166,35.1037],[126.1986,35.0971],[126.1775,35.1058],[126.1587,35.0942],[126.1694,35.0737],[126.1848,35.0627],[126.2361,35.0519],[126.2342,35.0471]]]]},"properties":{"name":"South Jeolla","name_en":"South Jeolla","name_ja":"全羅南道","name_zh":"全罗南道","name_ko":"전라남도","adm0_a3":"KOR","postal":"KJ","iso_3166_2":"KR-46","type_en":"Metropolitan City","geonunit":"South Korea"}},
{"type":"Feature","geometry":{"type":"MultiPolygon","coordinates":[[[[128.9628,35.1334],[129.0005,35.179],[129.011,35.2381],[129.0442,35.2638],[129.0678,35.2716],[129.0931,35.2708],[129.1128,35.2605],[129.1184,35.2386],[129.1362,35.2183],[129.1591,35.2031],[129.1993,35.1636],[129.2285,35.2005],[129.2557,35.247],[129.2497,35.2662],[129.2624,35.284],[129.2688,35.3157],[129.2364,35.3268],[129.2146,35.3444],[129.2079,35.3722],[129.1849,35.3868],[129.1334,35.4099],[129.0902,35.4502],[129.0643,35.4663],[129.0027,35.474],[128.9877,35.4987],[129.0127,35.5397],[129.0085,35.5795],[128.9805,35.5719],[128.951,35.5832],[128.9126,35.591],[128.8764,35.5789],[128.8512,35.5571],[128.8223,35.5512],[128.7898,35.5302],[128.7525,35.5311],[128.7213,35.5444],[128.6886,35.5526],[128.6149,35.5438],[128.5836,35.5599],[128.5584,35.585],[128.5501,35.6403],[128.5271,35.6258],[128.5024,35.5971],[128.475,35.6017],[128.4214,35.5793],[128.393,35.5839],[128.3674,35.5996],[128.3403,35.6102],[128.3115,35.6141],[128.2813,35.6106],[128.2196,35.6128],[128.2039,35.659],[128.2159,35.6815],[128.2165,35.7051],[128.1878,35.7256],[128.1788,35.7436],[128.1567,35.7563],[128.1433,35.7768],[128.1243,35.7936],[128.0985,35.8007],[128.0414,35.8023],[128.0121,35.8201],[127.9656,35.8272],[127.9607,35.8432],[127.9219,35.8648],[127.9139,35.8871],[127.8773,35.8552],[127.8676,35.8342],[127.8179,35.8128],[127.7698,35.8027],[127.751,35.7696],[127.7066,35.7348],[127.6954,35.7086],[127.6925,35.6779],[127.6644,35.6319],[127.6441,35.5705],[127.6302,35.5473],[127.6291,35.5222],[127.6548,35.5133],[127.6714,35.4661],[127.6697,35.4405],[127.6799,35.4216],[127.6943,35.4138],[127.6883,35.3864],[127.6465,35.3456],[127.6384,35.2942],[127.6175,35.2766],[127.6121,35.2548],[127.6327,35.235],[127.6427,35.2094],[127.6469,35.1563],[127.6605,35.1364],[127.7074,35.1025],[127.7268,35.0629],[127.7891,35.0073],[127.8026,34.9802],[127.805,34.9571],[127.8303,34.9447],[127.8443,34.9502],[127.8645,34.9447],[127.8912,34.9467],[127.9121,34.9621],[127.9229,34.9875],[127.9258,35.0198],[127.937,35.0126],[127.9539,34.9788],[127.9797,34.9923],[128.0068,34.9918],[128.0193,34.9987],[128.001,35.0341],[128.025,35.0358],[128.0693,35.0825],[128.054,35.0358],[128.0557,34.9617],[128.051,34.9396],[128.064,34.9279],[128.1177,34.9242],[128.1211,34.9003],[128.1394,34.8919],[128.1859,34.8936],[128.207,34.8907],[128.2086,34.9208],[128.2241,34.9379],[128.2579,34.9302],[128.2791,34.9068],[128.3023,34.908],[128.3187,34.9341],[128.3351,34.9473],[128.3578,34.9099],[128.3245,34.8973],[128.3408,34.8727],[128.3538,34.8685],[128.4159,34.8627],[128.4109,34.856],[128.3834,34.8546],[128.3829,34.8393],[128.4129,34.8376],[128.4353,34.8432],[128.4745,34.8907],[128.4609,34.9037],[128.4509,34.8859],[128.433,34.8907],[128.4404,34.9316],[128.4404,34.9652],[128.42,34.9827],[128.4268,34.9925],[128.4397,34.9881],[128.4788,34.9901],[128.4996,35.0092],[128.4881,35.0512],[128.4712,35.0502],[128.3714,35.0068],[128.3821,35.0226],[128.3892,35.049],[128.4285,35.0578],[128.4627,35.072],[128.4813,35.075],[128.4697,35.0884],[128.4781,35.0991],[128.5264,35.1035],[128.5803,35.0879],[128.5968,35.075],[128.6036,35.0566],[128.6345,35.0546],[128.6521,35.0613],[128.6248,35.0682],[128.627,35.0908],[128.5977,35.1305],[128.5781,35.1894],[128.6021,35.2139],[128.6179,35.1849],[128.6223,35.1574],[128.6179,35.1433],[128.638,35.1498],[128.6799,35.116],[128.6878,35.1406],[128.7005,35.1399],[128.7005,35.0961],[128.7278,35.1047],[128.7387,35.088],[128.762,35.0794],[128.772,35.0833],[128.7811,35.1111],[128.7916,35.083],[128.8574,35.0838],[128.8822,35.0815],[128.8979,35.1213],[128.9046,35.1205],[128.9046,35.0811],[128.9184,35.0819],[128.958,35.1369],[128.9628,35.1334]]],[[[128.0696,34.815],[128.0291,34.8218],[127.9619,34.807],[127.9499,34.8247],[127.9285,34.8306],[127.9143,34.8446],[127.9056,34.869],[127.9281,34.8883],[127.9382,34.914],[127.9172,34.9362],[127.9021,34.94],[127.867,34.9182],[127.8623,34.8961],[127.8408,34.8869],[127.8294,34.869],[127.8303,34.8336],[127.8579,34.7597],[127.868,34.7219],[127.9063,34.7131],[127.9246,34.7596],[127.9377,34.767],[127.9541,34.7597],[127.9653,34.7193],[127.9753,34.6999],[128.0101,34.7088],[128.0405,34.6959],[128.0601,34.7084],[128.0516,34.7287],[128.0653,34.7375],[128.0633,34.77],[128.0747,34.8037],[128.0696,34.815]]],[[[128.7485,34.869],[128.7476,34.8858],[128.7144,34.8764],[128.7302,34.9104],[128.7344,34.9355],[128.7188,34.9722],[128.7253,35.0093],[128.7206,35.0272],[128.7029,35.0329],[128.6875,35.0229],[128.6819,35.0046],[128.6939,34.9863],[128.6238,34.9536],[128.6106,34.9549],[128.6164,34.9219],[128.6455,34.8907],[128.627,34.8918],[128.584,34.9099],[128.5363,34.9037],[128.5081,34.891],[128.4885,34.869],[128.4915,34.8499],[128.5288,34.8081],[128.5447,34.8188],[128.5806,34.8319],[128.5908,34.8423],[128.6045,34.8354],[128.5986,34.8022],[128.5916,34.7912],[128.5604,34.7818],[128.5643,34.7587],[128.5735,34.7535],[128.6045,34.7665],[128.5986,34.74],[128.6182,34.7256],[128.584,34.7051],[128.6058,34.7064],[128.6782,34.7248],[128.6939,34.7362],[128.6572,34.757],[128.6802,34.7866],[128.6864,34.8081],[128.7166,34.7932],[128.7417,34.7907],[128.739,34.8062],[128.7206,34.8423],[128.7429,34.8446],[128.7485,34.869]]],[[[128.0728,34.8451],[128.0589,34.8804],[128.0363,34.8923],[128.0187,34.8662],[128.0125,34.8783],[128.023,34.9055],[128.0178,34.9166],[128.002,34.913],[127.9705,34.8752],[127.9636,34.8598],[127.9724,34.8455],[128.0018,34.8367],[128.0265,34.8432],[128.0718,34.8334],[128.0728,34.8451]]],[[[128.8428,35.0219],[128.8433,35.0472],[128.8364,35.0598],[128.815,35.0613],[128.8016,35.0491],[128.8091,35.0259],[128.8267,34.9924],[128.8384,35.0012],[128.8428,35.0219]]],[[[128.2946,34.6396],[128.2758,34.6319],[128.2395,34.6524],[128.2253,34.6328],[128.2378,34.6258],[128.2363,34.6105],[128.2581,34.6199],[128.2861,34.6222],[128.2946,34.6396]]],[[[128.3858,34.8201],[128.3518,34.8354],[128.332,34.8257],[128.3801,34.8104],[128.3687,34.7965],[128.3862,34.7919],[128.4065,34.7631],[128.4231,34.7633],[128.4373,34.7798],[128.4406,34.8067],[128.4282,34.8274],[128.3858,34.8201]]],[[[128.2399,34.8362],[128.2273,34.8386],[128.2058,34.8156],[128.2385,34.7969],[128.2407,34.8071],[128.2605,34.8146],[128.2399,34.8362]]]]},"properties":{"name":"South Gyeongsang","name_en":"South Gyeongsang","name_ja":"慶尚南道","name_zh":"庆尚南道","name_ko":"경상남도","adm0_a3":"KOR","postal":"KN","iso_3166_2":"KR-48","type_en":"Province","geonunit":"South Korea"}},
{"type":"Feature","geometry":{"type":"Polygon","coordinates":[[[129.1993,35.1636],[129.1591,35.2031],[129.1362,35.2183],[129.1184,35.2386],[129.1128,35.2605],[129.0931,35.2708],[129.0678,35.2716],[129.0442,35.2638],[129.011,35.2381],[129.0005,35.179],[128.9628,35.1334],[128.9504,35.0729],[128.9651,35.0436],[128.9851,35.0543],[129.0004,35.046],[128.997,35.0757],[129.0138,35.0553],[129.0376,35.0978],[129.0638,35.1208],[129.1011,35.0923],[129.1235,35.1008],[129.1273,35.1258],[129.1203,35.1496],[129.1431,35.1548],[129.1943,35.1555],[129.1993,35.1636]]]},"properties":{"name":"Busan","name_en":"Busan","name_ja":"釜山広域市","name_zh":"釜山","name_ko":"부산광역시","adm0_a3":"KOR","postal":"PU","iso_3166_2":"KR-26","type_en":"Metropolitan City","geonunit":"South Korea"}},
{"type":"Feature","geometry":{"type":"Polygon","coordinates":[[[129.4591,35.6108],[129.379,35.6264],[129.286,35.6127],[129.2568,35.6235],[129.2538,35.6518],[129.2446,35.6641],[129.2094,35.6764],[129.1755,35.6822],[129.1409,35.6779],[129.0986,35.6659],[129.0649,35.6446],[129.08,35.6177],[129.0085,35.5795],[129.0127,35.5397],[128.9877,35.4987],[129.0027,35.474],[129.0643,35.4663],[129.0902,35.4502],[129.1334,35.4099],[129.1849,35.3868],[129.2079,35.3722],[129.2146,35.3444],[129.2364,35.3268],[129.2688,35.3157],[129.2927,35.316],[129.3205,35.3385],[129.3604,35.3536],[129.3618,35.3672],[129.3468,35.3823],[129.3646,35.4069],[129.3578,35.4518],[129.3875,35.4623],[129.3919,35.4757],[129.3871,35.5023],[129.3652,35.5133],[129.3735,35.5328],[129.3875,35.5299],[129.4004,35.5126],[129.4129,35.4721],[129.428,35.4787],[129.4546,35.5133],[129.4673,35.5997],[129.4591,35.6108]]]},"properties":{"name":"Ulsan","name_en":"Ulsan","name_ja":"蔚山広域市","name_zh":"蔚山广域市","name_ko":"울산광역시","adm0_a3":"KOR","postal":"UL","iso_3166_2":"KR-31","type_en":"Metropolitan City","geonunit":"South Korea"}},
{"type":"Feature","geometry":{"type":"MultiPolygon","coordinates":[[[[129.4226,36.6166],[129.3792,36.6231],[129.3472,36.6117],[129.2779,36.6323],[129.289,36.6561],[129.2771,36.7031],[129.2744,36.7311],[129.2985,36.7829],[129.2821,36.7969],[129.2861,36.8196],[129.2128,36.824],[129.1684,36.8416],[129.1516,36.8813],[129.1187,36.8938],[129.0981,36.9187],[129.0937,36.9511],[129.1009,36.9759],[129.1366,36.9919],[129.1658,36.9827],[129.1895,36.9968],[129.1797,37.0199],[129.1485,37.0349],[129.1143,37.0413],[129.0871,37.0298],[129.061,37.0245],[129.0241,37.0381],[128.9849,37.0433],[128.9607,37.0401],[128.9401,37.0532],[128.9116,37.0355],[128.8817,37.0261],[128.8819,37.061],[128.8452,37.0715],[128.8311,37.0912],[128.8038,37.0929],[128.7767,37.0827],[128.7585,37.065],[128.7651,37.0404],[128.756,36.996],[128.7006,37.0031],[128.6503,37.0223],[128.6245,37.0049],[128.6126,37.0086],[128.5378,36.9542],[128.5171,36.949],[128.496,36.928],[128.4651,36.9104],[128.443,36.8852],[128.4199,36.8478],[128.4402,36.8282],[128.4254,36.789],[128.3417,36.7608],[128.306,36.7702],[128.2911,36.7943],[128.2379,36.8319],[128.2144,36.8084],[128.2024,36.7763],[128.1736,36.7781],[128.1266,36.7952],[128.1095,36.7864],[128.0931,36.7686],[128.0731,36.7672],[128.0571,36.7757],[128.0325,36.7374],[128.0258,36.7169],[128.0595,36.6747],[127.9886,36.6837],[127.9505,36.697],[127.9288,36.671],[127.8938,36.6577],[127.8627,36.6407],[127.8552,36.6093],[127.8182,36.5725],[127.7887,36.5648],[127.8,36.542],[127.8392,36.5366],[127.8881,36.4794],[127.87,36.4651],[127.86,36.4422],[127.856,36.3878],[127.85,36.3637],[127.8674,36.3307],[127.853,36.3077],[127.8309,36.2922],[127.8369,36.2447],[127.8771,36.2524],[127.9013,36.246],[127.9296,36.2269],[127.949,36.2194],[128.0001,36.2293],[128.0227,36.2159],[128.0341,36.1637],[127.9888,36.1683],[127.9646,36.1516],[127.9702,36.1247],[127.9682,36.0946],[127.9509,36.074],[127.9425,36.0483],[127.927,36.0238],[127.8776,36.0074],[127.9185,35.9508],[127.9139,35.8871],[127.9219,35.8648],[127.9607,35.8432],[127.9656,35.8272],[128.0121,35.8201],[128.0414,35.8023],[128.0985,35.8007],[128.1243,35.7936],[128.1433,35.7768],[128.1567,35.7563],[128.1788,35.7436],[128.1878,35.7256],[128.2165,35.7051],[128.2159,35.6815],[128.2039,35.659],[128.2196,35.6128],[128.2813,35.6106],[128.3115,35.6141],[128.3403,35.6102],[128.3674,35.5996],[128.393,35.5839],[128.4214,35.5793],[128.475,35.6017],[128.5024,35.5971],[128.5271,35.6258],[128.5501,35.6403],[128.5584,35.585],[128.5836,35.5599],[128.6149,35.5438],[128.6886,35.5526],[128.7213,35.5444],[128.7525,35.5311],[128.7898,35.5302],[128.8223,35.5512],[128.8512,35.5571],[128.8764,35.5789],[128.9126,35.591],[128.951,35.5832],[128.9805,35.5719],[129.0085,35.5795],[129.08,35.6177],[129.0649,35.6446],[129.0986,35.6659],[129.1409,35.6779],[129.1755,35.6822],[129.2094,35.6764],[129.2446,35.6641],[129.2538,35.6518],[129.2568,35.6235],[129.286,35.6127],[129.379,35.6264],[129.4591,35.6108],[129.4431,35.6361],[129.4711,35.6832],[129.4977,35.7479],[129.4962,35.7851],[129.5221,35.8446],[129.5356,35.939],[129.5716,35.9971],[129.5873,36.0169],[129.5713,36.0718],[129.5548,36.0825],[129.5426,36.0659],[129.479,36.0096],[129.4533,35.9933],[129.4331,35.9961],[129.3809,36.0415],[129.3818,36.0552],[129.4187,36.073],[129.4305,36.0974],[129.4171,36.1076],[129.4039,36.1676],[129.3858,36.1855],[129.3823,36.2019],[129.3866,36.3227],[129.4039,36.3594],[129.4348,36.3896],[129.4409,36.4079],[129.4471,36.4933],[129.4417,36.5347],[129.428,36.5757],[129.4226,36.6166]],[[128.7413,35.8488],[128.7244,35.85],[128.7235,35.8349],[128.711,35.7991],[128.6887,35.7881],[128.6309,35.8003],[128.5986,35.803],[128.5843,35.7938],[128.5624,35.7683],[128.5232,35.7925],[128.5114,35.8112],[128.4813,35.8277],[128.4753,35.8462],[128.4891,35.8619],[128.5202,35.8641],[128.5263,35.8835],[128.5081,35.8874],[128.5188,35.9071],[128.536,35.9224],[128.5297,35.968],[128.5767,35.9996],[128.6403,36.0065],[128.6932,36.0093],[128.7333,35.9855],[128.746,35.9676],[128.7409,35.9277],[128.7597,35.9105],[128.7623,35.8777],[128.7569,35.8619],[128.7413,35.8488]]],[[[130.9036,37.5458],[130.8323,37.5321],[130.8143,37.5226],[130.8058,37.5074],[130.811,37.487],[130.8275,37.4713],[130.8522,37.4595],[130.8777,37.4555],[130.8967,37.4631],[130.9194,37.5102],[130.9207,37.5356],[130.9036,37.5458]]]]},"properties":{"name":"North Gyeongsang","name_en":"North Gyeongsang","name_ja":"慶尚北道","name_zh":"庆尚北道","name_ko":"경상북도","adm0_a3":"KOR","postal":"TG","iso_3166_2":"KR-47","type_en":"Metropolitan City","geonunit":"South Korea"}},
{"type":"Feature","geometry":{"type":"Polygon","coordinates":[[[126.9461,33.478],[126.9324,33.4649],[126.9227,33.4766],[126.9129,33.5066],[126.8982,33.519],[126.8499,33.535],[126.8234,33.5594],[126.7924,33.5638],[126.7455,33.5606],[126.6647,33.5497],[126.6488,33.5534],[126.5824,33.5293],[126.4849,33.5208],[126.4594,33.5024],[126.3574,33.478],[126.3106,33.4645],[126.2979,33.4417],[126.2707,33.4359],[126.241,33.3928],[126.2062,33.3756],[126.179,33.3415],[126.1611,33.3008],[126.1714,33.2694],[126.2008,33.2436],[126.2312,33.2349],[126.2539,33.204],[126.27,33.1976],[126.2861,33.2004],[126.3038,33.2266],[126.3334,33.2382],[126.4285,33.2393],[126.4706,33.2287],[126.5212,33.2366],[126.5655,33.2329],[126.6069,33.2406],[126.6407,33.2647],[126.7418,33.2802],[126.7801,33.3055],[126.8064,33.3036],[126.8406,33.3102],[126.848,33.3321],[126.8735,33.373],[126.9075,33.3957],[126.9392,33.4309],[126.9324,33.4513],[126.9536,33.465],[126.9461,33.478]]]},"properties":{"name":"Jeju","name_en":"Jeju","name_ja":"済州特別自治道","name_zh":"济州特别自治道","name_ko":"제주특별자치도","adm0_a3":"KOR","postal":"CJ","iso_3166_2":"KR-49","type_en":"Province","geonunit":"South Korea"}},
{"type":"Feature","geometry":{"type":"Polygon","coordinates":[[[127.1159,37.5506],[127.1251,37.5789],[127.1245,37.6033],[127.114,37.6256],[127.1074,37.6574],[127.0903,37.6808],[127.0543,37.6831],[127.0231,37.6772],[127.0031,37.6603],[126.9891,37.6367],[126.966,37.6134],[126.9212,37.61],[126.9137,37.5769],[126.8688,37.5603],[126.8367,37.5758],[126.8087,37.5772],[126.7937,37.5517],[126.8373,37.5062],[126.8425,37.4775],[126.8625,37.4671],[126.8914,37.4601],[126.9208,37.4295],[126.9637,37.4283],[127.0493,37.4494],[127.0608,37.4285],[127.0902,37.4402],[127.1187,37.4455],[127.1446,37.4578],[127.1713,37.4894],[127.1629,37.5147],[127.1921,37.5283],[127.1871,37.5578],[127.1433,37.5508],[127.1159,37.5506]]]},"properties":{"name":"Seoul","name_en":"Seoul","name_ja":"ソウル特別市","name_zh":"首尔","name_ko":"서울특별시","adm0_a3":"KOR","postal":"SO","iso_3166_2":"KR-11","type_en":"Capital Metropolitan City","geonunit":"South Korea"}},
{"type":"Feature","geometry":{"type":"Polygon","coordinates":[[[127.219,36.4562],[127.2726,36.3886],[127.2907,36.3601],[127.2959,36.2876],[127.3166,36.2332],[127.3658,36.2436],[127.4498,36.2908],[127.4643,36.334],[127.4774,36.351],[127.4823,36.3745],[127.4702,36.419],[127.4596,36.4355],[127.4457,36.4382],[127.434,36.4246],[127.4018,36.4188],[127.3716,36.4257],[127.3754,36.4433],[127.3503,36.4714],[127.3526,36.4791],[127.3297,36.4806],[127.219,36.4562]]]},"properties":{"name":"Daejeon","name_en":"Daejeon","name_ja":"大田広域市","name_zh":"大田广域市","name_ko":"대전광역시","adm0_a3":"KOR","postal":"TJ","iso_3166_2":"KR-30","type_en":"Metropolitan City","geonunit":"South Korea"}},
{"type":"Feature","geometry":{"type":"Polygon","coordinates":[[[127.2465,36.646],[127.1042,36.6916],[127.0809,36.6398],[127.0841,36.4883],[127.0689,36.4766],[127.0598,36.4556],[127.1508,36.4412],[127.219,36.4562],[127.3297,36.4806],[127.3526,36.4791],[127.3588,36.4993],[127.3536,36.5158],[127.3614,36.5437],[127.2853,36.5475],[127.2117,36.5357],[127.2163,36.5664],[127.2289,36.5951],[127.227,36.6119],[127.2465,36.646]]]},"properties":{"name":"Sejong","name_en":"Sejong","name_ja":"世宗特別自治市","name_zh":"世宗特別自治市","name_ko":"세종특별자치시","adm0_a3":"KOR","postal":"SJ","iso_3166_2":"KR-50","type_en":"Special self-governing city","geonunit":"South Korea"}},
{"type":"Feature","geometry":{"type":"Polygon","coordinates":[[[127.607,37.1314],[127.5919,37.111],[127.5761,37.1016],[127.5177,37.0143],[127.4926,37.0003],[127.4674,37.0096],[127.4519,36.9964],[127.4315,36.9673],[127.4059,36.9584],[127.3896,36.9442],[127.3806,36.9148],[127.3473,36.9059],[127.3048,36.8895],[127.26,36.8789],[127.2678,36.8641],[127.293,36.8479],[127.3102,36.8202],[127.3233,36.8128],[127.3223,36.7923],[127.3393,36.7648],[127.3225,36.7158],[127.3037,36.7149],[127.2465,36.646],[127.227,36.6119],[127.2289,36.5951],[127.2163,36.5664],[127.2117,36.5357],[127.2853,36.5475],[127.3614,36.5437],[127.3536,36.5158],[127.3588,36.4993],[127.3526,36.4791],[127.3503,36.4714],[127.3754,36.4433],[127.3716,36.4257],[127.4018,36.4188],[127.434,36.4246],[127.4457,36.4382],[127.4596,36.4355],[127.4702,36.419],[127.4823,36.3745],[127.5122,36.3987],[127.5389,36.3902],[127.5351,36.3728],[127.5187,36.3628],[127.4768,36.2984],[127.4648,36.2597],[127.4657,36.2036],[127.498,36.209],[127.5276,36.2012],[127.5583,36.186],[127.5687,36.1563],[127.5673,36.1217],[127.5759,36.0874],[127.619,36.0295],[127.6371,36.0141],[127.6517,36.0228],[127.6836,36.0003],[127.7284,35.9884],[127.7537,35.9752],[127.7858,35.9912],[127.8227,36.0047],[127.852,35.987],[127.8776,36.0074],[127.927,36.0238],[127.9425,36.0483],[127.9509,36.074],[127.9682,36.0946],[127.9702,36.1247],[127.9646,36.1516],[127.9888,36.1683],[128.0341,36.1637],[128.0227,36.2159],[128.0001,36.2293],[127.949,36.2194],[127.9296,36.2269],[127.9013,36.246],[127.8771,36.2524],[127.8369,36.2447],[127.8309,36.2922],[127.853,36.3077],[127.8674,36.3307],[127.85,36.3637],[127.856,36.3878],[127.86,36.4422],[127.87,36.4651],[127.8881,36.4794],[127.8392,36.5366],[127.8,36.542],[127.7887,36.5648],[127.8182,36.5725],[127.8552,36.6093],[127.8627,36.6407],[127.8938,36.6577],[127.9288,36.671],[127.9505,36.697],[127.9886,36.6837],[128.0595,36.6747],[128.0258,36.7169],[128.0325,36.7374],[128.0571,36.7757],[128.0731,36.7672],[128.0931,36.7686],[128.1095,36.7864],[128.1266,36.7952],[128.1736,36.7781],[128.2024,36.7763],[128.2144,36.8084],[128.2379,36.8319],[128.2911,36.7943],[128.306,36.7702],[128.3417,36.7608],[128.4254,36.789],[128.4402,36.8282],[128.4199,36.8478],[128.443,36.8852],[128.4651,36.9104],[128.496,36.928],[128.5171,36.949],[128.5378,36.9542],[128.6126,37.0086],[128.6245,37.0049],[128.6503,37.0223],[128.61,37.0397],[128.5585,37.0461],[128.5084,37.0741],[128.4207,37.0637],[128.3936,37.0933],[128.3954,37.1076],[128.3855,37.1163],[128.3378,37.112],[128.2984,37.1005],[128.2753,37.1069],[128.2643,37.1168],[128.2815,37.138],[128.3103,37.1544],[128.3219,37.1754],[128.2469,37.1869],[128.1911,37.2028],[128.1482,37.1803],[128.1243,37.1843],[128.0712,37.1572],[128.038,37.1508],[128.0256,37.1647],[128.0256,37.1862],[127.9876,37.2183],[127.9366,37.2045],[127.9177,37.186],[127.9232,37.1374],[127.8885,37.1144],[127.8714,37.1218],[127.8408,37.1235],[127.8104,37.1178],[127.819,37.1661],[127.7126,37.1545],[127.607,37.1314]]]},"properties":{"name":"North Chungcheong","name_en":"North Chungcheong","name_ja":"忠清北道","name_zh":"忠清北道","name_ko":"충청북도","adm0_a3":"KOR","postal":"GB","iso_3166_2":"KR-43","type_en":"Province","geonunit":"South Korea"}},
{"type":"Feature","geometry":{"type":"Polygon","coordinates":[[[126.9856,35.2388],[126.934,35.2546],[126.8803,35.243],[126.8445,35.2508],[126.8229,35.2341],[126.8503,35.1849],[126.9047,35.1581],[126.9664,35.1501],[127.0058,35.193],[126.9856,35.2388]]]},"properties":{"name":"Gwangju","name_en":"Gwangju","name_ja":"光州広域市","name_zh":"光州广域市","name_ko":"광주광역시","adm0_a3":"KOR","postal":"KJ","iso_3166_2":"KR-29","type_en":"Metropolitan City","geonunit":"South Korea"}},
{"type":"Feature","geometry":{"type":"Polygon","coordinates":[[[128.7413,35.8488],[128.7569,35.8619],[128.7623,35.8777],[128.7597,35.9105],[128.7409,35.9277],[128.746,35.9676],[128.7333,35.9855],[128.6932,36.0093],[128.6403,36.0065],[128.5767,35.9996],[128.5297,35.968],[128.536,35.9224],[128.5188,35.9071],[128.5081,35.8874],[128.5263,35.8835],[128.5202,35.8641],[128.4891,35.8619],[128.4753,35.8462],[128.4813,35.8277],[128.5114,35.8112],[128.5232,35.7925],[128.5624,35.7683],[128.5843,35.7938],[128.5986,35.803],[128.6309,35.8003],[128.6887,35.7881],[128.711,35.7991],[128.7235,35.8349],[128.7244,35.85],[128.7413,35.8488]]]},"properties":{"name":"Daegu","name_en":"Daegu","name_ja":"大邱広域市","name_zh":"大邱","name_ko":"대구광역시","adm0_a3":"KOR","postal":"TG","iso_3166_2":"KR-27","type_en":"Metropolitan City","geonunit":"South Korea"}}
]}