{"type":"FeatureCollection", "features": [
{"type":"Feature","geometry":{"type":"Polygon","coordinates":[[[-5.3407,35.8474],[-5.3356,35.8624],[-5.2919,35.8905],[-5.2831,35.9117],[-5.3093,35.9008],[-5.3274,35.9042],[-5.3662,35.9248],[-5.3989,35.9245],[-5.3784,35.8817],[-5.3629,35.8638],[-5.3407,35.8474]]]},"properties":{"region":"Ceuta","name":"Ceuta"}},
{"type":"Feature","geometry":{"type":"Polygon","coordinates":[[[-2.943,35.2679],[-2.9129,35.2769],[-2.9478,35.3298],[-2.9669,35.3139],[-2.9638,35.2862],[-2.943,35.2679]]]},"properties":{"region":"Melilla","name":"Melilla"}},
{"type":"Feature","geometry":{"type":"MultiPolygon","coordinates":[[[[-1.7497,43.2948],[-1.7735,43.2897],[-1.7913,43.2774],[-1.8211,43.2386],[-1.8337,43.2295],[-1.8573,43.2229],[-1.8727,43.2277],[-1.8893,43.2116],[-1.9085,43.2183],[-1.9187,43.1922],[-1.9125,43.1351],[-1.9267,43.1144],[-2.0146,43.067],[-2.0406,43.0276],[-2.0427,42.9945],[-2.0573,42.9838],[-2.0947,42.9755],[-2.1136,42.9562],[-2.1329,42.9469],[-2.1741,42.944],[-2.2008,42.9516],[-2.2141,42.9496],[-2.2317,42.9352],[-2.253,42.9001],[-2.2391,42.8583],[-2.2423,42.8392],[-2.2634,42.8137],[-2.2744,42.791],[-2.277,42.7596],[-2.2849,42.7447],[-2.3121,42.7378],[-2.3207,42.721],[-2.312,42.6829],[-2.2959,42.6779],[-2.2927,42.6631],[-2.3284,42.643],[-2.3659,42.6379],[-2.391,42.6586],[-2.4087,42.6602],[-2.4379,42.6456],[-2.4507,42.6348],[-2.4927,42.6093],[-2.4933,42.5953],[-2.4814,42.5859],[-2.4501,42.576],[-2.4213,42.5988],[-2.4059,42.5961],[-2.394,42.565],[-2.4061,42.4971],[-2.3845,42.4947],[-2.3433,42.483],[-2.2784,42.4899],[-2.2387,42.472],[-2.206,42.4464],[-2.172,42.4414],[-2.105,42.4452],[-2.0765,42.4426],[-2.0553,42.4284],[-2.0696,42.4148],[-2.0556,42.3991],[-2.0324,42.393],[-1.9767,42.393],[-1.9013,42.3254],[-1.8635,42.3049],[-1.8619,42.2842],[-1.8513,42.2762],[-1.8293,42.2776],[-1.7958,42.2565],[-1.7474,42.236],[-1.7269,42.2315],[-1.6971,42.2158],[-1.6977,42.1945],[-1.6886,42.1808],[-1.6923,42.1668],[-1.6858,42.149],[-1.6941,42.1385],[-1.7131,42.1361],[-1.7541,42.1464],[-1.7742,42.14],[-1.8043,42.1459],[-1.8234,42.1456],[-1.8358,42.1279],[-1.8961,42.0761],[-1.9013,42.0456],[-1.8906,42.0253],[-1.8524,42.0012],[-1.8239,41.9946],[-1.7766,41.993],[-1.7595,41.987],[-1.7236,41.9606],[-1.6946,41.9533],[-1.6572,41.9622],[-1.6219,41.9512],[-1.5964,41.9302],[-1.5737,41.9167],[-1.5559,41.9116],[-1.5183,41.9134],[-1.4833,41.9222],[-1.4193,41.9089],[-1.3831,41.9437],[-1.3612,41.9838],[-1.316,42.0371],[-1.3124,42.0543],[-1.3239,42.0673],[-1.3507,42.0727],[-1.3734,42.1047],[-1.3942,42.1276],[-1.3966,42.178],[-1.4154,42.2049],[-1.4164,42.2206],[-1.4049,42.2443],[-1.395,42.2772],[-1.384,42.3004],[-1.3641,42.3232],[-1.3345,42.3499],[-1.3334,42.3641],[-1.3455,42.3729],[-1.3504,42.3868],[-1.342,42.4148],[-1.3207,42.4409],[-1.2944,42.4598],[-1.2727,42.4876],[-1.2845,42.5166],[-1.2782,42.532],[-1.2574,42.5532],[-1.228,42.5494],[-1.2053,42.5581],[-1.185,42.5846],[-1.1605,42.5961],[-1.1533,42.6054],[-1.1723,42.6135],[-1.1555,42.6186],[-1.145,42.6414],[-1.0852,42.647],[-1.0555,42.6454],[-1.0445,42.65],[-1.035,42.6692],[-1.0344,42.6831],[-1.0246,42.6961],[-0.9771,42.7057],[-0.9517,42.7167],[-0.925,42.7356],[-0.9044,42.7426],[-0.8964,42.755],[-0.867,42.7699],[-0.8569,42.7869],[-0.851,42.8166],[-0.8525,42.8323],[-0.8462,42.8495],[-0.8192,42.8761],[-0.8062,42.9044],[-0.7714,42.9184],[-0.745,42.9187],[-0.7597,42.9465],[-0.7864,42.9533],[-0.8635,42.9431],[-0.9432,42.9479],[-0.9815,42.957],[-1.0163,42.9762],[-1.0285,42.9867],[-1.0797,42.9934],[-1.1124,43.0083],[-1.1499,43.0057],[-1.1825,43.0253],[-1.2169,43.0393],[-1.2749,43.0468],[-1.2937,43.0552],[-1.3106,43.0695],[-1.3151,43.0829],[-1.307,43.096],[-1.286,43.1092],[-1.3086,43.1136],[-1.3311,43.1073],[-1.3483,43.0931],[-1.3552,43.073],[-1.3576,43.0468],[-1.3661,43.0333],[-1.3831,43.0292],[-1.435,43.0357],[-1.4571,43.0451],[-1.4753,43.0601],[-1.4878,43.0818],[-1.4258,43.1353],[-1.4105,43.1669],[-1.3997,43.2067],[-1.4035,43.2433],[-1.4322,43.265],[-1.4664,43.2608],[-1.5081,43.2768],[-1.5392,43.2836],[-1.559,43.2841],[-1.574,43.2774],[-1.5876,43.2516],[-1.6219,43.247],[-1.639,43.2557],[-1.648,43.2815],[-1.645,43.2924],[-1.6739,43.3042],[-1.7474,43.291],[-1.7497,43.2948]]],[[[-1.1639,42.4409],[-1.1945,42.4243],[-1.1904,42.4028],[-1.1763,42.4037],[-1.1581,42.426],[-1.1639,42.4409]]],[[[-1.1061,42.483],[-1.1242,42.4731],[-1.1342,42.4467],[-1.1234,42.44],[-1.0755,42.4326],[-1.0672,42.4458],[-1.0945,42.4632],[-1.0986,42.4822],[-1.1061,42.483]]]]},"properties":{"region":"Foral de Navarra","name":"Foral de Navarra"}},
{"type":"Feature","geometry":{"type":"Polygon","coordinates":[[[-1.7497,43.2948],[-1.7558,43.3185],[-1.7682,43.3309],[-1.7969,43.3411],[-1.7941,43.386],[-1.8113,43.3951],[-1.8474,43.3809],[-1.8849,43.356],[-1.9257,43.3426],[-1.9047,43.3284],[-1.9187,43.321],[-1.9456,43.3426],[-1.9604,43.3431],[-1.9946,43.3284],[-2.0655,43.3096],[-2.0989,43.3041],[-2.1278,43.2874],[-2.14,43.2989],[-2.1622,43.2943],[-2.1745,43.2974],[-2.1963,43.3148],[-2.2411,43.3072],[-2.2847,43.3035],[-2.3271,43.3068],[-2.3674,43.3157],[-2.4644,43.3492],[-2.4835,43.3706],[-2.506,43.3771],[-2.5489,43.3836],[-2.6069,43.4019],[-2.6612,43.4119],[-2.6778,43.4062],[-2.6793,43.3898],[-2.691,43.3675],[-2.6949,43.3886],[-2.7152,43.4245],[-2.7558,43.4503],[-2.7686,43.4525],[-2.807,43.4417],[-2.8542,43.4383],[-2.9053,43.4399],[-2.9301,43.4379],[-2.9467,43.4308],[-2.9399,43.4171],[-2.9559,43.4138],[-3.0243,43.3809],[-3.0293,43.3721],[-3.0082,43.3284],[-3.0082,43.3209],[-3.0579,43.3524],[-3.0895,43.3669],[-3.1124,43.3541],[-3.1506,43.3602],[-3.1495,43.3244],[-3.1602,43.3078],[-3.2035,43.2923],[-3.2352,43.2991],[-3.261,43.2968],[-3.3229,43.3001],[-3.4309,43.2435],[-3.4416,43.2333],[-3.4409,43.1881],[-3.4331,43.174],[-3.4238,43.1406],[-3.3624,43.1579],[-3.2785,43.1973],[-3.2595,43.2012],[-3.2297,43.187],[-3.1515,43.1814],[-3.1418,43.1651],[-3.1595,43.1549],[-3.1726,43.1314],[-3.1651,43.1165],[-3.1418,43.1041],[-3.1481,43.0742],[-3.1485,43.0504],[-3.1651,43.0267],[-3.1522,43.0199],[-3.1216,43.0136],[-3.0849,43.0107],[-3.0735,43.014],[-3.0553,43.0431],[-3.0367,43.0497],[-3.0236,43.0431],[-3.0161,43.0254],[-2.9971,43.0208],[-2.9874,43.0089],[-2.9993,42.9895],[-3.0394,42.987],[-3.0396,42.978],[-3.0123,42.9585],[-2.9834,42.951],[-2.9771,42.939],[-2.9875,42.9263],[-3.009,42.9233],[-3.0292,42.9102],[-3.0753,42.9056],[-3.1239,42.9108],[-3.141,42.9161],[-3.1512,42.9343],[-3.1661,42.9429],[-3.1883,42.9467],[-3.2241,42.9438],[-3.2332,42.9382],[-3.2791,42.8872],[-3.2759,42.8747],[-3.2315,42.8359],[-3.2174,42.8297],[-3.2027,42.8551],[-3.1876,42.8637],[-3.1591,42.8646],[-3.1302,42.8886],[-3.1104,42.8796],[-3.1125,42.8683],[-3.1413,42.8347],[-3.1512,42.8176],[-3.1477,42.8037],[-3.129,42.7863],[-3.1363,42.7699],[-3.1196,42.7687],[-3.0635,42.7853],[-3.0314,42.7727],[-3.0032,42.7532],[-2.9687,42.7378],[-2.9434,42.7143],[-2.9179,42.7058],[-2.8525,42.6654],[-2.8373,42.6441],[-2.836,42.6215],[-2.8299,42.6138],[-2.8162,42.6202],[-2.8148,42.6059],[-2.8268,42.5902],[-2.813,42.5808],[-2.78,42.5856],[-2.7697,42.6088],[-2.7474,42.6187],[-2.734,42.6157],[-2.6994,42.5977],[-2.6856,42.5818],[-2.6877,42.5534],[-2.6847,42.5378],[-2.6675,42.5332],[-2.6321,42.5125],[-2.6179,42.5077],[-2.6062,42.5169],[-2.5851,42.512],[-2.5835,42.4967],[-2.5577,42.5108],[-2.522,42.5104],[-2.5288,42.5172],[-2.5181,42.531],[-2.5015,42.5377],[-2.4917,42.5201],[-2.462,42.5073],[-2.4061,42.4971],[-2.394,42.565],[-2.4059,42.5961],[-2.4213,42.5988],[-2.4501,42.576],[-2.4814,42.5859],[-2.4933,42.5953],[-2.4927,42.6093],[-2.4507,42.6348],[-2.4379,42.6456],[-2.4087,42.6602],[-2.391,42.6586],[-2.3659,42.6379],[-2.3284,42.643],[-2.2927,42.6631],[-2.2959,42.6779],[-2.312,42.6829],[-2.3207,42.721],[-2.3121,42.7378],[-2.2849,42.7447],[-2.277,42.7596],[-2.2744,42.791],[-2.2634,42.8137],[-2.2423,42.8392],[-2.2391,42.8583],[-2.253,42.9001],[-2.2317,42.9352],[-2.2141,42.9496],[-2.2008,42.9516],[-2.1741,42.944],[-2.1329,42.9469],[-2.1136,42.9562],[-2.0947,42.9755],[-2.0573,42.9838],[-2.0427,42.9945],[-2.0406,43.0276],[-2.0146,43.067],[-1.9267,43.1144],[-1.9125,43.1351],[-1.9187,43.1922],[-1.9085,43.2183],[-1.8893,43.2116],[-1.8727,43.2277],[-1.8573,43.2229],[-1.8337,43.2295],[-1.8211,43.2386],[-1.7913,43.2774],[-1.7735,43.2897],[-1.7497,43.2948]],[[-3.3042,43.2607],[-3.2861,43.2564],[-3.2689,43.2376],[-3.2674,43.2274],[-3.2992,43.2169],[-3.3042,43.2222],[-3.3042,43.2607]],[[-2.6263,42.7732],[-2.5963,42.7736],[-2.5781,42.7605],[-2.5561,42.7564],[-2.5619,42.7391],[-2.5804,42.7185],[-2.5982,42.7132],[-2.6008,42.7044],[-2.5721,42.6774],[-2.5595,42.6735],[-2.5258,42.6895],[-2.5195,42.681],[-2.5129,42.6534],[-2.5382,42.6434],[-2.5569,42.6534],[-2.6341,42.6548],[-2.6844,42.6703],[-2.7524,42.6818],[-2.8141,42.7029],[-2.8408,42.7178],[-2.8653,42.7363],[-2.8681,42.7514],[-2.8329,42.7873],[-2.8166,42.794],[-2.7528,42.797],[-2.7261,42.7951],[-2.6389,42.7742],[-2.6263,42.7732]]]},"properties":{"region":"País Vasco","name":"País Vasco"}},
{"type":"Feature","geometry":{"type":"Polygon","coordinates":[[[-0.745,42.9187],[-0.7714,42.9184],[-0.8062,42.9044],[-0.8192,42.8761],[-0.8462,42.8495],[-0.8525,42.8323],[-0.851,42.8166],[-0.8569,42.7869],[-0.867,42.7699],[-0.8964,42.755],[-0.9044,42.7426],[-0.925,42.7356],[-0.9517,42.7167],[-0.9771,42.7057],[-1.0246,42.6961],[-1.0344,42.6831],[-1.035,42.6692],[-1.0445,42.65],[-1.0555,42.6454],[-1.0852,42.647],[-1.145,42.6414],[-1.1555,42.6186],[-1.1723,42.6135],[-1.1533,42.6054],[-1.1605,42.5961],[-1.185,42.5846],[-1.2053,42.5581],[-1.228,42.5494],[-1.2574,42.5532],[-1.2782,42.532],[-1.2845,42.5166],[-1.2727,42.4876],[-1.2944,42.4598],[-1.3207,42.4409],[-1.342,42.4148],[-1.3504,42.3868],[-1.3455,42.3729],[-1.3334,42.3641],[-1.3345,42.3499],[-1.3641,42.3232],[-1.384,42.3004],[-1.395,42.2772],[-1.4049,42.2443],[-1.4164,42.2206],[-1.4154,42.2049],[-1.3966,42.178],[-1.3942,42.1276],[-1.3734,42.1047],[-1.3507,42.0727],[-1.3239,42.0673],[-1.3124,42.0543],[-1.316,42.0371],[-1.3612,41.9838],[-1.3831,41.9437],[-1.4193,41.9089],[-1.4833,41.9222],[-1.5183,41.9134],[-1.5559,41.9116],[-1.5737,41.9167],[-1.5964,41.9302],[-1.6219,41.9512],[-1.6572,41.9622],[-1.6946,41.9533],[-1.7236,41.9606],[-1.7595,41.987],[-1.7766,41.993],[-1.8239,41.9946],[-1.8524,42.0012],[-1.8445,41.982],[-1.8577,41.9548],[-1.8516,41.9061],[-1.8369,41.8741],[-1.816,41.8517],[-1.8178,41.8361],[-1.8459,41.7907],[-1.8189,41.7578],[-1.8085,41.7375],[-1.7855,41.7193],[-1.7882,41.7057],[-1.8073,41.6704],[-1.825,41.658],[-1.8444,41.6569],[-1.8748,41.6369],[-1.894,41.6294],[-1.9235,41.603],[-1.9321,41.6011],[-1.9695,41.6077],[-1.9883,41.5955],[-1.9879,41.5752],[-1.9819,41.5708],[-1.9759,41.5427],[-1.9787,41.5076],[-1.9691,41.4798],[-1.9528,41.4578],[-1.9459,41.4155],[-1.9798,41.4049],[-2.0141,41.3881],[-2.0306,41.3854],[-2.0408,41.3947],[-2.041,41.4249],[-2.0521,41.435],[-2.0997,41.4426],[-2.111,41.4379],[-2.1196,41.4237],[-2.128,41.3768],[-2.1401,41.3627],[-2.1662,41.346],[-2.1719,41.3278],[-2.1733,41.2946],[-2.1592,41.2692],[-2.1513,41.2313],[-2.1491,41.1939],[-2.1382,41.1815],[-2.0837,41.1719],[-2.0532,41.1504],[-1.9719,41.1699],[-1.9449,41.1644],[-1.9162,41.143],[-1.8912,41.1352],[-1.8504,41.1111],[-1.8169,41.097],[-1.7673,41.065],[-1.7473,41.0388],[-1.7328,41.026],[-1.6793,40.9908],[-1.6564,40.9701],[-1.6219,40.9468],[-1.6102,40.9277],[-1.6141,40.8867],[-1.601,40.8587],[-1.5798,40.8385],[-1.5446,40.8174],[-1.5388,40.7768],[-1.5554,40.7439],[-1.557,40.7252],[-1.5397,40.6944],[-1.5374,40.663],[-1.5486,40.6417],[-1.5552,40.6142],[-1.5512,40.5951],[-1.5617,40.5829],[-1.5867,40.5706],[-1.6043,40.5706],[-1.6369,40.5843],[-1.6711,40.5893],[-1.6828,40.579],[-1.6986,40.5424],[-1.6998,40.4933],[-1.7137,40.4802],[-1.7325,40.4729],[-1.75,40.4592],[-1.7825,40.421],[-1.8083,40.402],[-1.7793,40.3922],[-1.7621,40.3783],[-1.7206,40.3354],[-1.7153,40.3214],[-1.7206,40.3023],[-1.7136,40.2877],[-1.7,40.2948],[-1.6852,40.2933],[-1.6601,40.283],[-1.5551,40.2054],[-1.5335,40.1952],[-1.5094,40.2012],[-1.4698,40.193],[-1.4444,40.1967],[-1.4381,40.1716],[-1.4485,40.1498],[-1.3955,40.1401],[-1.3641,40.1396],[-1.3245,40.1493],[-1.3185,40.1638],[-1.3223,40.179],[-1.3142,40.1953],[-1.2946,40.2016],[-1.2715,40.1627],[-1.2461,40.1449],[-1.2347,40.123],[-1.2151,40.1159],[-1.1511,40.1101],[-1.1258,40.0979],[-1.08,40.0658],[-1.0756,40.0521],[-1.0917,40.0346],[-1.1391,40.0162],[-1.1627,40.0115],[-1.1455,39.9723],[-1.1294,39.964],[-1.0535,39.9788],[-1.0003,39.9792],[-0.9725,39.974],[-0.9231,39.956],[-0.9048,39.9346],[-0.9121,39.9064],[-0.9044,39.8948],[-0.9024,39.8654],[-0.8781,39.8522],[-0.847,39.8553],[-0.7913,39.8775],[-0.7975,39.8875],[-0.8238,39.9063],[-0.8325,39.9194],[-0.8391,39.9458],[-0.8357,39.9676],[-0.8244,39.9815],[-0.7908,39.993],[-0.7662,40.0094],[-0.7577,40.0346],[-0.7467,40.0414],[-0.722,40.0399],[-0.6839,40.0444],[-0.6143,40.0717],[-0.6195,40.0991],[-0.6134,40.1139],[-0.5832,40.1348],[-0.57,40.1535],[-0.5678,40.1691],[-0.5523,40.2003],[-0.5518,40.2284],[-0.5442,40.2401],[-0.5011,40.2303],[-0.4423,40.2378],[-0.4059,40.2511],[-0.3914,40.2639],[-0.3909,40.2956],[-0.3572,40.3177],[-0.3317,40.3457],[-0.2921,40.3655],[-0.2865,40.3717],[-0.2891,40.3892],[-0.3072,40.4079],[-0.3355,40.4278],[-0.3399,40.4427],[-0.3237,40.457],[-0.2774,40.4718],[-0.2726,40.4814],[-0.2806,40.4999],[-0.2967,40.5079],[-0.2927,40.5485],[-0.2986,40.5766],[-0.2944,40.6058],[-0.3251,40.6042],[-0.3746,40.6182],[-0.3773,40.6602],[-0.3458,40.6739],[-0.3045,40.6633],[-0.2341,40.6948],[-0.2292,40.701],[-0.228,40.7307],[-0.2234,40.7453],[-0.1948,40.776],[-0.1658,40.7799],[-0.1522,40.7749],[-0.12,40.7533],[-0.0745,40.7308],[-0.0483,40.7272],[0.0016,40.7296],[0.0182,40.7261],[0.0295,40.6996],[0.045,40.6962],[0.0815,40.7164],[0.1071,40.7215],[0.145,40.7226],[0.173,40.7309],[0.1675,40.7432],[0.2274,40.7717],[0.262,40.8078],[0.2719,40.8292],[0.2579,40.8555],[0.2496,40.8886],[0.2604,40.9221],[0.2855,40.9593],[0.2897,40.9825],[0.2742,41.0189],[0.2278,41.0432],[0.2053,41.0969],[0.2089,41.1196],[0.2244,41.1302],[0.2424,41.132],[0.2584,41.1464],[0.2762,41.15],[0.2997,41.1649],[0.3089,41.1993],[0.3211,41.2139],[0.3604,41.2328],[0.3524,41.2792],[0.3773,41.3214],[0.374,41.3389],[0.3517,41.3625],[0.3273,41.3701],[0.3242,41.3902],[0.3383,41.4059],[0.3485,41.4332],[0.3485,41.4721],[0.3613,41.4846],[0.4004,41.4965],[0.4135,41.5162],[0.4412,41.5461],[0.424,41.5929],[0.3652,41.5983],[0.3481,41.6152],[0.3433,41.6372],[0.3295,41.6617],[0.3285,41.6774],[0.3426,41.6935],[0.3664,41.71],[0.3939,41.7369],[0.406,41.753],[0.4542,41.7625],[0.4732,41.7759],[0.4966,41.8088],[0.5067,41.816],[0.5422,41.8267],[0.558,41.8452],[0.5807,41.8555],[0.5976,41.8744],[0.5953,41.9074],[0.5896,41.9186],[0.5672,41.9327],[0.5762,41.9513],[0.6122,41.9687],[0.6313,41.9891],[0.6425,41.9923],[0.656,42.0128],[0.6549,42.027],[0.6685,42.0492],[0.6843,42.09],[0.7031,42.1203],[0.7089,42.1521],[0.7035,42.1679],[0.7194,42.2268],[0.7417,42.264],[0.7444,42.3061],[0.7499,42.3193],[0.7511,42.348],[0.7464,42.3905],[0.7329,42.4269],[0.7151,42.4431],[0.7014,42.4843],[0.7044,42.4928],[0.7303,42.5007],[0.7306,42.5197],[0.7615,42.5693],[0.7655,42.6099],[0.734,42.6173],[0.7084,42.6342],[0.6946,42.6624],[0.6756,42.6887],[0.6634,42.6962],[0.6436,42.6845],[0.6082,42.688],[0.4835,42.6853],[0.4669,42.6904],[0.4288,42.683],[0.3893,42.6851],[0.3818,42.7001],[0.3542,42.7175],[0.336,42.7127],[0.3183,42.6995],[0.2902,42.6703],[0.2754,42.6687],[0.2598,42.6824],[0.2384,42.7104],[0.2224,42.7162],[0.1692,42.7265],[0.1529,42.7246],[0.1342,42.7152],[0.0728,42.7085],[-0.0043,42.6875],[-0.0389,42.6851],[-0.0784,42.6967],[-0.0958,42.7107],[-0.119,42.7169],[-0.1231,42.7304],[-0.1457,42.7459],[-0.1578,42.7607],[-0.1636,42.778],[-0.1614,42.7953],[-0.2084,42.7839],[-0.2351,42.7862],[-0.247,42.8048],[-0.3074,42.8318],[-0.3228,42.8425],[-0.3352,42.825],[-0.3517,42.8292],[-0.3997,42.8013],[-0.4239,42.7907],[-0.4545,42.7889],[-0.5084,42.8075],[-0.5339,42.808],[-0.5356,42.7842],[-0.5612,42.7735],[-0.5787,42.7773],[-0.5829,42.7958],[-0.6102,42.7991],[-0.6095,42.8114],[-0.6483,42.8498],[-0.7004,42.8764],[-0.7301,42.8775],[-0.7459,42.8939],[-0.745,42.9187]],[[-1.1639,42.4409],[-1.1581,42.426],[-1.1763,42.4037],[-1.1904,42.4028],[-1.1945,42.4243],[-1.1639,42.4409]],[[-1.1061,42.483],[-1.0986,42.4822],[-1.0945,42.4632],[-1.0672,42.4458],[-1.0755,42.4326],[-1.1234,42.44],[-1.1342,42.4467],[-1.1242,42.4731],[-1.1061,42.483]]]},"properties":{"region":"Aragón","name":"Aragón"}},
{"type":"Feature","geometry":{"type":"MultiPolygon","coordinates":[[[[0.6634,42.6962],[0.6756,42.6887],[0.6946,42.6624],[0.7084,42.6342],[0.734,42.6173],[0.7655,42.6099],[0.7615,42.5693],[0.7306,42.5197],[0.7303,42.5007],[0.7044,42.4928],[0.7014,42.4843],[0.7151,42.4431],[0.7329,42.4269],[0.7464,42.3905],[0.7511,42.348],[0.7499,42.3193],[0.7444,42.3061],[0.7417,42.264],[0.7194,42.2268],[0.7035,42.1679],[0.7089,42.1521],[0.7031,42.1203],[0.6843,42.09],[0.6685,42.0492],[0.6549,42.027],[0.656,42.0128],[0.6425,41.9923],[0.6313,41.9891],[0.6122,41.9687],[0.5762,41.9513],[0.5672,41.9327],[0.5896,41.9186],[0.5953,41.9074],[0.5976,41.8744],[0.5807,41.8555],[0.558,41.8452],[0.5422,41.8267],[0.5067,41.816],[0.4966,41.8088],[0.4732,41.7759],[0.4542,41.7625],[0.406,41.753],[0.3939,41.7369],[0.3664,41.71],[0.3426,41.6935],[0.3285,41.6774],[0.3295,41.6617],[0.3433,41.6372],[0.3481,41.6152],[0.3652,41.5983],[0.424,41.5929],[0.4412,41.5461],[0.4135,41.5162],[0.4004,41.4965],[0.3613,41.4846],[0.3485,41.4721],[0.3485,41.4332],[0.3383,41.4059],[0.3242,41.3902],[0.3273,41.3701],[0.3517,41.3625],[0.374,41.3389],[0.3773,41.3214],[0.3524,41.2792],[0.3604,41.2328],[0.3211,41.2139],[0.3089,41.1993],[0.2997,41.1649],[0.2762,41.15],[0.2584,41.1464],[0.2424,41.132],[0.2244,41.1302],[0.2089,41.1196],[0.2053,41.0969],[0.2278,41.0432],[0.2742,41.0189],[0.2897,40.9825],[0.2855,40.9593],[0.2604,40.9221],[0.2496,40.8886],[0.2579,40.8555],[0.2719,40.8292],[0.262,40.8078],[0.2274,40.7717],[0.1675,40.7432],[0.173,40.7309],[0.199,40.7272],[0.2193,40.7305],[0.2438,40.703],[0.2657,40.6979],[0.2877,40.6838],[0.2762,40.6543],[0.2931,40.6321],[0.3166,40.6226],[0.3875,40.6037],[0.4184,40.5908],[0.4369,40.5774],[0.4474,40.5546],[0.4561,40.5492],[0.5238,40.5262],[0.5485,40.5723],[0.5802,40.6037],[0.5998,40.6137],[0.6822,40.6342],[0.7125,40.6362],[0.7327,40.6337],[0.6962,40.5904],[0.6632,40.5747],[0.6406,40.5869],[0.5925,40.5821],[0.6159,40.5535],[0.648,40.5569],[0.6771,40.5652],[0.707,40.5834],[0.7564,40.6422],[0.784,40.661],[0.8483,40.6754],[0.8724,40.7071],[0.8737,40.7279],[0.8418,40.7321],[0.8159,40.7484],[0.792,40.7712],[0.7669,40.785],[0.7502,40.786],[0.7635,40.7784],[0.7624,40.7661],[0.7502,40.7656],[0.6948,40.786],[0.7142,40.8152],[0.8228,40.8996],[0.8775,40.9548],[0.9904,41.0397],[1.0557,41.0649],[1.0977,41.0709],[1.1417,41.0717],[1.1729,41.0587],[1.1836,41.0626],[1.2101,41.0999],[1.2178,41.1047],[1.2881,41.1163],[1.5392,41.1874],[1.6244,41.1922],[1.8198,41.2371],[1.854,41.236],[1.8841,41.2475],[1.9513,41.2607],[2.0197,41.2659],[2.0603,41.2746],[2.1305,41.3037],[2.1633,41.3266],[2.1919,41.3568],[2.2404,41.421],[2.2673,41.4486],[2.2967,41.4653],[2.3713,41.4892],[2.429,41.5189],[2.4495,41.5352],[2.6519,41.6053],[2.7785,41.6456],[2.792,41.669],[2.8132,41.6703],[2.8202,41.682],[2.8511,41.6972],[2.933,41.7125],[2.9509,41.7343],[3.0403,41.7869],[3.0691,41.7991],[3.0786,41.8266],[3.1168,41.8476],[3.1502,41.8454],[3.1786,41.8752],[3.1949,41.8883],[3.2074,41.9139],[3.2322,41.946],[3.2357,41.9655],[3.2079,41.99],[3.1959,42.0331],[3.1999,42.0462],[3.213,42.056],[3.2145,42.0683],[3.1731,42.112],[3.1386,42.1276],[3.1225,42.1405],[3.1165,42.1584],[3.1188,42.2183],[3.1303,42.2397],[3.1516,42.2568],[3.1702,42.2597],[3.1787,42.2497],[3.2101,42.2397],[3.2472,42.2457],[3.263,42.2399],[3.287,42.2629],[3.294,42.288],[3.3177,42.323],[3.2806,42.3369],[3.263,42.3292],[3.2498,42.3432],[3.2042,42.3396],[3.1745,42.3638],[3.1702,42.3966],[3.181,42.4315],[3.1117,42.425],[3.0656,42.432],[3.0439,42.4453],[3.0296,42.4657],[2.9831,42.4693],[2.9661,42.461],[2.9337,42.4702],[2.9008,42.4513],[2.8508,42.4484],[2.8348,42.4413],[2.8046,42.4196],[2.7886,42.412],[2.7677,42.4096],[2.7285,42.414],[2.7081,42.4129],[2.6904,42.4062],[2.6482,42.3815],[2.6403,42.3728],[2.6622,42.339],[2.6134,42.341],[2.5674,42.3526],[2.5481,42.3522],[2.5253,42.3259],[2.5037,42.3285],[2.4649,42.3406],[2.4456,42.352],[2.4299,42.3675],[2.4225,42.3837],[2.3755,42.3893],[2.3173,42.4096],[2.2774,42.4286],[2.246,42.4261],[2.1842,42.4118],[2.137,42.4162],[2.121,42.4106],[2.104,42.3848],[2.0517,42.3524],[2.0092,42.3471],[1.9957,42.3487],[1.9637,42.3672],[1.9542,42.3827],[1.9411,42.4201],[1.9275,42.4369],[1.912,42.442],[1.8698,42.4468],[1.8137,42.4752],[1.7927,42.4817],[1.7306,42.4881],[1.7122,42.4937],[1.707,42.5028],[1.6975,42.4945],[1.6742,42.4905],[1.657,42.4976],[1.6504,42.4934],[1.6395,42.4664],[1.6075,42.4564],[1.5444,42.4504],[1.5282,42.4342],[1.5085,42.4287],[1.4479,42.4346],[1.4364,42.441],[1.4364,42.4535],[1.4076,42.4868],[1.45,42.5041],[1.4466,42.5199],[1.429,42.5315],[1.4065,42.5292],[1.4098,42.5406],[1.4263,42.5618],[1.418,42.5698],[1.4293,42.5954],[1.4148,42.6093],[1.398,42.6436],[1.3611,42.6867],[1.3382,42.6944],[1.3426,42.7087],[1.3191,42.7134],[1.1959,42.7136],[1.1625,42.7057],[1.1343,42.716],[1.1067,42.7596],[1.0891,42.7713],[1.0682,42.7761],[0.9829,42.7804],[0.9587,42.7937],[0.94,42.7937],[0.9211,42.7844],[0.8858,42.8042],[0.8561,42.8128],[0.8129,42.8316],[0.7763,42.8325],[0.7243,42.8453],[0.6794,42.8451],[0.6563,42.8384],[0.6516,42.8241],[0.6537,42.8027],[0.6397,42.7747],[0.6507,42.7634],[0.6335,42.7448],[0.6476,42.741],[0.6665,42.7148],[0.6634,42.6962]]],[[[1.968,42.4857],[1.9566,42.4818],[1.9456,42.4638],[1.9475,42.4512],[1.9606,42.4437],[1.9995,42.4439],[1.968,42.4857]]]]},"properties":{"region":"Cataluña","name":"Cataluña"}},
{"type":"Feature","geometry":{"type":"Polygon","coordinates":[[[-5.0366,38.7284],[-5.0214,38.7342],[-4.9979,38.7358],[-4.9814,38.7496],[-4.9717,38.7692],[-4.9475,38.8394],[-4.9273,38.8703],[-4.9129,38.8823],[-4.8863,38.8891],[-4.8508,38.8867],[-4.8457,38.892],[-4.8363,38.9285],[-4.8466,38.946],[-4.8732,38.9489],[-4.9138,38.9597],[-4.928,38.9775],[-4.9313,39.0001],[-4.9443,39.0097],[-4.9541,39.0456],[-4.9378,39.0531],[-4.9199,39.0491],[-4.8773,39.0326],[-4.8347,39.0476],[-4.831,39.0543],[-4.8402,39.0686],[-4.864,39.0816],[-4.8674,39.1061],[-4.8556,39.1478],[-4.847,39.1655],[-4.8068,39.1988],[-4.7811,39.1951],[-4.7448,39.1988],[-4.7273,39.1965],[-4.6761,39.1756],[-4.6584,39.1739],[-4.6704,39.191],[-4.7106,39.2253],[-4.7346,39.261],[-4.7536,39.2974],[-4.7568,39.3165],[-4.7494,39.3246],[-4.7303,39.3295],[-4.7109,39.3441],[-4.6961,39.3784],[-4.6814,39.4001],[-4.6779,39.4176],[-4.6927,39.4498],[-4.7036,39.4384],[-4.753,39.4182],[-4.767,39.4046],[-4.8137,39.3924],[-4.8554,39.3782],[-4.8801,39.3669],[-4.9444,39.3919],[-4.9714,39.4097],[-5.0246,39.4593],[-5.0392,39.4781],[-5.0792,39.4928],[-5.1226,39.5272],[-5.1594,39.5639],[-5.1964,39.5877],[-5.1976,39.5996],[-5.161,39.6432],[-5.1518,39.663],[-5.1505,39.6841],[-5.1406,39.7124],[-5.1417,39.7203],[-5.1654,39.7472],[-5.1592,39.7718],[-5.1681,39.7929],[-5.1823,39.7969],[-5.2087,39.7927],[-5.2291,39.7793],[-5.2489,39.7574],[-5.2603,39.7523],[-5.3081,39.7583],[-5.3169,39.7719],[-5.3078,39.8269],[-5.2921,39.8484],[-5.2893,39.8617],[-5.306,39.8796],[-5.3302,39.8889],[-5.3578,39.8872],[-5.3862,39.881],[-5.3906,39.8936],[-5.391,39.9204],[-5.3741,39.9948],[-5.3689,40.0487],[-5.3704,40.0683],[-5.365,40.0933],[-5.3576,40.1053],[-5.328,40.1159],[-5.3454,40.1376],[-5.3615,40.1648],[-5.3647,40.2097],[-5.35,40.2455],[-5.3546,40.2552],[-5.3731,40.2544],[-5.4236,40.2431],[-5.4578,40.2211],[-5.4781,40.2042],[-5.5007,40.1984],[-5.5398,40.1974],[-5.5777,40.2078],[-5.6038,40.2194],[-5.627,40.244],[-5.6586,40.2659],[-5.6869,40.2815],[-5.7277,40.294],[-5.7624,40.2844],[-5.7836,40.2861],[-5.7918,40.296],[-5.783,40.3081],[-5.7816,40.3234],[-5.795,40.3418],[-5.8133,40.3408],[-5.8341,40.3322],[-5.8676,40.3249],[-5.8818,40.3175],[-5.8918,40.2969],[-5.9037,40.2843],[-5.9255,40.2815],[-5.9876,40.3032],[-6.023,40.3278],[-6.08,40.3484],[-6.0963,40.3576],[-6.0866,40.3651],[-6.0691,40.3963],[-6.0746,40.4047],[-6.1158,40.4213],[-6.118,40.4338],[-6.1465,40.4413],[-6.1729,40.4609],[-6.2067,40.4776],[-6.2367,40.4794],[-6.2802,40.456],[-6.3231,40.4463],[-6.3495,40.4306],[-6.3627,40.4104],[-6.4213,40.3934],[-6.4423,40.3759],[-6.4798,40.3655],[-6.5155,40.3524],[-6.5469,40.3336],[-6.558,40.3216],[-6.5528,40.3008],[-6.5561,40.2871],[-6.5851,40.272],[-6.655,40.262],[-6.6886,40.2497],[-6.7176,40.2589],[-6.7588,40.2448],[-6.7851,40.2487],[-6.8047,40.2444],[-6.8245,40.2464],[-6.8443,40.2558],[-6.8745,40.2792],[-6.8781,40.2652],[-6.8964,40.2555],[-6.9547,40.2534],[-6.9978,40.2317],[-7.0158,40.2255],[-7.0248,40.2162],[-7.0431,40.1814],[-7.0348,40.1667],[-7.0277,40.1326],[-7.0158,40.1191],[-6.9772,40.1134],[-6.9557,40.1029],[-6.9199,40.0649],[-6.8797,40.0092],[-6.8969,39.9871],[-6.8998,39.9656],[-6.9095,39.932],[-6.9223,39.9224],[-6.9242,39.8716],[-6.9277,39.8619],[-6.9528,39.8329],[-6.9852,39.8211],[-7.0003,39.8025],[-6.993,39.7742],[-7.0133,39.7389],[-7.0096,39.7155],[-7.0211,39.694],[-7.0358,39.6893],[-7.1829,39.6751],[-7.2141,39.6762],[-7.2358,39.6865],[-7.2529,39.6823],[-7.2928,39.6833],[-7.3414,39.6718],[-7.5573,39.6798],[-7.5158,39.5938],[-7.4979,39.581],[-7.4681,39.5502],[-7.4513,39.5378],[-7.4176,39.5242],[-7.3994,39.4937],[-7.3629,39.4761],[-7.3209,39.4674],[-7.3135,39.4574],[-7.3189,39.4133],[-7.3319,39.3847],[-7.3267,39.3413],[-7.3193,39.3295],[-7.3005,39.3179],[-7.2508,39.2706],[-7.2643,39.2523],[-7.2658,39.2314],[-7.2581,39.2113],[-7.2441,39.1956],[-7.2193,39.1848],[-7.1681,39.1706],[-7.1558,39.1515],[-7.1689,39.1219],[-7.1675,39.1135],[-7.1425,39.0995],[-7.1273,39.0975],[-7.0913,39.1124],[-7.0649,39.1148],[-7.0388,39.1091],[-6.9997,39.0847],[-6.9857,39.0668],[-6.9794,39.0472],[-6.9863,39.0301],[-6.9733,39.014],[-7.0221,38.9429],[-7.0445,38.9186],[-7.066,38.9046],[-7.0522,38.885],[-7.0561,38.8551],[-7.0887,38.8334],[-7.1049,38.8272],[-7.151,38.8193],[-7.1797,38.7909],[-7.2115,38.7754],[-7.2704,38.7375],[-7.2841,38.7132],[-7.2909,38.6791],[-7.2909,38.6382],[-7.2735,38.6254],[-7.2759,38.6038],[-7.3177,38.5563],[-7.3358,38.5059],[-7.3456,38.4941],[-7.3341,38.481],[-7.3352,38.4694],[-7.3592,38.4464],[-7.3171,38.4246],[-7.2114,38.3175],[-7.1963,38.2922],[-7.1672,38.2721],[-7.1269,38.1909],[-7.1035,38.1736],[-7.0631,38.1775],[-7.0387,38.1862],[-7.0264,38.1996],[-6.9642,38.2061],[-6.9506,38.1984],[-6.9338,38.2093],[-6.7979,38.1729],[-6.7955,38.1514],[-6.8119,38.1258],[-6.8104,38.113],[-6.7764,38.1005],[-6.7488,38.0936],[-6.7015,38.0929],[-6.6774,38.096],[-6.6446,38.0937],[-6.6173,38.0868],[-6.6034,38.0775],[-6.5844,38.0568],[-6.5776,38.0285],[-6.5717,38.0239],[-6.5239,38.0213],[-6.4992,38.0149],[-6.4848,38.0164],[-6.4496,38.0514],[-6.4343,38.0572],[-6.4131,38.0537],[-6.3724,38.0312],[-6.3563,38],[-6.3309,37.9946],[-6.2003,37.952],[-6.1833,37.939],[-6.1389,37.9683],[-6.1141,37.9786],[-6.0383,37.9905],[-5.976,37.9986],[-5.9521,38.008],[-5.9411,38.0183],[-5.9308,38.042],[-5.9137,38.0596],[-5.9107,38.0735],[-5.9228,38.0928],[-5.9154,38.1141],[-5.9006,38.1276],[-5.8745,38.1401],[-5.8371,38.1743],[-5.8072,38.183],[-5.7404,38.1902],[-5.7275,38.1883],[-5.698,38.1659],[-5.696,38.1485],[-5.7341,38.1297],[-5.7282,38.0954],[-5.7109,38.0887],[-5.6936,38.0913],[-5.6714,38.104],[-5.6428,38.1268],[-5.6234,38.1369],[-5.581,38.1351],[-5.5382,38.1624],[-5.5268,38.2019],[-5.5173,38.2229],[-5.5213,38.2668],[-5.5503,38.3208],[-5.5671,38.3363],[-5.561,38.3773],[-5.5758,38.3943],[-5.5694,38.4253],[-5.5493,38.4408],[-5.4808,38.4692],[-5.4649,38.4891],[-5.4196,38.5158],[-5.4003,38.5491],[-5.3799,38.5714],[-5.3624,38.5839],[-5.3068,38.5855],[-5.2881,38.6125],[-5.2558,38.6344],[-5.2101,38.659],[-5.1808,38.666],[-5.1672,38.6934],[-5.173,38.7082],[-5.1594,38.7179],[-5.0799,38.7194],[-5.0638,38.7254],[-5.0366,38.7284]]]},"properties":{"region":"Extremadura","name":"Extremadura"}},
{"type":"Feature","geometry":{"type":"Polygon","coordinates":[[[-6.9506,38.1984],[-6.9576,38.1682],[-6.979,38.1199],[-6.9976,38.0896],[-7.0064,38.0593],[-7.0158,38.0468],[-7.024,38.0226],[-7.0494,38.0202],[-7.1059,38.0387],[-7.1233,38.04],[-7.1522,38.0007],[-7.1853,37.9887],[-7.2233,37.9938],[-7.234,37.9881],[-7.2658,37.983],[-7.2727,37.977],[-7.2686,37.9492],[-7.2739,37.9315],[-7.2958,37.8849],[-7.3069,37.8508],[-7.3344,37.8119],[-7.4263,37.7506],[-7.444,37.7302],[-7.4575,37.7001],[-7.4663,37.652],[-7.4716,37.6369],[-7.5049,37.6064],[-7.5143,37.6014],[-7.5158,37.5809],[-7.5297,37.5672],[-7.5154,37.5293],[-7.5063,37.5181],[-7.4759,37.4943],[-7.4689,37.4756],[-7.46,37.4291],[-7.4623,37.4179],[-7.445,37.3868],[-7.4374,37.3073],[-7.4276,37.2745],[-7.4342,37.2593],[-7.4294,37.2367],[-7.4144,37.1928],[-7.3814,37.1799],[-7.3629,37.1817],[-7.3431,37.1962],[-7.3279,37.2016],[-7.0856,37.2065],[-7.099,37.2119],[-7.1273,37.2147],[-7.101,37.2243],[-7.0294,37.2055],[-6.9416,37.1711],[-6.9285,37.1723],[-6.9407,37.2007],[-6.9626,37.2276],[-6.9626,37.2338],[-6.9311,37.2339],[-6.9035,37.2496],[-6.8527,37.2952],[-6.8641,37.2775],[-6.9176,37.2151],[-6.9109,37.189],[-6.8929,37.1666],[-6.853,37.1511],[-6.8118,37.1237],[-6.7715,37.1128],[-6.7449,37.1014],[-6.4996,36.9597],[-6.4711,36.9356],[-6.4486,36.9042],[-6.4162,36.8378],[-6.388,36.8082],[-6.3524,36.8086],[-6.3467,36.8199],[-6.3524,36.8803],[-6.3447,36.9013],[-6.3259,36.9127],[-6.2836,36.9259],[-6.265,36.9129],[-6.2397,36.9134],[-6.214,36.9217],[-6.1948,36.9321],[-6.2233,36.9023],[-6.3044,36.9072],[-6.3382,36.8837],[-6.3437,36.8599],[-6.3352,36.8183],[-6.3456,36.795],[-6.3589,36.7858],[-6.4145,36.7676],[-6.4333,36.7512],[-6.4379,36.7333],[-6.4315,36.7146],[-6.407,36.6767],[-6.3947,36.6369],[-6.3798,36.6243],[-6.3617,36.6206],[-6.2939,36.6168],[-6.2832,36.6124],[-6.2349,36.5758],[-6.226,36.5567],[-6.2325,36.5262],[-6.2244,36.5109],[-6.2068,36.5089],[-6.1794,36.5135],[-6.2191,36.475],[-6.2315,36.4727],[-6.2541,36.4963],[-6.249,36.5047],[-6.2894,36.5373],[-6.31,36.5341],[-6.2796,36.5113],[-6.2571,36.4764],[-6.2184,36.4025],[-6.1842,36.3707],[-6.1685,36.3353],[-6.1595,36.3043],[-6.1047,36.2807],[-6.0822,36.2507],[-6.0625,36.2172],[-6.0368,36.1895],[-5.9836,36.177],[-5.939,36.1838],[-5.9172,36.1841],[-5.8979,36.1739],[-5.8328,36.1224],[-5.8113,36.0968],[-5.7961,36.0855],[-5.7537,36.0756],[-5.7131,36.06],[-5.6894,36.0671],[-5.6717,36.056],[-5.6297,36.0368],[-5.6118,36.0065],[-5.581,36.014],[-5.5666,36.0216],[-5.4455,36.0574],[-5.4318,36.0696],[-5.4287,36.0808],[-5.4399,36.1142],[-5.4349,36.1215],[-5.4415,36.1345],[-5.4379,36.1615],[-5.4254,36.1798],[-5.4061,36.1792],[-5.3825,36.1723],[-5.3666,36.1632],[-5.3584,36.1411],[-5.3388,36.1411],[-5.3341,36.1878],[-5.3293,36.1981],[-5.2966,36.2474],[-5.2853,36.2608],[-5.2906,36.2774],[-5.2741,36.2825],[-5.2537,36.2971],[-5.2279,36.3485],[-5.2271,36.3579],[-5.1997,36.3972],[-5.1866,36.4112],[-5.1576,36.4219],[-5.1087,36.429],[-5.0625,36.4522],[-4.9942,36.4571],[-4.9235,36.4969],[-4.9027,36.5065],[-4.8803,36.5057],[-4.7642,36.494],[-4.7228,36.493],[-4.6803,36.5008],[-4.6592,36.5076],[-4.615,36.5306],[-4.5878,36.5738],[-4.5248,36.5807],[-4.4954,36.6206],[-4.4911,36.6367],[-4.4669,36.663],[-4.4333,36.7107],[-4.4032,36.7239],[-4.2247,36.7124],[-4.1102,36.7257],[-4.08,36.7436],[-4.0567,36.748],[-3.961,36.7268],[-3.8894,36.7434],[-3.8385,36.752],[-3.7313,36.7241],[-3.6798,36.7288],[-3.6657,36.7394],[-3.6011,36.7426],[-3.5864,36.7266],[-3.5498,36.7124],[-3.516,36.721],[-3.4776,36.6961],[-3.4152,36.6955],[-3.3788,36.7139],[-3.3296,36.7449],[-3.2279,36.7548],[-3.1567,36.7445],[-3.0765,36.7498],[-2.9877,36.7371],[-2.9333,36.7517],[-2.914,36.7503],[-2.8861,36.7344],[-2.8588,36.7049],[-2.8483,36.7002],[-2.821,36.7139],[-2.8026,36.7073],[-2.7567,36.6804],[-2.7362,36.6874],[-2.7183,36.682],[-2.6844,36.686],[-2.6589,36.6948],[-2.6172,36.7284],[-2.5769,36.8113],[-2.5608,36.8188],[-2.4814,36.8299],[-2.4331,36.8163],[-2.4127,36.82],[-2.3802,36.8338],[-2.3617,36.8368],[-2.3183,36.8279],[-2.2828,36.8101],[-2.2561,36.7874],[-2.2317,36.7601],[-2.2036,36.7371],[-2.1661,36.7276],[-2.1267,36.7364],[-2.1111,36.7461],[-2.1008,36.7652],[-2.0712,36.7753],[-2.0569,36.8101],[-2.0248,36.8338],[-2.0131,36.8458],[-2.0028,36.887],[-1.9889,36.9005],[-1.9353,36.9322],[-1.9129,36.9335],[-1.8987,36.9501],[-1.907,36.9753],[-1.9061,36.9876],[-1.885,37.0155],[-1.8552,37.0766],[-1.8498,37.1044],[-1.8378,37.1316],[-1.8304,37.1664],[-1.8127,37.2071],[-1.7872,37.2352],[-1.7285,37.2824],[-1.699,37.3164],[-1.6858,37.337],[-1.6802,37.3544],[-1.6709,37.3633],[-1.6528,37.3613],[-1.6416,37.381],[-1.7324,37.4384],[-1.7927,37.4507],[-1.8057,37.4375],[-1.8384,37.4548],[-1.9878,37.639],[-2.0007,37.6538],[-2.0055,37.6809],[-2.0044,37.7045],[-1.9952,37.7355],[-2,37.7525],[-2.0028,37.788],[-1.9941,37.8097],[-1.9933,37.8338],[-1.9761,37.8601],[-1.9828,37.8708],[-2.077,37.8811],[-2.1255,37.8987],[-2.1718,37.8964],[-2.2322,37.9264],[-2.2614,37.9535],[-2.2962,38.0006],[-2.3385,38.0265],[-2.3612,38.0243],[-2.4658,38.0494],[-2.5474,38.0806],[-2.5219,38.1051],[-2.5065,38.1253],[-2.4448,38.1882],[-2.4489,38.2223],[-2.4373,38.2331],[-2.4303,38.2588],[-2.4401,38.2828],[-2.4711,38.2982],[-2.4776,38.3081],[-2.4792,38.3419],[-2.4882,38.3788],[-2.4887,38.3987],[-2.5572,38.4145],[-2.574,38.4346],[-2.57,38.4627],[-2.5746,38.4836],[-2.5719,38.5005],[-2.5988,38.5099],[-2.6428,38.5093],[-2.6752,38.5002],[-2.7185,38.5143],[-2.756,38.5331],[-2.7909,38.5071],[-2.8449,38.4834],[-2.879,38.4606],[-2.9027,38.4719],[-2.9235,38.4763],[-2.9508,38.4745],[-2.9927,38.452],[-3.0009,38.4301],[-3.0232,38.4463],[-3.0463,38.4729],[-3.0697,38.4827],[-3.1135,38.4576],[-3.1373,38.4528],[-3.1708,38.461],[-3.2403,38.4637],[-3.2779,38.4717],[-3.3074,38.4819],[-3.3458,38.4798],[-3.3619,38.4733],[-3.3736,38.4589],[-3.3767,38.4448],[-3.3959,38.4264],[-3.4452,38.4065],[-3.4696,38.4045],[-3.5191,38.4133],[-3.5304,38.4234],[-3.5438,38.4488],[-3.5664,38.4491],[-3.5768,38.4435],[-3.5887,38.4077],[-3.6199,38.4014],[-3.6922,38.4135],[-3.7175,38.4221],[-3.741,38.4181],[-3.7671,38.4265],[-3.7942,38.4261],[-3.8231,38.4152],[-3.8397,38.3926],[-3.8599,38.386],[-3.8937,38.3816],[-4.1776,38.3906],[-4.2155,38.4012],[-4.265,38.4014],[-4.2748,38.388],[-4.2755,38.3509],[-4.3018,38.3501],[-4.3663,38.3712],[-4.4057,38.3796],[-4.4497,38.396],[-4.4695,38.4095],[-4.4889,38.432],[-4.5171,38.4555],[-4.5431,38.4729],[-4.5704,38.4867],[-4.6105,38.497],[-4.6327,38.5235],[-4.668,38.5451],[-4.704,38.5594],[-4.728,38.5798],[-4.769,38.5944],[-4.8013,38.5977],[-4.8285,38.6041],[-4.8493,38.6149],[-4.8659,38.635],[-4.8697,38.6739],[-4.883,38.6852],[-4.946,38.6837],[-4.9792,38.6944],[-5.0366,38.7284],[-5.0638,38.7254],[-5.0799,38.7194],[-5.1594,38.7179],[-5.173,38.7082],[-5.1672,38.6934],[-5.1808,38.666],[-5.2101,38.659],[-5.2558,38.6344],[-5.2881,38.6125],[-5.3068,38.5855],[-5.3624,38.5839],[-5.3799,38.5714],[-5.4003,38.5491],[-5.4196,38.5158],[-5.4649,38.4891],[-5.4808,38.4692],[-5.5493,38.4408],[-5.5694,38.4253],[-5.5758,38.3943],[-5.561,38.3773],[-5.5671,38.3363],[-5.5503,38.3208],[-5.5213,38.2668],[-5.5173,38.2229],[-5.5268,38.2019],[-5.5382,38.1624],[-5.581,38.1351],[-5.6234,38.1369],[-5.6428,38.1268],[-5.6714,38.104],[-5.6936,38.0913],[-5.7109,38.0887],[-5.7282,38.0954],[-5.7341,38.1297],[-5.696,38.1485],[-5.698,38.1659],[-5.7275,38.1883],[-5.7404,38.1902],[-5.8072,38.183],[-5.8371,38.1743],[-5.8745,38.1401],[-5.9006,38.1276],[-5.9154,38.1141],[-5.9228,38.0928],[-5.9107,38.0735],[-5.9137,38.0596],[-5.9308,38.042],[-5.9411,38.0183],[-5.9521,38.008],[-5.976,37.9986],[-6.0383,37.9905],[-6.1141,37.9786],[-6.1389,37.9683],[-6.1833,37.939],[-6.2003,37.952],[-6.3309,37.9946],[-6.3563,38],[-6.3724,38.0312],[-6.4131,38.0537],[-6.4343,38.0572],[-6.4496,38.0514],[-6.4848,38.0164],[-6.4992,38.0149],[-6.5239,38.0213],[-6.5717,38.0239],[-6.5776,38.0285],[-6.5844,38.0568],[-6.6034,38.0775],[-6.6173,38.0868],[-6.6446,38.0937],[-6.6774,38.096],[-6.7015,38.0929],[-6.7488,38.0936],[-6.7764,38.1005],[-6.8104,38.113],[-6.8119,38.1258],[-6.7955,38.1514],[-6.7979,38.1729],[-6.9338,38.2093],[-6.9506,38.1984]]]},"properties":{"region":"Andalucía","name":"Andalucía"}},
{"type":"Feature","geometry":{"type":"Polygon","coordinates":[[[-6.9835,41.963],[-6.9877,41.9834],[-6.9653,42.0283],[-6.9848,42.0512],[-7.0127,42.0522],[-7.0263,42.0614],[-7.0247,42.0757],[-7.0112,42.0858],[-6.9869,42.1141],[-6.9556,42.1322],[-6.9447,42.1584],[-6.9329,42.1741],[-6.8984,42.2002],[-6.8668,42.217],[-6.8446,42.2209],[-6.8055,42.2179],[-6.7994,42.2384],[-6.7698,42.262],[-6.7444,42.2918],[-6.7383,42.305],[-6.7357,42.3411],[-6.7554,42.3627],[-6.7892,42.3789],[-6.8391,42.4101],[-6.8207,42.4237],[-6.813,42.4389],[-6.8088,42.464],[-6.8211,42.4851],[-6.8926,42.4998],[-6.92,42.5128],[-6.9526,42.5083],[-6.9723,42.4957],[-6.9831,42.4948],[-7.0263,42.502],[-7.071,42.5035],[-7.062,42.522],[-7.0601,42.5486],[-7.0428,42.5776],[-7.0443,42.6171],[-7.0399,42.6256],[-7.0143,42.6413],[-7.0167,42.6543],[-7.0362,42.6759],[-7.0397,42.6891],[-7.0328,42.7063],[-7.017,42.7209],[-6.9884,42.7301],[-6.9657,42.747],[-6.9387,42.7466],[-6.918,42.7573],[-6.8956,42.7806],[-6.8633,42.8084],[-6.8539,42.8294],[-6.8623,42.862],[-6.8605,42.8745],[-6.8436,42.8891],[-6.8283,42.9148],[-6.8369,42.9627],[-6.8689,42.9887],[-6.9137,42.9947],[-6.9452,43.0246],[-6.9536,43.0238],[-6.9537,43.0049],[-6.9664,42.9943],[-6.9758,42.9983],[-6.9885,43.0193],[-6.9796,43.0366],[-6.9634,43.0426],[-6.9452,43.0767],[-6.9132,43.0806],[-6.869,43.0953],[-6.8315,43.1202],[-6.8322,43.1399],[-6.8663,43.1753],[-6.88,43.1706],[-6.8985,43.1491],[-6.9434,43.1326],[-6.9593,43.1388],[-6.9709,43.1517],[-6.9727,43.1689],[-6.9656,43.195],[-6.9959,43.206],[-7.007,43.217],[-7.0213,43.2188],[-7.051,43.2373],[-7.0628,43.2549],[-7.0713,43.2977],[-7.1084,43.319],[-7.1216,43.3368],[-7.126,43.3727],[-7.1366,43.3821],[-7.1669,43.3862],[-7.1716,43.3961],[-7.1669,43.4234],[-7.1609,43.4291],[-7.1127,43.4293],[-7.095,43.4401],[-7.0811,43.4561],[-7.0505,43.4763],[-7.0469,43.4837],[-7.0536,43.4965],[-7.0484,43.5104],[-7.0309,43.5332],[-7.0323,43.553],[-7.0793,43.5686],[-7.0959,43.561],[-7.157,43.5593],[-7.2301,43.5686],[-7.2577,43.5567],[-7.2711,43.5686],[-7.2567,43.5816],[-7.3041,43.5986],[-7.3671,43.6801],[-7.4076,43.6912],[-7.4901,43.7253],[-7.5414,43.7316],[-7.5743,43.7145],[-7.5864,43.718],[-7.6072,43.6911],[-7.616,43.6885],[-7.613,43.7043],[-7.6376,43.7391],[-7.641,43.7527],[-7.6725,43.7438],[-7.6752,43.7316],[-7.6916,43.7272],[-7.6956,43.7459],[-7.6683,43.7725],[-7.6855,43.7934],[-7.6957,43.7749],[-7.7128,43.7607],[-7.734,43.7501],[-7.7738,43.7426],[-7.7939,43.7341],[-7.826,43.7117],[-7.8192,43.6975],[-7.8439,43.7038],[-7.8676,43.6975],[-7.8492,43.6756],[-7.8584,43.6682],[-7.9086,43.6702],[-7.8949,43.6845],[-7.8841,43.6786],[-7.8738,43.6845],[-7.8793,43.7005],[-7.8676,43.718],[-7.8465,43.7117],[-7.8808,43.7633],[-7.9086,43.7663],[-7.9281,43.7468],[-7.953,43.7301],[-7.9812,43.7178],[-8.011,43.7117],[-8.0593,43.7094],[-8.074,43.6785],[-8.0712,43.6679],[-8.0519,43.6565],[-8.0746,43.6396],[-8.0867,43.6565],[-8.2322,43.5755],[-8.261,43.5645],[-8.3127,43.5671],[-8.3082,43.5463],[-8.2921,43.5329],[-8.3052,43.5194],[-8.3166,43.5229],[-8.3253,43.4868],[-8.3331,43.4715],[-8.289,43.473],[-8.2692,43.4789],[-8.2573,43.492],[-8.2437,43.4852],[-8.2573,43.4777],[-8.1965,43.4852],[-8.1735,43.4927],[-8.167,43.4846],[-8.1856,43.4715],[-8.2865,43.462],[-8.3052,43.4511],[-8.2887,43.4462],[-8.2648,43.4273],[-8.2471,43.4231],[-8.1951,43.4232],[-8.1754,43.4163],[-8.2048,43.3997],[-8.2102,43.3753],[-8.2025,43.3293],[-8.2102,43.3132],[-8.2173,43.3283],[-8.2506,43.3549],[-8.2672,43.3859],[-8.3106,43.4031],[-8.3307,43.4057],[-8.3399,43.3927],[-8.3373,43.369],[-8.3536,43.3486],[-8.3757,43.363],[-8.3883,43.3859],[-8.443,43.3753],[-8.4557,43.3633],[-8.476,43.3597],[-8.4943,43.3466],[-8.506,43.3315],[-8.5584,43.3132],[-8.5925,43.3242],[-8.63,43.3159],[-8.6654,43.3012],[-8.6931,43.2934],[-8.7117,43.2956],[-8.7856,43.3124],[-8.817,43.3358],[-8.8412,43.3389],[-8.8566,43.3269],[-8.888,43.3207],[-8.9305,43.2998],[-8.988,43.283],[-8.9631,43.2723],[-8.9481,43.2499],[-8.9364,43.2441],[-8.9153,43.245],[-8.9325,43.2353],[-8.959,43.2275],[-8.9857,43.2269],[-9.0115,43.2388],[-9.027,43.2102],[-9.0524,43.1964],[-9.1004,43.1895],[-9.1379,43.2015],[-9.1701,43.1887],[-9.2176,43.1553],[-9.2084,43.1379],[-9.1942,43.1365],[-9.1623,43.1485],[-9.1633,43.1398],[-9.1471,43.1387],[-9.1077,43.1485],[-9.1077,43.1411],[-9.1258,43.1396],[-9.1503,43.1296],[-9.1623,43.1144],[-9.1898,43.1023],[-9.2176,43.1144],[-9.2223,43.1027],[-9.2457,43.088],[-9.2579,43.0609],[-9.2795,43.055],[-9.2721,43.0313],[-9.251,43.0168],[-9.2648,42.9803],[-9.292,42.9226],[-9.2829,42.9166],[-9.2684,42.8913],[-9.2443,42.9288],[-9.2242,42.9402],[-9.2143,42.939],[-9.2101,42.9257],[-9.19,42.9324],[-9.1959,42.9493],[-9.1835,42.9453],[-9.1679,42.9268],[-9.1345,42.9175],[-9.1375,42.8961],[-9.1487,42.8845],[-9.1412,42.8574],[-9.1084,42.8448],[-9.1003,42.8333],[-9.1132,42.8164],[-9.135,42.8128],[-9.1134,42.7661],[-9.1003,42.7575],[-9.0813,42.7548],[-9.0687,42.7597],[-9.0456,42.778],[-9.0489,42.7947],[-9.0282,42.7979],[-8.9774,42.7923],[-8.951,42.7951],[-8.9281,42.8025],[-8.9126,42.8166],[-8.9084,42.8395],[-8.8877,42.8311],[-8.8849,42.815],[-8.8983,42.7923],[-8.9222,42.7881],[-8.9374,42.7778],[-8.9631,42.7513],[-9.0063,42.7338],[-9.0301,42.7077],[-9.0395,42.673],[-9.0388,42.6611],[-9.0657,42.6203],[-9.0709,42.5961],[-9.0558,42.5854],[-9.0334,42.5781],[-9.0264,42.5431],[-9.0115,42.5307],[-8.9808,42.5512],[-8.9699,42.5792],[-8.934,42.5868],[-8.9222,42.5937],[-8.9364,42.6064],[-8.8895,42.6306],[-8.8948,42.6201],[-8.8805,42.6118],[-8.8688,42.6175],[-8.847,42.6406],[-8.857,42.6491],[-8.8546,42.6616],[-8.8395,42.6824],[-8.8262,42.6741],[-8.8038,42.6459],[-8.785,42.6406],[-8.7673,42.6452],[-8.7539,42.6569],[-8.7372,42.6884],[-8.7309,42.6884],[-8.7388,42.6661],[-8.7755,42.6047],[-8.7884,42.5922],[-8.8138,42.5814],[-8.823,42.5695],[-8.8252,42.5374],[-8.8129,42.5028],[-8.8251,42.4949],[-8.8225,42.4724],[-8.8265,42.4619],[-8.8516,42.4608],[-8.8743,42.4693],[-8.8612,42.4756],[-8.8608,42.485],[-8.8813,42.4966],[-8.9167,42.4876],[-8.935,42.4791],[-8.9355,42.4654],[-8.9009,42.461],[-8.8802,42.445],[-8.8675,42.4147],[-8.8436,42.4037],[-8.811,42.4007],[-8.7576,42.4072],[-8.6913,42.4406],[-8.6644,42.438],[-8.6625,42.4269],[-8.6769,42.4164],[-8.7269,42.3887],[-8.7646,42.3557],[-8.7769,42.3402],[-8.8129,42.3464],[-8.8307,42.3416],[-8.8265,42.329],[-8.8272,42.2967],[-8.833,42.2891],[-8.847,42.3048],[-8.8675,42.2564],[-8.8483,42.261],[-8.7958,42.2582],[-8.7739,42.269],[-8.7198,42.2876],[-8.6748,42.299],[-8.6499,42.3356],[-8.6227,42.3475],[-8.6217,42.3102],[-8.6252,42.3019],[-8.652,42.2863],[-8.6699,42.2809],[-8.7019,42.2585],[-8.7196,42.2523],[-8.772,42.2222],[-8.7906,42.2045],[-8.8058,42.1975],[-8.816,42.1745],[-8.847,42.1608],[-8.8237,42.1476],[-8.8265,42.1305],[-8.845,42.1266],[-8.8846,42.126],[-8.8955,42.1191],[-8.8986,42.1018],[-8.8787,41.9071],[-8.8813,41.8933],[-8.8647,41.8889],[-8.8328,41.914],[-8.7954,41.9257],[-8.7771,41.9372],[-8.7508,41.969],[-8.717,41.9838],[-8.6913,41.9896],[-8.6708,41.9998],[-8.6526,42.0314],[-8.6269,42.051],[-8.5728,42.0544],[-8.5544,42.0601],[-8.52,42.0777],[-8.5012,42.0831],[-8.3467,42.1017],[-8.33,42.1084],[-8.2954,42.1301],[-8.2523,42.1376],[-8.2224,42.1536],[-8.2043,42.1288],[-8.2074,42.0858],[-8.204,42.0696],[-8.1913,42.0621],[-8.1584,42.0714],[-8.1376,42.0729],[-8.1184,42.0669],[-8.1032,42.0558],[-8.0951,42.0409],[-8.0974,42.0235],[-8.108,42.0109],[-8.153,41.9868],[-8.1821,41.9654],[-8.2207,41.9227],[-8.2302,41.9047],[-8.2317,41.886],[-8.2204,41.8682],[-8.1846,41.8577],[-8.1754,41.8366],[-8.1796,41.8107],[-8.0935,41.8067],[-8.0486,41.8164],[-8.0157,41.8419],[-7.9936,41.8637],[-7.9794,41.8686],[-7.9448,41.867],[-7.9354,41.88],[-7.9258,41.9082],[-7.9061,41.9139],[-7.8966,41.8579],[-7.8648,41.8579],[-7.8497,41.8758],[-7.8122,41.8771],[-7.7501,41.8884],[-7.722,41.8993],[-7.7064,41.8963],[-7.6612,41.8749],[-7.6074,41.8732],[-7.6228,41.8417],[-7.6222,41.8323],[-7.5884,41.8242],[-7.5467,41.832],[-7.5316,41.8402],[-7.5233,41.8602],[-7.5081,41.8649],[-7.493,41.8569],[-7.4694,41.8525],[-7.4566,41.8392],[-7.4427,41.806],[-7.4054,41.8352],[-7.3768,41.844],[-7.3225,41.8454],[-7.2515,41.8637],[-7.2186,41.879],[-7.1979,41.9015],[-7.1957,41.9174],[-7.2021,41.9497],[-7.1999,41.9637],[-7.1773,41.9784],[-7.1454,41.9875],[-7.1132,41.9724],[-7.0827,41.9528],[-7.0513,41.942],[-7.0158,41.9537],[-6.9924,41.9664],[-6.9835,41.963]]]},"properties":{"region":"Galicia","name":"Galicia"}},
{"type":"Feature","geometry":{"type":"MultiPolygon","coordinates":[[[[-6.8745,40.2792],[-6.8443,40.2558],[-6.8245,40.2464],[-6.8047,40.2444],[-6.7851,40.2487],[-6.7588,40.2448],[-6.7176,40.2589],[-6.6886,40.2497],[-6.655,40.262],[-6.5851,40.272],[-6.5561,40.2871],[-6.5528,40.3008],[-6.558,40.3216],[-6.5469,40.3336],[-6.5155,40.3524],[-6.4798,40.3655],[-6.4423,40.3759],[-6.4213,40.3934],[-6.3627,40.4104],[-6.3495,40.4306],[-6.3231,40.4463],[-6.2802,40.456],[-6.2367,40.4794],[-6.2067,40.4776],[-6.1729,40.4609],[-6.1465,40.4413],[-6.118,40.4338],[-6.1158,40.4213],[-6.0746,40.4047],[-6.0691,40.3963],[-6.0866,40.3651],[-6.0963,40.3576],[-6.08,40.3484],[-6.023,40.3278],[-5.9876,40.3032],[-5.9255,40.2815],[-5.9037,40.2843],[-5.8918,40.2969],[-5.8818,40.3175],[-5.8676,40.3249],[-5.8341,40.3322],[-5.8133,40.3408],[-5.795,40.3418],[-5.7816,40.3234],[-5.783,40.3081],[-5.7918,40.296],[-5.7836,40.2861],[-5.7624,40.2844],[-5.7277,40.294],[-5.6869,40.2815],[-5.6586,40.2659],[-5.627,40.244],[-5.6038,40.2194],[-5.5777,40.2078],[-5.5398,40.1974],[-5.5007,40.1984],[-5.4781,40.2042],[-5.4578,40.2211],[-5.4236,40.2431],[-5.3731,40.2544],[-5.3546,40.2552],[-5.35,40.2455],[-5.3647,40.2097],[-5.3615,40.1648],[-5.3454,40.1376],[-5.328,40.1159],[-5.2303,40.1065],[-5.1906,40.0894],[-5.1668,40.0888],[-5.1412,40.0948],[-5.0898,40.1263],[-5.0774,40.1386],[-5.0579,40.1486],[-5.0323,40.1548],[-5.0145,40.1509],[-5.0079,40.1225],[-4.9886,40.114],[-4.9517,40.1228],[-4.9224,40.1403],[-4.9035,40.174],[-4.8655,40.1968],[-4.8432,40.2066],[-4.815,40.2298],[-4.8063,40.261],[-4.7,40.2756],[-4.6841,40.2171],[-4.672,40.2067],[-4.6394,40.1971],[-4.6024,40.2022],[-4.5719,40.212],[-4.5581,40.2292],[-4.5497,40.2631],[-4.5298,40.2967],[-4.5376,40.3341],[-4.525,40.339],[-4.4964,40.3165],[-4.4793,40.3176],[-4.4576,40.3262],[-4.4403,40.3502],[-4.4315,40.3893],[-4.4073,40.4085],[-4.3749,40.4047],[-4.3248,40.4133],[-4.3287,40.4326],[-4.3152,40.4693],[-4.3187,40.4825],[-4.319,40.544],[-4.2933,40.5659],[-4.2845,40.5841],[-4.2903,40.6216],[-4.2789,40.6276],[-4.2663,40.6114],[-4.2421,40.6028],[-4.1844,40.6164],[-4.1713,40.6299],[-4.1682,40.6676],[-4.1613,40.6873],[-4.0901,40.7691],[-4.0598,40.7841],[-4.0187,40.7794],[-3.9841,40.7887],[-3.9686,40.8183],[-3.9637,40.848],[-3.9529,40.8652],[-3.9531,40.8943],[-3.9348,40.9262],[-3.9115,40.9503],[-3.8919,40.9648],[-3.8057,40.9873],[-3.7871,40.9968],[-3.7528,41.043],[-3.7279,41.062],[-3.6849,41.0847],[-3.6654,41.1],[-3.6239,41.1394],[-3.5922,41.1541],[-3.5458,41.1618],[-3.5196,41.1622],[-3.4421,41.2065],[-3.4113,41.2136],[-3.4065,41.244],[-3.4169,41.2641],[-3.3897,41.2556],[-3.3398,41.2536],[-3.2911,41.2607],[-3.2799,41.266],[-3.2492,41.2666],[-3.2198,41.293],[-3.1988,41.3012],[-3.0838,41.2808],[-3.0489,41.2809],[-2.9823,41.2872],[-2.944,41.2991],[-2.9298,41.3163],[-2.9097,41.3221],[-2.8796,41.3146],[-2.8639,41.2787],[-2.8441,41.2679],[-2.8059,41.2599],[-2.7813,41.261],[-2.7518,41.2739],[-2.7281,41.2728],[-2.7092,41.2525],[-2.6395,41.2349],[-2.6183,41.2201],[-2.5919,41.222],[-2.586,41.2155],[-2.61,41.1917],[-2.5848,41.1794],[-2.5802,41.1658],[-2.5863,41.1496],[-2.5672,41.1456],[-2.5321,41.1572],[-2.5228,41.1526],[-2.5056,41.1247],[-2.4814,41.1138],[-2.4676,41.0861],[-2.4497,41.0746],[-2.4092,41.065],[-2.3645,41.0807],[-2.3269,41.0652],[-2.2884,41.0675],[-2.2606,41.076],[-2.237,41.089],[-2.1776,41.0907],[-2.1452,41.1144],[-2.129,41.1165],[-2.0912,41.0944],[-2.0729,41.0789],[-2.0573,41.085],[-2.0618,41.11],[-2.0527,41.1355],[-2.0532,41.1504],[-2.0837,41.1719],[-2.1382,41.1815],[-2.1491,41.1939],[-2.1513,41.2313],[-2.1592,41.2692],[-2.1733,41.2946],[-2.1719,41.3278],[-2.1662,41.346],[-2.1401,41.3627],[-2.128,41.3768],[-2.1196,41.4237],[-2.111,41.4379],[-2.0997,41.4426],[-2.0521,41.435],[-2.041,41.4249],[-2.0408,41.3947],[-2.0306,41.3854],[-2.0141,41.3881],[-1.9798,41.4049],[-1.9459,41.4155],[-1.9528,41.4578],[-1.9691,41.4798],[-1.9787,41.5076],[-1.9759,41.5427],[-1.9819,41.5708],[-1.9879,41.5752],[-1.9883,41.5955],[-1.9695,41.6077],[-1.9321,41.6011],[-1.9235,41.603],[-1.894,41.6294],[-1.8748,41.6369],[-1.8444,41.6569],[-1.825,41.658],[-1.8073,41.6704],[-1.7882,41.7057],[-1.7855,41.7193],[-1.8085,41.7375],[-1.8189,41.7578],[-1.8459,41.7907],[-1.8178,41.8361],[-1.816,41.8517],[-1.8369,41.8741],[-1.8516,41.9061],[-1.8577,41.9548],[-1.9225,41.9257],[-1.9439,41.9205],[-1.9779,41.9205],[-1.9983,41.9335],[-2.0952,41.9527],[-2.1106,41.9634],[-2.1154,41.9914],[-2.1046,42.0001],[-2.1166,42.022],[-2.1462,42.0432],[-2.149,42.0648],[-2.1278,42.0779],[-2.1227,42.0907],[-2.1379,42.1016],[-2.1718,42.1055],[-2.1897,42.1041],[-2.2455,42.0895],[-2.2563,42.0894],[-2.2722,42.1019],[-2.2812,42.1299],[-2.2961,42.1378],[-2.3474,42.1422],[-2.4105,42.1386],[-2.4374,42.1319],[-2.4815,42.1082],[-2.5025,42.1111],[-2.5116,42.1051],[-2.5157,42.0688],[-2.5369,42.0526],[-2.5729,42.0002],[-2.6195,42.0023],[-2.6718,42.0005],[-2.6906,42.0116],[-2.729,42.0169],[-2.7436,42.0225],[-2.7474,42.036],[-2.7342,42.0641],[-2.7157,42.0799],[-2.7123,42.094],[-2.7172,42.1142],[-2.7354,42.1201],[-2.7622,42.1181],[-2.7859,42.1011],[-2.7986,42.0708],[-2.7963,42.056],[-2.8128,42.0381],[-2.8709,42.0147],[-2.9102,42.0234],[-2.9176,42.0572],[-2.9342,42.0827],[-3.0108,42.0821],[-3.0263,42.088],[-3.0552,42.1253],[-3.0778,42.1377],[-3.0871,42.1586],[-3.1204,42.1963],[-3.1022,42.2178],[-3.0908,42.2491],[-3.0879,42.27],[-3.0981,42.3078],[-3.0996,42.3325],[-3.1079,42.349],[-3.072,42.3594],[-3.056,42.3803],[-3.0582,42.4259],[-3.0492,42.4523],[-3.0601,42.4715],[-3.0832,42.4915],[-3.07,42.5291],[-3.0778,42.5398],[-3.1107,42.5368],[-3.1139,42.5484],[-3.0837,42.5732],[-3.0605,42.5994],[-3.0758,42.6257],[-3.0569,42.6373],[-3.0142,42.6409],[-2.9487,42.6352],[-2.9067,42.6263],[-2.8373,42.6441],[-2.8525,42.6654],[-2.9179,42.7058],[-2.9434,42.7143],[-2.9687,42.7378],[-3.0032,42.7532],[-3.0314,42.7727],[-3.0635,42.7853],[-3.1196,42.7687],[-3.1363,42.7699],[-3.129,42.7863],[-3.1477,42.8037],[-3.1512,42.8176],[-3.1413,42.8347],[-3.1125,42.8683],[-3.1104,42.8796],[-3.1302,42.8886],[-3.1591,42.8646],[-3.1876,42.8637],[-3.2027,42.8551],[-3.2174,42.8297],[-3.2315,42.8359],[-3.2759,42.8747],[-3.2791,42.8872],[-3.2332,42.9382],[-3.2241,42.9438],[-3.1883,42.9467],[-3.1661,42.9429],[-3.1512,42.9343],[-3.141,42.9161],[-3.1239,42.9108],[-3.0753,42.9056],[-3.0292,42.9102],[-3.009,42.9233],[-2.9875,42.9263],[-2.9771,42.939],[-2.9834,42.951],[-3.0123,42.9585],[-3.0396,42.978],[-3.0394,42.987],[-2.9993,42.9895],[-2.9874,43.0089],[-2.9971,43.0208],[-3.0161,43.0254],[-3.0236,43.0431],[-3.0367,43.0497],[-3.0553,43.0431],[-3.0735,43.014],[-3.0849,43.0107],[-3.1216,43.0136],[-3.1522,43.0199],[-3.1651,43.0267],[-3.1485,43.0504],[-3.1481,43.0742],[-3.1418,43.1041],[-3.1651,43.1165],[-3.1726,43.1314],[-3.1595,43.1549],[-3.1418,43.1651],[-3.1515,43.1814],[-3.2297,43.187],[-3.2595,43.2012],[-3.2785,43.1973],[-3.3624,43.1579],[-3.4238,43.1406],[-3.452,43.1389],[-3.519,43.1438],[-3.5461,43.153],[-3.6038,43.1618],[-3.6278,43.1743],[-3.6478,43.1762],[-3.6823,43.1534],[-3.7062,43.1297],[-3.7328,43.1109],[-3.7662,43.0934],[-3.7846,43.0891],[-3.8132,43.0909],[-3.8383,43.0847],[-3.8427,43.0573],[-3.8549,43.0477],[-3.8961,43.0332],[-3.9166,43.0165],[-3.9526,42.9992],[-3.9836,42.9403],[-3.9848,42.9258],[-3.9742,42.9122],[-3.9562,42.9046],[-3.9278,42.9088],[-3.8948,42.9256],[-3.8813,42.9439],[-3.8646,42.9479],[-3.8485,42.941],[-3.8341,42.9216],[-3.8395,42.9142],[-3.8697,42.9],[-3.8982,42.8986],[-3.9092,42.8803],[-3.9046,42.8615],[-3.8939,42.8514],[-3.8772,42.8553],[-3.8621,42.872],[-3.8499,42.8766],[-3.8314,42.8723],[-3.8278,42.8472],[-3.8156,42.8237],[-3.8158,42.81],[-3.8309,42.7999],[-3.883,42.7971],[-3.9174,42.7735],[-3.9652,42.7625],[-4.0002,42.7698],[-3.9974,42.7859],[-4.0028,42.8236],[-4.0189,42.8163],[-4.0472,42.7701],[-4.0858,42.7631],[-4.0961,42.7762],[-4.1204,42.789],[-4.1586,42.7935],[-4.1852,42.812],[-4.1847,42.8235],[-4.1416,42.8345],[-4.1344,42.8535],[-4.1502,42.8622],[-4.1745,42.857],[-4.1966,42.8441],[-4.2214,42.8502],[-4.2389,42.9292],[-4.2399,42.9502],[-4.2541,42.9576],[-4.3566,42.9854],[-4.3704,42.9928],[-4.4008,43.0333],[-4.434,43.048],[-4.4629,43.0509],[-4.4909,43.0396],[-4.5187,43.0377],[-4.5524,43.0239],[-4.6012,43.0255],[-4.6391,43.0198],[-4.6896,43.0196],[-4.7269,43.0159],[-4.7387,43.0481],[-4.7585,43.0623],[-4.7705,43.0786],[-4.8114,43.0948],[-4.8279,43.1081],[-4.836,43.1351],[-4.8319,43.1887],[-4.8594,43.2234],[-4.879,43.2352],[-4.9085,43.2373],[-4.9615,43.2162],[-4.9772,43.2056],[-5.0083,43.1929],[-5.0459,43.1853],[-5.0721,43.1725],[-5.0862,43.1514],[-5.0955,43.1283],[-5.1181,43.1086],[-5.1595,43.1132],[-5.212,43.094],[-5.3075,43.0855],[-5.361,43.0915],[-5.3828,43.0853],[-5.3899,43.0638],[-5.4188,43.0519],[-5.4734,43.0511],[-5.4908,43.0286],[-5.5173,43.0291],[-5.541,43.0218],[-5.5617,43.023],[-5.579,43.0312],[-5.6371,43.038],[-5.6652,43.0483],[-5.7052,43.0488],[-5.73,43.0406],[-5.7553,43.0101],[-5.7623,42.9932],[-5.7787,42.9747],[-5.8048,42.9706],[-5.8448,42.9717],[-5.889,42.9856],[-5.9547,43.0176],[-5.9713,43.0514],[-5.9878,43.0623],[-6.0168,43.0573],[-6.0791,43.0651],[-6.0883,43.0621],[-6.1024,43.0348],[-6.1355,43.0271],[-6.1755,43.0378],[-6.1997,43.041],[-6.219,43.0336],[-6.2217,43.0201],[-6.2344,43.0144],[-6.2536,43.018],[-6.2973,43.034],[-6.3298,43.0379],[-6.3473,43.0481],[-6.3649,43.0514],[-6.3928,43.0422],[-6.4137,43.0165],[-6.4147,43.0049],[-6.4469,42.9928],[-6.4756,42.9918],[-6.4763,42.9769],[-6.4441,42.964],[-6.449,42.9511],[-6.5016,42.9297],[-6.5158,42.9287],[-6.5621,42.9167],[-6.6085,42.9196],[-6.6357,42.9273],[-6.6825,42.9269],[-6.7194,42.9202],[-6.7524,42.8974],[-6.7709,42.8941],[-6.7772,42.9041],[-6.7953,42.9109],[-6.8283,42.9148],[-6.8436,42.8891],[-6.8605,42.8745],[-6.8623,42.862],[-6.8539,42.8294],[-6.8633,42.8084],[-6.8956,42.7806],[-6.918,42.7573],[-6.9387,42.7466],[-6.9657,42.747],[-6.9884,42.7301],[-7.017,42.7209],[-7.0328,42.7063],[-7.0397,42.6891],[-7.0362,42.6759],[-7.0167,42.6543],[-7.0143,42.6413],[-7.0399,42.6256],[-7.0443,42.6171],[-7.0428,42.5776],[-7.0601,42.5486],[-7.062,42.522],[-7.071,42.5035],[-7.0263,42.502],[-6.9831,42.4948],[-6.9723,42.4957],[-6.9526,42.5083],[-6.92,42.5128],[-6.8926,42.4998],[-6.8211,42.4851],[-6.8088,42.464],[-6.813,42.4389],[-6.8207,42.4237],[-6.8391,42.4101],[-6.7892,42.3789],[-6.7554,42.3627],[-6.7357,42.3411],[-6.7383,42.305],[-6.7444,42.2918],[-6.7698,42.262],[-6.7994,42.2384],[-6.8055,42.2179],[-6.8446,42.2209],[-6.8668,42.217],[-6.8984,42.2002],[-6.9329,42.1741],[-6.9447,42.1584],[-6.9556,42.1322],[-6.9869,42.1141],[-7.0112,42.0858],[-7.0247,42.0757],[-7.0263,42.0614],[-7.0127,42.0522],[-6.9848,42.0512],[-6.9653,42.0283],[-6.9877,41.9834],[-6.9835,41.963],[-6.9451,41.9434],[-6.9171,41.9391],[-6.855,41.9429],[-6.8312,41.954],[-6.8249,41.9838],[-6.7944,41.9797],[-6.7579,41.9376],[-6.728,41.9309],[-6.6568,41.9331],[-6.6228,41.941],[-6.6095,41.9623],[-6.5851,41.9547],[-6.5717,41.9426],[-6.5676,41.9261],[-6.5758,41.8829],[-6.5679,41.8759],[-6.5242,41.8674],[-6.5357,41.8486],[-6.5601,41.7669],[-6.5774,41.7397],[-6.5631,41.713],[-6.5553,41.6749],[-6.5415,41.6589],[-6.5134,41.6509],[-6.488,41.6588],[-6.4608,41.6766],[-6.4471,41.6762],[-6.3659,41.6636],[-6.3171,41.6501],[-6.2722,41.6282],[-6.2301,41.5949],[-6.2059,41.5703],[-6.2536,41.5175],[-6.2795,41.497],[-6.2859,41.4869],[-6.2829,41.4656],[-6.321,41.4196],[-6.3211,41.411],[-6.3523,41.4093],[-6.3762,41.3969],[-6.3792,41.3775],[-6.3996,41.3775],[-6.431,41.339],[-6.4631,41.3141],[-6.4959,41.2949],[-6.5635,41.2707],[-6.6289,41.2699],[-6.6466,41.2676],[-6.6582,41.2578],[-6.6938,41.2174],[-6.7069,41.1943],[-6.7422,41.1714],[-6.759,41.1518],[-6.7565,41.1271],[-6.7648,41.1089],[-6.8044,41.0644],[-6.818,41.0541],[-6.8453,41.0519],[-6.9068,41.0561],[-6.9279,41.0479],[-6.9318,41.0291],[-6.9425,41.016],[-6.9306,40.9921],[-6.8992,40.9668],[-6.8852,40.9489],[-6.847,40.8789],[-6.8212,40.8701],[-6.8162,40.8568],[-6.8203,40.8442],[-6.8367,40.8402],[-6.8381,40.8149],[-6.8335,40.7978],[-6.8391,40.7769],[-6.837,40.7433],[-6.8243,40.7107],[-6.8162,40.6772],[-6.8143,40.6472],[-6.8213,40.6302],[-6.8445,40.5978],[-6.8505,40.5822],[-6.8484,40.5648],[-6.8181,40.5319],[-6.8125,40.5146],[-6.8153,40.5025],[-6.8387,40.4772],[-6.8571,40.4421],[-6.8513,40.4095],[-6.8281,40.3806],[-6.7944,40.3564],[-6.812,40.3323],[-6.8639,40.301],[-6.8745,40.2792]],[[-4.3219,40.6579],[-4.3185,40.6824],[-4.2993,40.6962],[-4.2763,40.6927],[-4.2584,40.6616],[-4.3219,40.6579]]],[[[-2.6263,42.7732],[-2.6389,42.7742],[-2.7261,42.7951],[-2.7528,42.797],[-2.8166,42.794],[-2.8329,42.7873],[-2.8681,42.7514],[-2.8653,42.7363],[-2.8408,42.7178],[-2.8141,42.7029],[-2.7524,42.6818],[-2.6844,42.6703],[-2.6341,42.6548],[-2.5569,42.6534],[-2.5382,42.6434],[-2.5129,42.6534],[-2.5195,42.681],[-2.5258,42.6895],[-2.5595,42.6735],[-2.5721,42.6774],[-2.6008,42.7044],[-2.5982,42.7132],[-2.5804,42.7185],[-2.5619,42.7391],[-2.5561,42.7564],[-2.5781,42.7605],[-2.5963,42.7736],[-2.6263,42.7732]]]]},"properties":{"region":"Castilla y León","name":"Castilla y León"}},
{"type":"Feature","geometry":{"type":"MultiPolygon","coordinates":[[[[0.173,40.7309],[0.145,40.7226],[0.1071,40.7215],[0.0815,40.7164],[0.045,40.6962],[0.0295,40.6996],[0.0182,40.7261],[0.0016,40.7296],[-0.0483,40.7272],[-0.0745,40.7308],[-0.12,40.7533],[-0.1522,40.7749],[-0.1658,40.7799],[-0.1948,40.776],[-0.2234,40.7453],[-0.228,40.7307],[-0.2292,40.701],[-0.2341,40.6948],[-0.3045,40.6633],[-0.3458,40.6739],[-0.3773,40.6602],[-0.3746,40.6182],[-0.3251,40.6042],[-0.2944,40.6058],[-0.2986,40.5766],[-0.2927,40.5485],[-0.2967,40.5079],[-0.2806,40.4999],[-0.2726,40.4814],[-0.2774,40.4718],[-0.3237,40.457],[-0.3399,40.4427],[-0.3355,40.4278],[-0.3072,40.4079],[-0.2891,40.3892],[-0.2865,40.3717],[-0.2921,40.3655],[-0.3317,40.3457],[-0.3572,40.3177],[-0.3909,40.2956],[-0.3914,40.2639],[-0.4059,40.2511],[-0.4423,40.2378],[-0.5011,40.2303],[-0.5442,40.2401],[-0.5518,40.2284],[-0.5523,40.2003],[-0.5678,40.1691],[-0.57,40.1535],[-0.5832,40.1348],[-0.6134,40.1139],[-0.6195,40.0991],[-0.6143,40.0717],[-0.6839,40.0444],[-0.722,40.0399],[-0.7467,40.0414],[-0.7577,40.0346],[-0.7662,40.0094],[-0.7908,39.993],[-0.8244,39.9815],[-0.8357,39.9676],[-0.8391,39.9458],[-0.8325,39.9194],[-0.8238,39.9063],[-0.7975,39.8875],[-0.7913,39.8775],[-0.847,39.8553],[-0.8781,39.8522],[-0.9024,39.8654],[-0.9044,39.8948],[-0.9121,39.9064],[-0.9048,39.9346],[-0.9231,39.956],[-0.9725,39.974],[-1.0003,39.9792],[-1.0535,39.9788],[-1.1294,39.964],[-1.1455,39.9723],[-1.1579,39.9639],[-1.1962,39.9506],[-1.2066,39.9386],[-1.1967,39.9106],[-1.2029,39.8633],[-1.2178,39.8119],[-1.2256,39.7963],[-1.267,39.7435],[-1.2697,39.7188],[-1.2655,39.6938],[-1.2759,39.6806],[-1.2922,39.6727],[-1.3204,39.6714],[-1.354,39.6836],[-1.372,39.6836],[-1.399,39.6689],[-1.4275,39.6452],[-1.4632,39.5902],[-1.4944,39.5673],[-1.5045,39.5455],[-1.4999,39.5357],[-1.5032,39.504],[-1.4984,39.4961],[-1.5182,39.4518],[-1.5174,39.4411],[-1.501,39.422],[-1.487,39.4196],[-1.4817,39.4094],[-1.4524,39.3902],[-1.4457,39.3669],[-1.4062,39.3706],[-1.385,39.365],[-1.3397,39.3417],[-1.3105,39.3373],[-1.1777,39.3041],[-1.1703,39.2883],[-1.1783,39.2577],[-1.1786,39.2206],[-1.2018,39.1704],[-1.2269,39.1468],[-1.255,39.0961],[-1.2621,39.0737],[-1.2558,39.0473],[-1.2484,39.0381],[-1.1515,38.9485],[-1.121,38.9326],[-1.0936,38.9332],[-1.0661,38.9381],[-1.0379,38.9373],[-0.9911,38.9512],[-0.9592,38.94],[-0.9209,38.8862],[-0.9262,38.8553],[-0.9133,38.8246],[-0.9205,38.7918],[-0.9491,38.7773],[-0.9537,38.7626],[-0.9423,38.7312],[-0.9035,38.6887],[-0.9082,38.6814],[-0.9396,38.664],[-0.9772,38.6565],[-1.0065,38.6583],[-1.0221,38.6545],[-1.0054,38.5903],[-1.0057,38.5646],[-1.0188,38.5216],[-1.0165,38.4984],[-1.024,38.4834],[-1.0689,38.4496],[-1.0821,38.4311],[-1.084,38.3746],[-1.0767,38.3497],[-1.0119,38.3348],[-0.9947,38.3249],[-0.9836,38.3109],[-0.9692,38.2708],[-0.9694,38.2587],[-0.9832,38.203],[-0.9937,38.181],[-1.0228,38.1463],[-1.0329,38.1169],[-1.0308,38.0971],[-1.02,38.0685],[-1.0031,38.0527],[-0.9822,38.0264],[-0.955,37.9843],[-0.9344,37.9605],[-0.9167,37.9336],[-0.8387,37.868],[-0.8126,37.8603],[-0.7797,37.8429],[-0.7606,37.8459],[-0.7586,37.8633],[-0.7184,37.943],[-0.6899,37.9722],[-0.6634,37.9803],[-0.6545,37.9893],[-0.645,38.116],[-0.6344,38.1458],[-0.6095,38.178],[-0.5914,38.1896],[-0.5688,38.1942],[-0.5329,38.1922],[-0.5155,38.1955],[-0.504,38.2072],[-0.5188,38.2987],[-0.5098,38.3384],[-0.4744,38.3367],[-0.4706,38.3519],[-0.4459,38.3634],[-0.4137,38.3648],[-0.4061,38.3989],[-0.3952,38.4138],[-0.3587,38.446],[-0.3446,38.4616],[-0.3294,38.47],[-0.234,38.5017],[-0.2021,38.5196],[-0.177,38.5272],[-0.1317,38.5353],[-0.0902,38.5353],[-0.0754,38.5399],[-0.06,38.5527],[-0.0536,38.567],[-0.0548,38.5953],[-0.043,38.6117],[-0.0148,38.6244],[0.015,38.6247],[0.0604,38.6348],[0.0806,38.631],[0.0731,38.6452],[0.083,38.661],[0.1257,38.6855],[0.145,38.6863],[0.1626,38.7135],[0.1921,38.7304],[0.2277,38.7346],[0.2345,38.7423],[0.2277,38.7702],[0.2179,38.7681],[0.1829,38.7918],[0.1709,38.7961],[0.1853,38.8035],[0.154,38.831],[0.111,38.8499],[0.0631,38.8608],[0.0174,38.8643],[-0.0098,38.8697],[-0.031,38.8828],[-0.0686,38.9134],[-0.1059,38.9365],[-0.1207,38.9511],[-0.158,39.0021],[-0.21,39.0787],[-0.2267,39.1118],[-0.2422,39.1663],[-0.2155,39.1818],[-0.2387,39.2154],[-0.3013,39.322],[-0.3207,39.3881],[-0.3275,39.4307],[-0.3306,39.4804],[-0.3234,39.5162],[-0.3127,39.534],[-0.2815,39.5694],[-0.2696,39.5987],[-0.2437,39.631],[-0.2089,39.6641],[-0.1945,39.7154],[-0.0913,39.8479],[-0.0287,39.9018],[-0.0029,39.932],[0.0405,40.0029],[0.0662,40.0319],[0.117,40.0563],[0.1445,40.0788],[0.2053,40.1715],[0.2647,40.2098],[0.2988,40.2468],[0.3506,40.2849],[0.4203,40.3883],[0.4461,40.4084],[0.4526,40.4341],[0.4662,40.4507],[0.5013,40.4842],[0.5238,40.5262],[0.4561,40.5492],[0.4474,40.5546],[0.4369,40.5774],[0.4184,40.5908],[0.3875,40.6037],[0.3166,40.6226],[0.2931,40.6321],[0.2762,40.6543],[0.2877,40.6838],[0.2657,40.6979],[0.2438,40.703],[0.2193,40.7305],[0.199,40.7272],[0.173,40.7309]]],[[[-1.1627,40.0115],[-1.1391,40.0162],[-1.0917,40.0346],[-1.0756,40.0521],[-1.08,40.0658],[-1.1258,40.0979],[-1.1511,40.1101],[-1.2151,40.1159],[-1.2347,40.123],[-1.2461,40.1449],[-1.2715,40.1627],[-1.2946,40.2016],[-1.3142,40.1953],[-1.3223,40.179],[-1.3185,40.1638],[-1.3245,40.1493],[-1.3641,40.1396],[-1.3955,40.1401],[-1.4485,40.1498],[-1.4523,40.1307],[-1.4409,40.1204],[-1.4169,40.1095],[-1.3783,40.0221],[-1.3695,40.0163],[-1.2859,40.0062],[-1.2589,39.9981],[-1.1871,40.0062],[-1.1627,40.0115]]]]},"properties":{"region":"Valenciana","name":"Valenciana"}},
{"type":"Feature","geometry":{"type":"MultiPolygon","coordinates":[[[[-1.0221,38.6545],[-1.0779,38.6876],[-1.1053,38.7075],[-1.1143,38.7347],[-1.1284,38.7434],[-1.1742,38.7541],[-1.2334,38.7421],[-1.2528,38.7319],[-1.2782,38.7116],[-1.3342,38.6867],[-1.3453,38.6866],[-1.3635,38.7013],[-1.3858,38.6969],[-1.4028,38.685],[-1.4336,38.6558],[-1.4503,38.6277],[-1.4543,38.5897],[-1.4645,38.5762],[-1.4851,38.5629],[-1.502,38.5349],[-1.4857,38.4837],[-1.4833,38.4357],[-1.4779,38.4037],[-1.481,38.3883],[-1.4947,38.3731],[-1.5673,38.3262],[-1.6267,38.3114],[-1.6461,38.3122],[-1.6678,38.3197],[-1.6819,38.3316],[-1.6831,38.3624],[-1.7027,38.3736],[-1.719,38.3714],[-1.7505,38.3803],[-1.7928,38.3651],[-1.7957,38.3539],[-1.848,38.3291],[-1.8858,38.3062],[-1.9262,38.291],[-1.9581,38.2867],[-1.9848,38.2793],[-1.9989,38.2822],[-2.0234,38.299],[-2.0429,38.2984],[-2.0591,38.2904],[-2.0851,38.2658],[-2.1274,38.2352],[-2.1703,38.2238],[-2.2119,38.1959],[-2.2505,38.1363],[-2.281,38.1032],[-2.3242,38.0624],[-2.3385,38.0265],[-2.2962,38.0006],[-2.2614,37.9535],[-2.2322,37.9264],[-2.1718,37.8964],[-2.1255,37.8987],[-2.077,37.8811],[-1.9828,37.8708],[-1.9761,37.8601],[-1.9933,37.8338],[-1.9941,37.8097],[-2.0028,37.788],[-2,37.7525],[-1.9952,37.7355],[-2.0044,37.7045],[-2.0055,37.6809],[-2.0007,37.6538],[-1.9878,37.639],[-1.8384,37.4548],[-1.8057,37.4375],[-1.7927,37.4507],[-1.7324,37.4384],[-1.6416,37.381],[-1.6187,37.3923],[-1.5677,37.4099],[-1.5437,37.415],[-1.515,37.4332],[-1.4969,37.4278],[-1.4884,37.4332],[-1.4767,37.4727],[-1.4709,37.4822],[-1.4502,37.4947],[-1.4304,37.4981],[-1.4137,37.5065],[-1.3692,37.5414],[-1.3237,37.562],[-1.2617,37.5577],[-1.2427,37.5792],[-1.1997,37.5666],[-1.1786,37.5639],[-1.1671,37.5438],[-1.1058,37.5321],[-1.12,37.559],[-1.1034,37.5764],[-1.0699,37.5826],[-1.0064,37.5814],[-0.9735,37.5764],[-0.9252,37.5559],[-0.9006,37.569],[-0.8739,37.5764],[-0.8364,37.5764],[-0.808,37.5884],[-0.764,37.5996],[-0.7279,37.6034],[-0.7053,37.6195],[-0.7012,37.6313],[-0.708,37.643],[-0.7265,37.6515],[-0.7349,37.6394],[-0.7548,37.6413],[-0.8099,37.6669],[-0.8198,37.6767],[-0.8526,37.7238],[-0.8561,37.7425],[-0.8478,37.7561],[-0.8256,37.7614],[-0.8124,37.7701],[-0.788,37.8228],[-0.7607,37.7961],[-0.7561,37.8061],[-0.7606,37.8459],[-0.7797,37.8429],[-0.8126,37.8603],[-0.8387,37.868],[-0.9167,37.9336],[-0.9344,37.9605],[-0.955,37.9843],[-0.9822,38.0264],[-1.0031,38.0527],[-1.02,38.0685],[-1.0308,38.0971],[-1.0329,38.1169],[-1.0228,38.1463],[-0.9937,38.181],[-0.9832,38.203],[-0.9694,38.2587],[-0.9692,38.2708],[-0.9836,38.3109],[-0.9947,38.3249],[-1.0119,38.3348],[-1.0767,38.3497],[-1.084,38.3746],[-1.0821,38.4311],[-1.0689,38.4496],[-1.024,38.4834],[-1.0165,38.4984],[-1.0188,38.5216],[-1.0057,38.5646],[-1.0054,38.5903],[-1.0221,38.6545]]],[[[-0.7327,37.7477],[-0.7545,37.7744],[-0.7503,37.746],[-0.7512,37.7133],[-0.7469,37.6838],[-0.7265,37.6652],[-0.7401,37.7025],[-0.7419,37.7255],[-0.7327,37.7477]]]]},"properties":{"region":"Murcia","name":"Murcia"}},
{"type":"Feature","geometry":{"type":"Polygon","coordinates":[[[-6.8283,42.9148],[-6.7953,42.9109],[-6.7772,42.9041],[-6.7709,42.8941],[-6.7524,42.8974],[-6.7194,42.9202],[-6.6825,42.9269],[-6.6357,42.9273],[-6.6085,42.9196],[-6.5621,42.9167],[-6.5158,42.9287],[-6.5016,42.9297],[-6.449,42.9511],[-6.4441,42.964],[-6.4763,42.9769],[-6.4756,42.9918],[-6.4469,42.9928],[-6.4147,43.0049],[-6.4137,43.0165],[-6.3928,43.0422],[-6.3649,43.0514],[-6.3473,43.0481],[-6.3298,43.0379],[-6.2973,43.034],[-6.2536,43.018],[-6.2344,43.0144],[-6.2217,43.0201],[-6.219,43.0336],[-6.1997,43.041],[-6.1755,43.0378],[-6.1355,43.0271],[-6.1024,43.0348],[-6.0883,43.0621],[-6.0791,43.0651],[-6.0168,43.0573],[-5.9878,43.0623],[-5.9713,43.0514],[-5.9547,43.0176],[-5.889,42.9856],[-5.8448,42.9717],[-5.8048,42.9706],[-5.7787,42.9747],[-5.7623,42.9932],[-5.7553,43.0101],[-5.73,43.0406],[-5.7052,43.0488],[-5.6652,43.0483],[-5.6371,43.038],[-5.579,43.0312],[-5.5617,43.023],[-5.541,43.0218],[-5.5173,43.0291],[-5.4908,43.0286],[-5.4734,43.0511],[-5.4188,43.0519],[-5.3899,43.0638],[-5.3828,43.0853],[-5.361,43.0915],[-5.3075,43.0855],[-5.212,43.094],[-5.1595,43.1132],[-5.1181,43.1086],[-5.0955,43.1283],[-5.0862,43.1514],[-5.0721,43.1725],[-5.0459,43.1853],[-5.0083,43.1929],[-4.9772,43.2056],[-4.9615,43.2162],[-4.9085,43.2373],[-4.879,43.2352],[-4.8594,43.2234],[-4.8319,43.1887],[-4.8197,43.1876],[-4.7709,43.1949],[-4.7427,43.1921],[-4.7279,43.2078],[-4.7211,43.2382],[-4.7236,43.252],[-4.7157,43.2647],[-4.6828,43.2725],[-4.6432,43.2722],[-4.6174,43.2899],[-4.5926,43.2982],[-4.5635,43.2942],[-4.5512,43.2792],[-4.5372,43.2772],[-4.5235,43.2879],[-4.5187,43.306],[-4.5219,43.32],[-4.5373,43.3483],[-4.5133,43.3844],[-4.5138,43.4028],[-4.7349,43.4171],[-4.755,43.4217],[-4.8365,43.4498],[-4.9076,43.4606],[-4.9302,43.4695],[-4.9525,43.4701],[-4.9752,43.4588],[-5.045,43.4743],[-5.057,43.4686],[-5.0677,43.4814],[-5.0917,43.4863],[-5.1779,43.4894],[-5.2119,43.4984],[-5.284,43.5335],[-5.2999,43.5377],[-5.3419,43.5406],[-5.3568,43.5386],[-5.3724,43.5202],[-5.4139,43.5065],[-5.4208,43.5134],[-5.4036,43.5254],[-5.3907,43.5413],[-5.3939,43.5552],[-5.4242,43.5611],[-5.6256,43.555],[-5.6775,43.5611],[-5.6968,43.5828],[-5.7089,43.5686],[-5.7274,43.5895],[-5.7823,43.637],[-5.8038,43.6505],[-5.8363,43.6622],[-5.8522,43.663],[-5.8635,43.6414],[-5.8752,43.6368],[-5.9074,43.6368],[-5.9006,43.6232],[-5.9131,43.6129],[-5.9022,43.5975],[-5.9074,43.5884],[-6.0235,43.5884],[-6.0692,43.5697],[-6.0849,43.5754],[-6.1004,43.5692],[-6.178,43.5754],[-6.191,43.5786],[-6.2228,43.5959],[-6.2364,43.5943],[-6.25,43.5841],[-6.3146,43.5686],[-6.3661,43.5686],[-6.4176,43.5611],[-6.4691,43.5754],[-6.463,43.555],[-6.4883,43.5551],[-6.5101,43.5475],[-6.5466,43.5618],[-6.5977,43.5752],[-6.6487,43.579],[-6.7037,43.5576],[-6.7296,43.5598],[-6.7708,43.5686],[-6.8307,43.5651],[-6.8459,43.5686],[-6.944,43.566],[-7.0014,43.5567],[-7.0104,43.5332],[-7.0238,43.5258],[-7.0383,43.4792],[-7.0469,43.4837],[-7.0505,43.4763],[-7.0811,43.4561],[-7.095,43.4401],[-7.1127,43.4293],[-7.1609,43.4291],[-7.1669,43.4234],[-7.1716,43.3961],[-7.1669,43.3862],[-7.1366,43.3821],[-7.126,43.3727],[-7.1216,43.3368],[-7.1084,43.319],[-7.0713,43.2977],[-7.0628,43.2549],[-7.051,43.2373],[-7.0213,43.2188],[-7.007,43.217],[-6.9959,43.206],[-6.9656,43.195],[-6.9727,43.1689],[-6.9709,43.1517],[-6.9593,43.1388],[-6.9434,43.1326],[-6.8985,43.1491],[-6.88,43.1706],[-6.8663,43.1753],[-6.8322,43.1399],[-6.8315,43.1202],[-6.869,43.0953],[-6.9132,43.0806],[-6.9452,43.0767],[-6.9634,43.0426],[-6.9796,43.0366],[-6.9885,43.0193],[-6.9758,42.9983],[-6.9664,42.9943],[-6.9537,43.0049],[-6.9536,43.0238],[-6.9452,43.0246],[-6.9137,42.9947],[-6.8689,42.9887],[-6.8369,42.9627],[-6.8283,42.9148]]]},"properties":{"region":"Asturias","name":"Asturias"}},
{"type":"Feature","geometry":{"type":"MultiPolygon","coordinates":[[[[-4.8319,43.1887],[-4.836,43.1351],[-4.8279,43.1081],[-4.8114,43.0948],[-4.7705,43.0786],[-4.7585,43.0623],[-4.7387,43.0481],[-4.7269,43.0159],[-4.6896,43.0196],[-4.6391,43.0198],[-4.6012,43.0255],[-4.5524,43.0239],[-4.5187,43.0377],[-4.4909,43.0396],[-4.4629,43.0509],[-4.434,43.048],[-4.4008,43.0333],[-4.3704,42.9928],[-4.3566,42.9854],[-4.2541,42.9576],[-4.2399,42.9502],[-4.2389,42.9292],[-4.2214,42.8502],[-4.1966,42.8441],[-4.1745,42.857],[-4.1502,42.8622],[-4.1344,42.8535],[-4.1416,42.8345],[-4.1847,42.8235],[-4.1852,42.812],[-4.1586,42.7935],[-4.1204,42.789],[-4.0961,42.7762],[-4.0858,42.7631],[-4.0472,42.7701],[-4.0189,42.8163],[-4.0028,42.8236],[-3.9974,42.7859],[-4.0002,42.7698],[-3.9652,42.7625],[-3.9174,42.7735],[-3.883,42.7971],[-3.8309,42.7999],[-3.8158,42.81],[-3.8156,42.8237],[-3.8278,42.8472],[-3.8314,42.8723],[-3.8499,42.8766],[-3.8621,42.872],[-3.8772,42.8553],[-3.8939,42.8514],[-3.9046,42.8615],[-3.9092,42.8803],[-3.8982,42.8986],[-3.8697,42.9],[-3.8395,42.9142],[-3.8341,42.9216],[-3.8485,42.941],[-3.8646,42.9479],[-3.8813,42.9439],[-3.8948,42.9256],[-3.9278,42.9088],[-3.9562,42.9046],[-3.9742,42.9122],[-3.9848,42.9258],[-3.9836,42.9403],[-3.9526,42.9992],[-3.9166,43.0165],[-3.8961,43.0332],[-3.8549,43.0477],[-3.8427,43.0573],[-3.8383,43.0847],[-3.8132,43.0909],[-3.7846,43.0891],[-3.7662,43.0934],[-3.7328,43.1109],[-3.7062,43.1297],[-3.6823,43.1534],[-3.6478,43.1762],[-3.6278,43.1743],[-3.6038,43.1618],[-3.5461,43.153],[-3.519,43.1438],[-3.452,43.1389],[-3.4238,43.1406],[-3.4331,43.174],[-3.4409,43.1881],[-3.4416,43.2333],[-3.4309,43.2435],[-3.3229,43.3001],[-3.261,43.2968],[-3.2352,43.2991],[-3.2035,43.2923],[-3.1602,43.3078],[-3.1495,43.3244],[-3.1506,43.3602],[-3.1769,43.3662],[-3.2,43.3855],[-3.269,43.4041],[-3.3303,43.4103],[-3.3925,43.4246],[-3.4222,43.4181],[-3.4362,43.419],[-3.447,43.4308],[-3.4611,43.4125],[-3.4818,43.428],[-3.5017,43.4308],[-3.4778,43.4431],[-3.47,43.4542],[-3.447,43.4451],[-3.4286,43.4468],[-3.4366,43.4705],[-3.5054,43.4792],[-3.5391,43.499],[-3.5563,43.4997],[-3.5544,43.5169],[-3.5794,43.5183],[-3.6561,43.5007],[-3.6884,43.4842],[-3.7289,43.4792],[-3.7289,43.4655],[-3.7555,43.4717],[-3.7407,43.4423],[-3.7541,43.4405],[-3.7723,43.4525],[-3.7965,43.4308],[-3.8313,43.4246],[-3.8238,43.4308],[-3.8443,43.4451],[-3.8127,43.4649],[-3.7692,43.4792],[-3.797,43.4927],[-3.8267,43.497],[-3.8568,43.4924],[-3.8859,43.4792],[-3.9227,43.4826],[-3.9401,43.4771],[-3.9746,43.4588],[-3.961,43.4451],[-3.9814,43.4383],[-4.0057,43.4508],[-4.0209,43.4504],[-4.0292,43.4383],[-4.074,43.4383],[-4.0977,43.4356],[-4.161,43.4212],[-4.1886,43.4054],[-4.3128,43.3958],[-4.3594,43.3997],[-4.3856,43.3836],[-4.4049,43.397],[-4.4325,43.4026],[-4.4608,43.3987],[-4.4817,43.3836],[-4.5138,43.4028],[-4.5133,43.3844],[-4.5373,43.3483],[-4.5219,43.32],[-4.5187,43.306],[-4.5235,43.2879],[-4.5372,43.2772],[-4.5512,43.2792],[-4.5635,43.2942],[-4.5926,43.2982],[-4.6174,43.2899],[-4.6432,43.2722],[-4.6828,43.2725],[-4.7157,43.2647],[-4.7236,43.252],[-4.7211,43.2382],[-4.7279,43.2078],[-4.7427,43.1921],[-4.7709,43.1949],[-4.8197,43.1876],[-4.8319,43.1887]]],[[[-3.3042,43.2607],[-3.3042,43.2222],[-3.2992,43.2169],[-3.2674,43.2274],[-3.2689,43.2376],[-3.2861,43.2564],[-3.3042,43.2607]]]]},"properties":{"region":"Cantabria","name":"Cantabria"}},
{"type":"Feature","geometry":{"type":"MultiPolygon","coordinates":[[[[-17.9339,27.852],[-17.9686,27.8322],[-17.9899,27.8237],[-18.0032,27.7988],[-18.042,27.7652],[-18.0568,27.7565],[-18.0978,27.7654],[-18.1405,27.7688],[-18.1672,27.7576],[-18.1604,27.7224],[-18.1466,27.7086],[-18.1269,27.7003],[-18.0531,27.6912],[-18.0398,27.6813],[-18.0158,27.6535],[-17.9941,27.6422],[-17.9795,27.6425],[-17.9713,27.6544],[-17.9652,27.687],[-17.9503,27.6995],[-17.9451,27.7108],[-17.9302,27.7187],[-17.9264,27.7428],[-17.8851,27.7979],[-17.8793,27.8145],[-17.884,27.8276],[-17.8965,27.8403],[-17.9141,27.8496],[-17.9339,27.852]]],[[[-17.3097,28.2071],[-17.3388,28.171],[-17.3434,28.1334],[-17.3432,28.0977],[-17.3101,28.0535],[-17.2579,28.0246],[-17.2327,28.0191],[-17.185,28.0316],[-17.1632,28.045],[-17.1335,28.0698],[-17.1139,28.081],[-17.0984,28.1008],[-17.1043,28.123],[-17.1161,28.1462],[-17.1704,28.1811],[-17.2127,28.2054],[-17.2592,28.2177],[-17.3097,28.2071]]],[[[-16.4277,28.1497],[-16.428,28.1677],[-16.4192,28.2114],[-16.3868,28.265],[-16.38,28.2883],[-16.3613,28.3044],[-16.3581,28.3146],[-16.3661,28.3414],[-16.3658,28.3625],[-16.3555,28.3812],[-16.3239,28.3975],[-16.2961,28.4178],[-16.248,28.4611],[-16.2314,28.4884],[-16.1574,28.5245],[-16.1271,28.5438],[-16.1177,28.5721],[-16.1413,28.5834],[-16.2027,28.564],[-16.3002,28.5666],[-16.3164,28.5721],[-16.3227,28.5535],[-16.3634,28.543],[-16.4083,28.5198],[-16.4204,28.4906],[-16.4869,28.4383],[-16.5071,28.4241],[-16.5645,28.4153],[-16.5846,28.4011],[-16.6444,28.3964],[-16.6642,28.4007],[-16.7196,28.3833],[-16.7416,28.3735],[-16.7701,28.3663],[-16.7942,28.3691],[-16.8178,28.3836],[-16.8374,28.3911],[-16.8919,28.3687],[-16.9161,28.355],[-16.9066,28.3352],[-16.8734,28.3052],[-16.844,28.2531],[-16.8371,28.209],[-16.8268,28.1957],[-16.7954,28.1653],[-16.7806,28.1279],[-16.7416,28.0938],[-16.7279,28.0786],[-16.7211,28.0445],[-16.7041,28.035],[-16.7036,28.0137],[-16.6927,27.9998],[-16.6763,27.9971],[-16.5797,28.0303],[-16.5458,28.024],[-16.5215,28.0576],[-16.4568,28.1155],[-16.4277,28.1497]]],[[[-17.7558,28.8185],[-17.7815,28.8423],[-17.8014,28.8493],[-17.8417,28.8354],[-17.8905,28.8439],[-17.9111,28.8556],[-17.9363,28.8403],[-17.9707,28.8132],[-17.9968,28.7801],[-18.0022,28.7496],[-17.9761,28.7282],[-17.9671,28.6967],[-17.9631,28.6715],[-17.9248,28.6183],[-17.9193,28.5963],[-17.8986,28.5716],[-17.8797,28.5437],[-17.8722,28.4944],[-17.8651,28.4754],[-17.8309,28.4554],[-17.8217,28.4758],[-17.7833,28.5486],[-17.7599,28.5768],[-17.7456,28.6219],[-17.7653,28.6775],[-17.7511,28.7],[-17.721,28.7306],[-17.7219,28.749],[-17.7414,28.7579],[-17.7506,28.7748],[-17.7578,28.7987],[-17.7558,28.8185]]],[[[-15.3916,28.0302],[-15.3996,28.0427],[-15.4086,28.0749],[-15.4149,28.1145],[-15.4156,28.1415],[-15.3999,28.165],[-15.4093,28.1798],[-15.4387,28.1749],[-15.435,28.1409],[-15.4587,28.1342],[-15.5213,28.1475],[-15.597,28.1475],[-15.6508,28.1639],[-15.6653,28.1605],[-15.6844,28.1676],[-15.7062,28.1674],[-15.6981,28.133],[-15.7021,28.1151],[-15.7137,28.1059],[-15.7084,28.0819],[-15.7252,28.0569],[-15.7677,28.024],[-15.807,28.005],[-15.8161,27.996],[-15.8218,27.9683],[-15.8161,27.9415],[-15.8212,27.9218],[-15.8151,27.9013],[-15.786,27.8442],[-15.7728,27.832],[-15.7519,27.8214],[-15.7397,27.8043],[-15.6857,27.7633],[-15.6505,27.7531],[-15.6072,27.7503],[-15.578,27.7344],[-15.566,27.7394],[-15.5397,27.7656],[-15.5234,27.7717],[-15.453,27.7912],[-15.4392,27.8027],[-15.407,27.8383],[-15.3778,27.8523],[-15.376,27.8676],[-15.3916,27.8998],[-15.3819,27.9212],[-15.3636,27.9346],[-15.3767,27.9575],[-15.3741,27.9755],[-15.3636,28.0097],[-15.3916,28.0302]]],[[[-13.9726,28.7359],[-13.9999,28.7167],[-14.0053,28.7036],[-14.0101,28.6675],[-14.0246,28.6371],[-14.0361,28.5874],[-14.0756,28.5361],[-14.0983,28.4866],[-14.1279,28.4436],[-14.1409,28.4349],[-14.1464,28.4233],[-14.1713,28.3524],[-14.1932,28.3218],[-14.2019,28.3039],[-14.2074,28.2544],[-14.2135,28.2349],[-14.2401,28.2016],[-14.2701,28.176],[-14.3412,28.1345],[-14.3989,28.1112],[-14.436,28.1005],[-14.4556,28.0991],[-14.4897,28.1043],[-14.4964,28.0985],[-14.5034,28.0748],[-14.4949,28.0678],[-14.4286,28.0712],[-14.4083,28.067],[-14.369,28.0508],[-14.3432,28.0507],[-14.3013,28.0679],[-14.2714,28.0961],[-14.2445,28.1292],[-14.2122,28.1605],[-14.1916,28.1708],[-14.152,28.18],[-14.1186,28.2005],[-14.0726,28.2128],[-13.9668,28.228],[-13.9337,28.2442],[-13.9113,28.2772],[-13.8921,28.3282],[-13.8752,28.3491],[-13.8696,28.3769],[-13.8478,28.3974],[-13.8443,28.4143],[-13.8566,28.4349],[-13.8566,28.479],[-13.8529,28.4927],[-13.8352,28.5307],[-13.8287,28.5516],[-13.8212,28.6367],[-13.8244,28.6818],[-13.8355,28.7155],[-13.8646,28.7442],[-13.8987,28.7539],[-13.9354,28.7495],[-13.9726,28.7359]]],[[[-13.483,29.2399],[-13.4955,29.2251],[-13.514,29.1748],[-13.5261,29.1503],[-13.5372,29.1383],[-13.5512,29.1342],[-13.6024,29.1343],[-13.6368,29.1269],[-13.6565,29.116],[-13.6902,29.0909],[-13.7089,29.086],[-13.7506,29.0806],[-13.7809,29.0649],[-13.7985,29.0481],[-13.8321,29.0004],[-13.8391,28.9379],[-13.8429,28.9215],[-13.8534,28.905],[-13.8763,28.8888],[-13.8673,28.8649],[-13.8597,28.8594],[-13.8121,28.8591],[-13.7915,28.8535],[-13.7746,28.8396],[-13.7572,28.8703],[-13.7361,28.8965],[-13.7093,28.9147],[-13.6744,28.9215],[-13.6198,28.9284],[-13.6076,28.9326],[-13.59,28.9514],[-13.543,28.9617],[-13.5105,28.9775],[-13.482,28.9995],[-13.4656,29.0239],[-13.4656,29.0581],[-13.4519,29.086],[-13.4624,29.1321],[-13.4587,29.1474],[-13.4388,29.159],[-13.4178,29.2089],[-13.4466,29.233],[-13.4654,29.2433],[-13.483,29.2399]]],[[[-13.4867,29.2846],[-13.5082,29.2895],[-13.5257,29.2512],[-13.5412,29.2368],[-13.5412,29.2294],[-13.5171,29.2263],[-13.492,29.2427],[-13.4779,29.2663],[-13.4867,29.2846]]]]},"properties":{"region":"Canary Is.","name":"Canary Is."}},
{"type":"Feature","geometry":{"type":"MultiPolygon","coordinates":[[[[1.5264,38.6778],[1.4861,38.6946],[1.4313,38.7549],[1.4279,38.7394],[1.408,38.7245],[1.401,38.7303],[1.3828,38.7116],[1.3937,38.7042],[1.3835,38.6804],[1.3876,38.6624],[1.3829,38.6421],[1.397,38.6386],[1.4128,38.6464],[1.429,38.6649],[1.4581,38.6813],[1.5234,38.6494],[1.5575,38.6488],[1.5814,38.6531],[1.5824,38.6749],[1.5657,38.6915],[1.5264,38.6778]]],[[[1.606,39.0913],[1.5897,39.1028],[1.5536,39.1077],[1.5371,39.118],[1.5086,39.1144],[1.4995,39.1049],[1.4787,39.1077],[1.4507,39.1018],[1.4232,39.0906],[1.4033,39.0776],[1.3919,39.0833],[1.3722,39.0714],[1.3568,39.0776],[1.3325,39.0572],[1.3045,39.0434],[1.2928,39.0333],[1.2922,39.0099],[1.301,38.9678],[1.2769,38.968],[1.2599,38.9609],[1.2368,38.9652],[1.2184,38.9541],[1.2276,38.942],[1.2122,38.9032],[1.2166,38.8851],[1.2282,38.8746],[1.2599,38.8579],[1.2666,38.8703],[1.2835,38.8746],[1.3003,38.8705],[1.3078,38.8579],[1.3435,38.8624],[1.3608,38.8519],[1.3707,38.8318],[1.4031,38.8323],[1.4041,38.8568],[1.4147,38.8906],[1.4286,38.8966],[1.445,38.9132],[1.4587,38.9001],[1.4695,38.9103],[1.5098,38.9302],[1.5412,38.9678],[1.5762,38.9858],[1.5933,39.0203],[1.6065,39.0284],[1.6231,39.0292],[1.6069,39.0624],[1.6008,39.0824],[1.606,39.0913]]],[[[3.3545,39.7844],[3.3403,39.779],[3.3099,39.7551],[3.2925,39.7497],[3.2239,39.7497],[3.1948,39.755],[3.1626,39.7691],[3.1365,39.7888],[3.1248,39.8111],[3.1263,39.8319],[3.1336,39.8395],[3.1652,39.8459],[3.1931,39.8596],[3.1968,39.8812],[3.2068,39.893],[3.1302,39.8764],[3.0947,39.8812],[3.0969,39.9135],[3.1155,39.9088],[3.1409,39.9281],[3.2036,39.9492],[3.2142,39.9551],[3.2013,39.9605],[3.1931,39.9551],[3.1795,39.9688],[3.0757,39.9361],[3.0203,39.9252],[2.9641,39.921],[2.9333,39.9145],[2.8731,39.8835],[2.8436,39.8726],[2.8132,39.8726],[2.7997,39.8596],[2.7848,39.8567],[2.7474,39.8316],[2.7039,39.8142],[2.6519,39.7701],[2.6314,39.7701],[2.6177,39.7497],[2.5697,39.7131],[2.5324,39.7064],[2.5176,39.7001],[2.4683,39.6594],[2.4505,39.6503],[2.4294,39.6467],[2.3577,39.6119],[2.3508,39.5765],[2.3556,39.5587],[2.3737,39.5472],[2.3821,39.5292],[2.3919,39.5237],[2.426,39.5374],[2.4382,39.5252],[2.4539,39.5374],[2.4806,39.5162],[2.469,39.5059],[2.4927,39.4702],[2.5202,39.4728],[2.5449,39.493],[2.5557,39.52],[2.5691,39.5315],[2.6335,39.5593],[2.6553,39.5647],[2.6817,39.5587],[2.7151,39.5435],[2.7435,39.5234],[2.7549,39.5026],[2.7395,39.4783],[2.7366,39.4621],[2.7512,39.4548],[2.7617,39.4002],[2.7866,39.3759],[2.8255,39.3636],[2.9126,39.3587],[2.9382,39.3644],[2.9588,39.3632],[2.9914,39.3473],[3.0013,39.3177],[3.0293,39.3046],[3.0608,39.2691],[3.0833,39.2801],[3.091,39.2901],[3.1294,39.3157],[3.221,39.3599],[3.2526,39.3862],[3.2688,39.4276],[3.2825,39.4201],[3.2918,39.4758],[3.3233,39.5239],[3.3654,39.5631],[3.406,39.592],[3.3987,39.6077],[3.4019,39.6232],[3.4131,39.6351],[3.4432,39.6458],[3.4675,39.6876],[3.4614,39.7001],[3.4744,39.7155],[3.4685,39.7393],[3.4744,39.7497],[3.4398,39.752],[3.3831,39.7779],[3.3545,39.7844]]],[[[4.3029,39.9255],[4.298,39.942],[4.2701,39.9438],[4.2546,39.9497],[4.2724,39.9553],[4.2734,39.97],[4.2546,39.9975],[4.2327,40.0027],[4.2067,40.0248],[4.1786,40.0388],[4.1765,40.0592],[4.1638,40.0606],[4.1658,40.0459],[4.1485,40.0278],[4.1354,40.0282],[4.1391,40.0459],[4.1078,40.0676],[4.1051,40.0794],[4.0776,40.0643],[4.052,40.0582],[4.0119,40.0596],[3.9155,40.052],[3.8915,40.0596],[3.8219,40.0476],[3.8095,40.0354],[3.8034,40.0132],[3.822,39.9951],[3.8505,39.9839],[3.8391,39.9756],[3.8307,39.9361],[3.8693,39.9255],[3.9413,39.9368],[3.9814,39.9361],[4.0151,39.9258],[4.1772,39.8433],[4.2481,39.8165],[4.3001,39.8218],[4.3029,39.8876],[4.3371,39.8672],[4.3288,39.8835],[4.3073,39.9105],[4.3029,39.9255]]],[[[2.9854,39.1662],[2.9806,39.1856],[2.9404,39.1719],[2.9136,39.152],[2.9309,39.1182],[2.9622,39.1161],[2.9823,39.1392],[2.9854,39.1662]]]]},"properties":{"region":"Islas Baleares","name":"Islas Baleares"}},
{"type":"Feature","geometry":{"type":"Polygon","coordinates":[[[-2.4061,42.4971],[-2.462,42.5073],[-2.4917,42.5201],[-2.5015,42.5377],[-2.5181,42.531],[-2.5288,42.5172],[-2.522,42.5104],[-2.5577,42.5108],[-2.5835,42.4967],[-2.5851,42.512],[-2.6062,42.5169],[-2.6179,42.5077],[-2.6321,42.5125],[-2.6675,42.5332],[-2.6847,42.5378],[-2.6877,42.5534],[-2.6856,42.5818],[-2.6994,42.5977],[-2.734,42.6157],[-2.7474,42.6187],[-2.7697,42.6088],[-2.78,42.5856],[-2.813,42.5808],[-2.8268,42.5902],[-2.8148,42.6059],[-2.8162,42.6202],[-2.8299,42.6138],[-2.836,42.6215],[-2.8373,42.6441],[-2.9067,42.6263],[-2.9487,42.6352],[-3.0142,42.6409],[-3.0569,42.6373],[-3.0758,42.6257],[-3.0605,42.5994],[-3.0837,42.5732],[-3.1139,42.5484],[-3.1107,42.5368],[-3.0778,42.5398],[-3.07,42.5291],[-3.0832,42.4915],[-3.0601,42.4715],[-3.0492,42.4523],[-3.0582,42.4259],[-3.056,42.3803],[-3.072,42.3594],[-3.1079,42.349],[-3.0996,42.3325],[-3.0981,42.3078],[-3.0879,42.27],[-3.0908,42.2491],[-3.1022,42.2178],[-3.1204,42.1963],[-3.0871,42.1586],[-3.0778,42.1377],[-3.0552,42.1253],[-3.0263,42.088],[-3.0108,42.0821],[-2.9342,42.0827],[-2.9176,42.0572],[-2.9102,42.0234],[-2.8709,42.0147],[-2.8128,42.0381],[-2.7963,42.056],[-2.7986,42.0708],[-2.7859,42.1011],[-2.7622,42.1181],[-2.7354,42.1201],[-2.7172,42.1142],[-2.7123,42.094],[-2.7157,42.0799],[-2.7342,42.0641],[-2.7474,42.036],[-2.7436,42.0225],[-2.729,42.0169],[-2.6906,42.0116],[-2.6718,42.0005],[-2.6195,42.0023],[-2.5729,42.0002],[-2.5369,42.0526],[-2.5157,42.0688],[-2.5116,42.1051],[-2.5025,42.1111],[-2.4815,42.1082],[-2.4374,42.1319],[-2.4105,42.1386],[-2.3474,42.1422],[-2.2961,42.1378],[-2.2812,42.1299],[-2.2722,42.1019],[-2.2563,42.0894],[-2.2455,42.0895],[-2.1897,42.1041],[-2.1718,42.1055],[-2.1379,42.1016],[-2.1227,42.0907],[-2.1278,42.0779],[-2.149,42.0648],[-2.1462,42.0432],[-2.1166,42.022],[-2.1046,42.0001],[-2.1154,41.9914],[-2.1106,41.9634],[-2.0952,41.9527],[-1.9983,41.9335],[-1.9779,41.9205],[-1.9439,41.9205],[-1.9225,41.9257],[-1.8577,41.9548],[-1.8445,41.982],[-1.8524,42.0012],[-1.8906,42.0253],[-1.9013,42.0456],[-1.8961,42.0761],[-1.8358,42.1279],[-1.8234,42.1456],[-1.8043,42.1459],[-1.7742,42.14],[-1.7541,42.1464],[-1.7131,42.1361],[-1.6941,42.1385],[-1.6858,42.149],[-1.6923,42.1668],[-1.6886,42.1808],[-1.6977,42.1945],[-1.6971,42.2158],[-1.7269,42.2315],[-1.7474,42.236],[-1.7958,42.2565],[-1.8293,42.2776],[-1.8513,42.2762],[-1.8619,42.2842],[-1.8635,42.3049],[-1.9013,42.3254],[-1.9767,42.393],[-2.0324,42.393],[-2.0556,42.3991],[-2.0696,42.4148],[-2.0553,42.4284],[-2.0765,42.4426],[-2.105,42.4452],[-2.172,42.4414],[-2.206,42.4464],[-2.2387,42.472],[-2.2784,42.4899],[-2.3433,42.483],[-2.3845,42.4947],[-2.4061,42.4971]]]},"properties":{"region":"La Rioja","name":"La Rioja"}},
{"type":"Feature","geometry":{"type":"Polygon","coordinates":[[[-1.0221,38.6545],[-1.0065,38.6583],[-0.9772,38.6565],[-0.9396,38.664],[-0.9082,38.6814],[-0.9035,38.6887],[-0.9423,38.7312],[-0.9537,38.7626],[-0.9491,38.7773],[-0.9205,38.7918],[-0.9133,38.8246],[-0.9262,38.8553],[-0.9209,38.8862],[-0.9592,38.94],[-0.9911,38.9512],[-1.0379,38.9373],[-1.0661,38.9381],[-1.0936,38.9332],[-1.121,38.9326],[-1.1515,38.9485],[-1.2484,39.0381],[-1.2558,39.0473],[-1.2621,39.0737],[-1.255,39.0961],[-1.2269,39.1468],[-1.2018,39.1704],[-1.1786,39.2206],[-1.1783,39.2577],[-1.1703,39.2883],[-1.1777,39.3041],[-1.3105,39.3373],[-1.3397,39.3417],[-1.385,39.365],[-1.4062,39.3706],[-1.4457,39.3669],[-1.4524,39.3902],[-1.4817,39.4094],[-1.487,39.4196],[-1.501,39.422],[-1.5174,39.4411],[-1.5182,39.4518],[-1.4984,39.4961],[-1.5032,39.504],[-1.4999,39.5357],[-1.5045,39.5455],[-1.4944,39.5673],[-1.4632,39.5902],[-1.4275,39.6452],[-1.399,39.6689],[-1.372,39.6836],[-1.354,39.6836],[-1.3204,39.6714],[-1.2922,39.6727],[-1.2759,39.6806],[-1.2655,39.6938],[-1.2697,39.7188],[-1.267,39.7435],[-1.2256,39.7963],[-1.2178,39.8119],[-1.2029,39.8633],[-1.1967,39.9106],[-1.2066,39.9386],[-1.1962,39.9506],[-1.1579,39.9639],[-1.1455,39.9723],[-1.1627,40.0115],[-1.1871,40.0062],[-1.2589,39.9981],[-1.2859,40.0062],[-1.3695,40.0163],[-1.3783,40.0221],[-1.4169,40.1095],[-1.4409,40.1204],[-1.4523,40.1307],[-1.4485,40.1498],[-1.4381,40.1716],[-1.4444,40.1967],[-1.4698,40.193],[-1.5094,40.2012],[-1.5335,40.1952],[-1.5551,40.2054],[-1.6601,40.283],[-1.6852,40.2933],[-1.7,40.2948],[-1.7136,40.2877],[-1.7206,40.3023],[-1.7153,40.3214],[-1.7206,40.3354],[-1.7621,40.3783],[-1.7793,40.3922],[-1.8083,40.402],[-1.7825,40.421],[-1.75,40.4592],[-1.7325,40.4729],[-1.7137,40.4802],[-1.6998,40.4933],[-1.6986,40.5424],[-1.6828,40.579],[-1.6711,40.5893],[-1.6369,40.5843],[-1.6043,40.5706],[-1.5867,40.5706],[-1.5617,40.5829],[-1.5512,40.5951],[-1.5552,40.6142],[-1.5486,40.6417],[-1.5374,40.663],[-1.5397,40.6944],[-1.557,40.7252],[-1.5554,40.7439],[-1.5388,40.7768],[-1.5446,40.8174],[-1.5798,40.8385],[-1.601,40.8587],[-1.6141,40.8867],[-1.6102,40.9277],[-1.6219,40.9468],[-1.6564,40.9701],[-1.6793,40.9908],[-1.7328,41.026],[-1.7473,41.0388],[-1.7673,41.065],[-1.8169,41.097],[-1.8504,41.1111],[-1.8912,41.1352],[-1.9162,41.143],[-1.9449,41.1644],[-1.9719,41.1699],[-2.0532,41.1504],[-2.0527,41.1355],[-2.0618,41.11],[-2.0573,41.085],[-2.0729,41.0789],[-2.0912,41.0944],[-2.129,41.1165],[-2.1452,41.1144],[-2.1776,41.0907],[-2.237,41.089],[-2.2606,41.076],[-2.2884,41.0675],[-2.3269,41.0652],[-2.3645,41.0807],[-2.4092,41.065],[-2.4497,41.0746],[-2.4676,41.0861],[-2.4814,41.1138],[-2.5056,41.1247],[-2.5228,41.1526],[-2.5321,41.1572],[-2.5672,41.1456],[-2.5863,41.1496],[-2.5802,41.1658],[-2.5848,41.1794],[-2.61,41.1917],[-2.586,41.2155],[-2.5919,41.222],[-2.6183,41.2201],[-2.6395,41.2349],[-2.7092,41.2525],[-2.7281,41.2728],[-2.7518,41.2739],[-2.7813,41.261],[-2.8059,41.2599],[-2.8441,41.2679],[-2.8639,41.2787],[-2.8796,41.3146],[-2.9097,41.3221],[-2.9298,41.3163],[-2.944,41.2991],[-2.9823,41.2872],[-3.0489,41.2809],[-3.0838,41.2808],[-3.1988,41.3012],[-3.2198,41.293],[-3.2492,41.2666],[-3.2799,41.266],[-3.2911,41.2607],[-3.3398,41.2536],[-3.3897,41.2556],[-3.4169,41.2641],[-3.4065,41.244],[-3.4113,41.2136],[-3.4421,41.2065],[-3.5196,41.1622],[-3.5458,41.1618],[-3.5416,41.1442],[-3.5039,41.1157],[-3.4767,41.0908],[-3.4365,41.0774],[-3.4247,41.0432],[-3.4098,41.0122],[-3.4123,40.9892],[-3.4279,40.9613],[-3.4449,40.9235],[-3.4527,40.8991],[-3.4474,40.8805],[-3.4724,40.8582],[-3.4782,40.8291],[-3.4984,40.7962],[-3.4887,40.7855],[-3.4599,40.7788],[-3.4464,40.7614],[-3.4394,40.7309],[-3.4431,40.7169],[-3.4588,40.695],[-3.4343,40.6755],[-3.4046,40.6773],[-3.3892,40.6864],[-3.3668,40.6589],[-3.337,40.6433],[-3.3182,40.6463],[-3.3241,40.6249],[-3.326,40.5978],[-3.3158,40.5826],[-3.2931,40.5685],[-3.288,40.5537],[-3.295,40.5388],[-3.2895,40.5331],[-3.2575,40.5428],[-3.2402,40.5386],[-3.2045,40.513],[-3.1988,40.4788],[-3.2002,40.4505],[-3.1895,40.4394],[-3.1571,40.4254],[-3.1387,40.3947],[-3.1421,40.365],[-3.1531,40.3362],[-3.178,40.3126],[-3.1879,40.2743],[-3.1859,40.2495],[-3.1711,40.2425],[-3.1507,40.2602],[-3.1248,40.2749],[-3.1038,40.2699],[-3.0865,40.2393],[-3.0827,40.1976],[-3.0728,40.1576],[-3.0841,40.1586],[-3.0857,40.1457],[-3.0622,40.1053],[-3.0687,40.0906],[-3.0938,40.0726],[-3.1134,40.068],[-3.1635,40.0662],[-3.1694,40.0804],[-3.1873,40.0884],[-3.2277,40.0779],[-3.2882,40.0532],[-3.3529,40.0461],[-3.3718,40.0574],[-3.4062,40.0456],[-3.5021,40.0487],[-3.5154,40.0397],[-3.5267,40.0232],[-3.5753,40.0125],[-3.5983,40],[-3.6327,39.9917],[-3.6362,39.9734],[-3.6469,39.9648],[-3.6701,39.9597],[-3.6992,39.9462],[-3.7359,39.939],[-3.7661,39.9154],[-3.7977,39.896],[-3.8257,39.8954],[-3.8573,39.9109],[-3.8739,39.9267],[-3.853,39.9379],[-3.7906,39.9531],[-3.7786,39.9537],[-3.7516,39.9748],[-3.7331,39.979],[-3.7171,39.9894],[-3.6706,40.0275],[-3.6337,40.0434],[-3.6206,40.061],[-3.6116,40.0816],[-3.6104,40.1016],[-3.6245,40.1132],[-3.6733,40.1319],[-3.7214,40.1383],[-3.7466,40.1351],[-3.7715,40.1435],[-3.7869,40.1606],[-3.8017,40.1668],[-3.828,40.1642],[-3.8536,40.1827],[-3.9012,40.192],[-3.9331,40.2039],[-3.9864,40.2171],[-4.0078,40.2275],[-4.0357,40.2514],[-4.0661,40.2592],[-4.098,40.2455],[-4.1326,40.2518],[-4.1747,40.2837],[-4.1839,40.2841],[-4.2087,40.2723],[-4.2341,40.2689],[-4.2505,40.2575],[-4.2661,40.2371],[-4.296,40.2208],[-4.31,40.2328],[-4.341,40.2493],[-4.3512,40.2694],[-4.349,40.2915],[-4.3539,40.3042],[-4.3711,40.308],[-4.3948,40.2795],[-4.4254,40.2552],[-4.4397,40.2392],[-4.4967,40.2158],[-4.5112,40.2028],[-4.533,40.198],[-4.5493,40.2006],[-4.5719,40.212],[-4.6024,40.2022],[-4.6394,40.1971],[-4.672,40.2067],[-4.6841,40.2171],[-4.7,40.2756],[-4.8063,40.261],[-4.815,40.2298],[-4.8432,40.2066],[-4.8655,40.1968],[-4.9035,40.174],[-4.9224,40.1403],[-4.9517,40.1228],[-4.9886,40.114],[-5.0079,40.1225],[-5.0145,40.1509],[-5.0323,40.1548],[-5.0579,40.1486],[-5.0774,40.1386],[-5.0898,40.1263],[-5.1412,40.0948],[-5.1668,40.0888],[-5.1906,40.0894],[-5.2303,40.1065],[-5.328,40.1159],[-5.3576,40.1053],[-5.365,40.0933],[-5.3704,40.0683],[-5.3689,40.0487],[-5.3741,39.9948],[-5.391,39.9204],[-5.3906,39.8936],[-5.3862,39.881],[-5.3578,39.8872],[-5.3302,39.8889],[-5.306,39.8796],[-5.2893,39.8617],[-5.2921,39.8484],[-5.3078,39.8269],[-5.3169,39.7719],[-5.3081,39.7583],[-5.2603,39.7523],[-5.2489,39.7574],[-5.2291,39.7793],[-5.2087,39.7927],[-5.1823,39.7969],[-5.1681,39.7929],[-5.1592,39.7718],[-5.1654,39.7472],[-5.1417,39.7203],[-5.1406,39.7124],[-5.1505,39.6841],[-5.1518,39.663],[-5.161,39.6432],[-5.1976,39.5996],[-5.1964,39.5877],[-5.1594,39.5639],[-5.1226,39.5272],[-5.0792,39.4928],[-5.0392,39.4781],[-5.0246,39.4593],[-4.9714,39.4097],[-4.9444,39.3919],[-4.8801,39.3669],[-4.8554,39.3782],[-4.8137,39.3924],[-4.767,39.4046],[-4.753,39.4182],[-4.7036,39.4384],[-4.6927,39.4498],[-4.6779,39.4176],[-4.6814,39.4001],[-4.6961,39.3784],[-4.7109,39.3441],[-4.7303,39.3295],[-4.7494,39.3246],[-4.7568,39.3165],[-4.7536,39.2974],[-4.7346,39.261],[-4.7106,39.2253],[-4.6704,39.191],[-4.6584,39.1739],[-4.6761,39.1756],[-4.7273,39.1965],[-4.7448,39.1988],[-4.7811,39.1951],[-4.8068,39.1988],[-4.847,39.1655],[-4.8556,39.1478],[-4.8674,39.1061],[-4.864,39.0816],[-4.8402,39.0686],[-4.831,39.0543],[-4.8347,39.0476],[-4.8773,39.0326],[-4.9199,39.0491],[-4.9378,39.0531],[-4.9541,39.0456],[-4.9443,39.0097],[-4.9313,39.0001],[-4.928,38.9775],[-4.9138,38.9597],[-4.8732,38.9489],[-4.8466,38.946],[-4.8363,38.9285],[-4.8457,38.892],[-4.8508,38.8867],[-4.8863,38.8891],[-4.9129,38.8823],[-4.9273,38.8703],[-4.9475,38.8394],[-4.9717,38.7692],[-4.9814,38.7496],[-4.9979,38.7358],[-5.0214,38.7342],[-5.0366,38.7284],[-4.9792,38.6944],[-4.946,38.6837],[-4.883,38.6852],[-4.8697,38.6739],[-4.8659,38.635],[-4.8493,38.6149],[-4.8285,38.6041],[-4.8013,38.5977],[-4.769,38.5944],[-4.728,38.5798],[-4.704,38.5594],[-4.668,38.5451],[-4.6327,38.5235],[-4.6105,38.497],[-4.5704,38.4867],[-4.5431,38.4729],[-4.5171,38.4555],[-4.4889,38.432],[-4.4695,38.4095],[-4.4497,38.396],[-4.4057,38.3796],[-4.3663,38.3712],[-4.3018,38.3501],[-4.2755,38.3509],[-4.2748,38.388],[-4.265,38.4014],[-4.2155,38.4012],[-4.1776,38.3906],[-3.8937,38.3816],[-3.8599,38.386],[-3.8397,38.3926],[-3.8231,38.4152],[-3.7942,38.4261],[-3.7671,38.4265],[-3.741,38.4181],[-3.7175,38.4221],[-3.6922,38.4135],[-3.6199,38.4014],[-3.5887,38.4077],[-3.5768,38.4435],[-3.5664,38.4491],[-3.5438,38.4488],[-3.5304,38.4234],[-3.5191,38.4133],[-3.4696,38.4045],[-3.4452,38.4065],[-3.3959,38.4264],[-3.3767,38.4448],[-3.3736,38.4589],[-3.3619,38.4733],[-3.3458,38.4798],[-3.3074,38.4819],[-3.2779,38.4717],[-3.2403,38.4637],[-3.1708,38.461],[-3.1373,38.4528],[-3.1135,38.4576],[-3.0697,38.4827],[-3.0463,38.4729],[-3.0232,38.4463],[-3.0009,38.4301],[-2.9927,38.452],[-2.9508,38.4745],[-2.9235,38.4763],[-2.9027,38.4719],[-2.879,38.4606],[-2.8449,38.4834],[-2.7909,38.5071],[-2.756,38.5331],[-2.7185,38.5143],[-2.6752,38.5002],[-2.6428,38.5093],[-2.5988,38.5099],[-2.5719,38.5005],[-2.5746,38.4836],[-2.57,38.4627],[-2.574,38.4346],[-2.5572,38.4145],[-2.4887,38.3987],[-2.4882,38.3788],[-2.4792,38.3419],[-2.4776,38.3081],[-2.4711,38.2982],[-2.4401,38.2828],[-2.4303,38.2588],[-2.4373,38.2331],[-2.4489,38.2223],[-2.4448,38.1882],[-2.5065,38.1253],[-2.5219,38.1051],[-2.5474,38.0806],[-2.4658,38.0494],[-2.3612,38.0243],[-2.3385,38.0265],[-2.3242,38.0624],[-2.281,38.1032],[-2.2505,38.1363],[-2.2119,38.1959],[-2.1703,38.2238],[-2.1274,38.2352],[-2.0851,38.2658],[-2.0591,38.2904],[-2.0429,38.2984],[-2.0234,38.299],[-1.9989,38.2822],[-1.9848,38.2793],[-1.9581,38.2867],[-1.9262,38.291],[-1.8858,38.3062],[-1.848,38.3291],[-1.7957,38.3539],[-1.7928,38.3651],[-1.7505,38.3803],[-1.719,38.3714],[-1.7027,38.3736],[-1.6831,38.3624],[-1.6819,38.3316],[-1.6678,38.3197],[-1.6461,38.3122],[-1.6267,38.3114],[-1.5673,38.3262],[-1.4947,38.3731],[-1.481,38.3883],[-1.4779,38.4037],[-1.4833,38.4357],[-1.4857,38.4837],[-1.502,38.5349],[-1.4851,38.5629],[-1.4645,38.5762],[-1.4543,38.5897],[-1.4503,38.6277],[-1.4336,38.6558],[-1.4028,38.685],[-1.3858,38.6969],[-1.3635,38.7013],[-1.3453,38.6866],[-1.3342,38.6867],[-1.2782,38.7116],[-1.2528,38.7319],[-1.2334,38.7421],[-1.1742,38.7541],[-1.1284,38.7434],[-1.1143,38.7347],[-1.1053,38.7075],[-1.0779,38.6876],[-1.0221,38.6545]]]},"properties":{"region":"Castilla-La Mancha","name":"Castilla-La Mancha"}},
{"type":"Feature","geometry":{"type":"MultiPolygon","coordinates":[[[[-4.3219,40.6579],[-4.2584,40.6616],[-4.2763,40.6927],[-4.2993,40.6962],[-4.3185,40.6824],[-4.3219,40.6579]]],[[[-4.5719,40.212],[-4.5493,40.2006],[-4.533,40.198],[-4.5112,40.2028],[-4.4967,40.2158],[-4.4397,40.2392],[-4.4254,40.2552],[-4.3948,40.2795],[-4.3711,40.308],[-4.3539,40.3042],[-4.349,40.2915],[-4.3512,40.2694],[-4.341,40.2493],[-4.31,40.2328],[-4.296,40.2208],[-4.2661,40.2371],[-4.2505,40.2575],[-4.2341,40.2689],[-4.2087,40.2723],[-4.1839,40.2841],[-4.1747,40.2837],[-4.1326,40.2518],[-4.098,40.2455],[-4.0661,40.2592],[-4.0357,40.2514],[-4.0078,40.2275],[-3.9864,40.2171],[-3.9331,40.2039],[-3.9012,40.192],[-3.8536,40.1827],[-3.828,40.1642],[-3.8017,40.1668],[-3.7869,40.1606],[-3.7715,40.1435],[-3.7466,40.1351],[-3.7214,40.1383],[-3.6733,40.1319],[-3.6245,40.1132],[-3.6104,40.1016],[-3.6116,40.0816],[-3.6206,40.061],[-3.6337,40.0434],[-3.6706,40.0275],[-3.7171,39.9894],[-3.7331,39.979],[-3.7516,39.9748],[-3.7786,39.9537],[-3.7906,39.9531],[-3.853,39.9379],[-3.8739,39.9267],[-3.8573,39.9109],[-3.8257,39.8954],[-3.7977,39.896],[-3.7661,39.9154],[-3.7359,39.939],[-3.6992,39.9462],[-3.6701,39.9597],[-3.6469,39.9648],[-3.6362,39.9734],[-3.6327,39.9917],[-3.5983,40],[-3.5753,40.0125],[-3.5267,40.0232],[-3.5154,40.0397],[-3.5021,40.0487],[-3.4062,40.0456],[-3.3718,40.0574],[-3.3529,40.0461],[-3.2882,40.0532],[-3.2277,40.0779],[-3.1873,40.0884],[-3.1694,40.0804],[-3.1635,40.0662],[-3.1134,40.068],[-3.0938,40.0726],[-3.0687,40.0906],[-3.0622,40.1053],[-3.0857,40.1457],[-3.0841,40.1586],[-3.0728,40.1576],[-3.0827,40.1976],[-3.0865,40.2393],[-3.1038,40.2699],[-3.1248,40.2749],[-3.1507,40.2602],[-3.1711,40.2425],[-3.1859,40.2495],[-3.1879,40.2743],[-3.178,40.3126],[-3.1531,40.3362],[-3.1421,40.365],[-3.1387,40.3947],[-3.1571,40.4254],[-3.1895,40.4394],[-3.2002,40.4505],[-3.1988,40.4788],[-3.2045,40.513],[-3.2402,40.5386],[-3.2575,40.5428],[-3.2895,40.5331],[-3.295,40.5388],[-3.288,40.5537],[-3.2931,40.5685],[-3.3158,40.5826],[-3.326,40.5978],[-3.3241,40.6249],[-3.3182,40.6463],[-3.337,40.6433],[-3.3668,40.6589],[-3.3892,40.6864],[-3.4046,40.6773],[-3.4343,40.6755],[-3.4588,40.695],[-3.4431,40.7169],[-3.4394,40.7309],[-3.4464,40.7614],[-3.4599,40.7788],[-3.4887,40.7855],[-3.4984,40.7962],[-3.4782,40.8291],[-3.4724,40.8582],[-3.4474,40.8805],[-3.4527,40.8991],[-3.4449,40.9235],[-3.4279,40.9613],[-3.4123,40.9892],[-3.4098,41.0122],[-3.4247,41.0432],[-3.4365,41.0774],[-3.4767,41.0908],[-3.5039,41.1157],[-3.5416,41.1442],[-3.5458,41.1618],[-3.5922,41.1541],[-3.6239,41.1394],[-3.6654,41.1],[-3.6849,41.0847],[-3.7279,41.062],[-3.7528,41.043],[-3.7871,40.9968],[-3.8057,40.9873],[-3.8919,40.9648],[-3.9115,40.9503],[-3.9348,40.9262],[-3.9531,40.8943],[-3.9529,40.8652],[-3.9637,40.848],[-3.9686,40.8183],[-3.9841,40.7887],[-4.0187,40.7794],[-4.0598,40.7841],[-4.0901,40.7691],[-4.1613,40.6873],[-4.1682,40.6676],[-4.1713,40.6299],[-4.1844,40.6164],[-4.2421,40.6028],[-4.2663,40.6114],[-4.2789,40.6276],[-4.2903,40.6216],[-4.2845,40.5841],[-4.2933,40.5659],[-4.319,40.544],[-4.3187,40.4825],[-4.3152,40.4693],[-4.3287,40.4326],[-4.3248,40.4133],[-4.3749,40.4047],[-4.4073,40.4085],[-4.4315,40.3893],[-4.4403,40.3502],[-4.4576,40.3262],[-4.4793,40.3176],[-4.4964,40.3165],[-4.525,40.339],[-4.5376,40.3341],[-4.5298,40.2967],[-4.5497,40.2631],[-4.5581,40.2292],[-4.5719,40.212]]]]},"properties":{"region":"Madrid","name":"Madrid"}}
]}