{"type":"FeatureCollection", "features": [
{"type":"Feature","geometry":{"type":"Polygon","coordinates":[[[120.9717,24.9518],[120.9838,24.9479],[121.0356,24.9513],[121.0532,24.9405],[121.0684,24.9106],[121.1455,24.8851],[121.1591,24.8708],[121.1548,24.8505],[121.1679,24.8377],[121.1928,24.8305],[121.2206,24.8093],[121.2498,24.8079],[121.2726,24.7801],[121.3022,24.7636],[121.3095,24.7211],[121.3024,24.6944],[121.2848,24.6719],[121.287,24.6569],[121.33,24.6304],[121.3511,24.6272],[121.4123,24.5955],[121.4292,24.6062],[121.4545,24.6084],[121.4631,24.6216],[121.4512,24.6646],[121.4833,24.6811],[121.474,24.6999],[121.44,24.7291],[121.4316,24.7663],[121.4491,24.7973],[121.4171,24.8399],[121.3979,24.8468],[121.3697,24.8454],[121.3501,24.8553],[121.3514,24.8962],[121.3311,24.9138],[121.3269,24.9313],[121.3302,24.9726],[121.3443,24.9865],[121.3939,24.9998],[121.4067,25.0118],[121.4086,25.0402],[121.3891,25.0659],[121.3575,25.0769],[121.3035,25.1078],[121.2874,25.1237],[121.2109,25.1112],[121.1769,25.1],[121.1294,25.0711],[121.0593,25.0502],[121.032,25.0292],[121.0055,25.0007],[120.9717,24.9518]]]},"properties":{"name":"Taoyuan","name_en":"Taoyuan","name_ja":"桃園市","name_zh":"桃园市","name_ko":"타오위안시","adm0_a3":"TWN","postal":"TY","iso_3166_2":"TW-TAO","type_en":"County","region":"Taiwan Province","geonunit":"Taiwan"}},
{"type":"Feature","geometry":{"type":"Polygon","coordinates":[[[120.9146,24.8534],[121.0036,24.8245],[121.0242,24.8146],[121.0459,24.7887],[121.0422,24.776],[120.9914,24.76],[120.9602,24.715],[120.9771,24.6768],[121.0147,24.6459],[121.061,24.626],[121.0755,24.6145],[121.0785,24.5963],[121.0705,24.56],[121.0778,24.5363],[121.0696,24.5027],[121.0852,24.4993],[121.1144,24.5066],[121.1584,24.5064],[121.2062,24.5175],[121.2252,24.5037],[121.2601,24.4502],[121.2626,24.4333],[121.3165,24.436],[121.333,24.4723],[121.3862,24.5213],[121.4005,24.5414],[121.3983,24.5566],[121.4123,24.5955],[121.3511,24.6272],[121.33,24.6304],[121.287,24.6569],[121.2848,24.6719],[121.3024,24.6944],[121.3095,24.7211],[121.3022,24.7636],[121.2726,24.7801],[121.2498,24.8079],[121.2206,24.8093],[121.1928,24.8305],[121.1679,24.8377],[121.1548,24.8505],[121.1591,24.8708],[121.1455,24.8851],[121.0684,24.9106],[121.0532,24.9405],[121.0356,24.9513],[120.9838,24.9479],[120.9717,24.9518],[120.9536,24.905],[120.926,24.8847],[120.9146,24.8534]]]},"properties":{"name":"Hsinchu","name_en":"Hsinchu","name_ja":"新竹県","name_zh":"新竹县","name_ko":"신주현","adm0_a3":"TWN","postal":"HH","iso_3166_2":"TW-HSQ","type_en":"County","region":"Taiwan Province","geonunit":"Taiwan"}},
{"type":"Feature","geometry":{"type":"Polygon","coordinates":[[[120.8727,24.7478],[120.915,24.7295],[120.942,24.7104],[120.9602,24.715],[120.9914,24.76],[121.0422,24.776],[121.0459,24.7887],[121.0242,24.8146],[121.0036,24.8245],[120.9146,24.8534],[120.9024,24.8368],[120.9092,24.8169],[120.877,24.7619],[120.8727,24.7478]]]},"properties":{"name":"Hsinchu City","name_en":"Hsinchu","name_ja":"新竹市","name_zh":"新竹市","name_ko":"신주시","adm0_a3":"TWN","postal":"HH","iso_3166_2":"TW-HSZ","type_en":"Provincial City","region":"Taiwan Province","geonunit":"Taiwan"}},
{"type":"Feature","geometry":{"type":"Polygon","coordinates":[[[120.6213,24.456],[120.6564,24.4067],[120.6983,24.3703],[120.7556,24.3317],[120.8085,24.3152],[120.8526,24.292],[120.8989,24.2942],[120.9187,24.304],[120.9221,24.3295],[120.943,24.3409],[120.9805,24.3383],[121.0035,24.3299],[121.0224,24.3107],[121.0431,24.3033],[121.1029,24.3295],[121.2028,24.3983],[121.2415,24.4049],[121.2484,24.4243],[121.2626,24.4333],[121.2601,24.4502],[121.2252,24.5037],[121.2062,24.5175],[121.1584,24.5064],[121.1144,24.5066],[121.0852,24.4993],[121.0696,24.5027],[121.0778,24.5363],[121.0705,24.56],[121.0785,24.5963],[121.0755,24.6145],[121.061,24.626],[121.0147,24.6459],[120.9771,24.6768],[120.9602,24.715],[120.942,24.7104],[120.915,24.7295],[120.8727,24.7478],[120.8577,24.737],[120.8475,24.7108],[120.823,24.685],[120.8267,24.6661],[120.7993,24.6708],[120.7781,24.6657],[120.7446,24.6388],[120.7279,24.6139],[120.7022,24.607],[120.6902,24.5761],[120.6677,24.54],[120.6489,24.4839],[120.6213,24.456]]]},"properties":{"name":"Miaoli","name_en":"Miaoli","name_ja":"苗栗県","name_zh":"苗栗县","name_ko":"먀오리현","adm0_a3":"TWN","postal":"ML","iso_3166_2":"TW-MIA","type_en":"County","region":"Taiwan Province","geonunit":"Taiwan"}},
{"type":"Feature","geometry":{"type":"Polygon","coordinates":[[[120.4754,24.2071],[120.5128,24.1884],[120.5268,24.14],[120.5439,24.1211],[120.5891,24.109],[120.6055,24.0966],[120.6253,24.0654],[120.6302,24.04],[120.6464,24.0373],[120.6672,24.0201],[120.7517,24.0108],[120.7676,24.0131],[120.7866,24.0296],[120.8294,24.109],[120.8537,24.1196],[120.9151,24.1155],[120.9485,24.1487],[120.9826,24.1255],[120.9959,24.1287],[121.0236,24.1612],[121.0678,24.1674],[121.0979,24.1939],[121.1675,24.2228],[121.2148,24.2271],[121.257,24.2424],[121.3435,24.2355],[121.3834,24.2686],[121.3998,24.3036],[121.4285,24.3201],[121.4391,24.3559],[121.4567,24.3728],[121.4345,24.389],[121.3829,24.3791],[121.352,24.3967],[121.3333,24.4004],[121.3304,24.4326],[121.3165,24.436],[121.2626,24.4333],[121.2484,24.4243],[121.2415,24.4049],[121.2028,24.3983],[121.1029,24.3295],[121.0431,24.3033],[121.0224,24.3107],[121.0035,24.3299],[120.9805,24.3383],[120.943,24.3409],[120.9221,24.3295],[120.9187,24.304],[120.8989,24.2942],[120.8526,24.292],[120.8085,24.3152],[120.7556,24.3317],[120.6983,24.3703],[120.6564,24.4067],[120.6213,24.456],[120.5708,24.4049],[120.5581,24.3859],[120.5474,24.3515],[120.512,24.2956],[120.4932,24.2307],[120.4754,24.2071]]]},"properties":{"name":"Taichung City","name_en":"Taichung City","name_ja":"台中市","name_zh":"台中市","name_ko":"타이중 시티","adm0_a3":"TWN","postal":"TH","iso_3166_2":"TW-TXG","type_en":"Special Municipality","region":"Special Municipalities","geonunit":"Taiwan"}},
{"type":"Feature","geometry":{"type":"Polygon","coordinates":[[[120.2439,23.8385],[120.2728,23.8232],[120.3565,23.8323],[120.3851,23.8309],[120.4546,23.8091],[120.5296,23.8014],[120.5758,23.7805],[120.6474,23.7749],[120.6806,23.7937],[120.6841,23.806],[120.6482,23.8207],[120.6343,23.8323],[120.6266,23.8542],[120.6347,23.9435],[120.6486,23.9781],[120.6511,24.0023],[120.6673,24.0076],[120.6672,24.0201],[120.6464,24.0373],[120.6302,24.04],[120.6253,24.0654],[120.6055,24.0966],[120.5891,24.109],[120.5439,24.1211],[120.5268,24.14],[120.5128,24.1884],[120.4754,24.2071],[120.4186,24.1425],[120.4119,24.0969],[120.3923,24.0829],[120.3855,24.0631],[120.3618,24.0485],[120.3401,24.0218],[120.3181,23.9658],[120.2922,23.9119],[120.2575,23.8784],[120.2439,23.8385]]]},"properties":{"name":"Changhua","name_en":"Changhua","name_ja":"彰化県","name_zh":"彰化县","name_ko":"장화현","adm0_a3":"TWN","postal":"CG","iso_3166_2":"TW-CHA","type_en":"County","region":"Taiwan Province","geonunit":"Taiwan"}},
{"type":"Feature","geometry":{"type":"Polygon","coordinates":[[[120.1243,23.52],[120.1685,23.5247],[120.2001,23.5084],[120.2231,23.5082],[120.2382,23.5191],[120.2524,23.5466],[120.2727,23.5495],[120.3306,23.5909],[120.3926,23.6237],[120.4678,23.6388],[120.4941,23.6401],[120.5331,23.6035],[120.5811,23.5873],[120.6268,23.5975],[120.6539,23.5721],[120.7374,23.5871],[120.7407,23.6163],[120.7308,23.6287],[120.6735,23.6184],[120.6514,23.6272],[120.6363,23.6436],[120.647,23.6816],[120.6431,23.7083],[120.6547,23.7496],[120.6474,23.7749],[120.5758,23.7805],[120.5296,23.8014],[120.4546,23.8091],[120.3851,23.8309],[120.3565,23.8323],[120.2728,23.8232],[120.2439,23.8385],[120.2195,23.8179],[120.1892,23.7748],[120.1755,23.7338],[120.1708,23.6989],[120.1542,23.6722],[120.1436,23.638],[120.1417,23.5379],[120.1243,23.52]]]},"properties":{"name":"Yunlin","name_en":"Yunlin","name_ja":"雲林県","name_zh":"云林县","name_ko":"윈린현","adm0_a3":"TWN","postal":"YL","iso_3166_2":"TW-YUN","type_en":"County","region":"Taiwan Province","geonunit":"Taiwan"}},
{"type":"Feature","geometry":{"type":"MultiPolygon","coordinates":[[[[120.1165,23.3179],[120.1365,23.311],[120.1977,23.3],[120.2214,23.3097],[120.2309,23.3271],[120.2781,23.3575],[120.3192,23.3901],[120.3488,23.4023],[120.4066,23.4123],[120.4389,23.4139],[120.4815,23.3972],[120.4959,23.3647],[120.5336,23.3294],[120.5373,23.3031],[120.5307,23.2535],[120.5538,23.2254],[120.6076,23.2359],[120.6534,23.2287],[120.6448,23.2849],[120.6584,23.2973],[120.7068,23.2969],[120.7535,23.3226],[120.7704,23.3412],[120.83,23.3775],[120.8597,23.4189],[120.8918,23.4424],[120.9622,23.4754],[120.8614,23.4768],[120.8324,23.4815],[120.8269,23.5152],[120.812,23.5547],[120.8248,23.5911],[120.7638,23.614],[120.7407,23.6163],[120.7374,23.5871],[120.6539,23.5721],[120.6268,23.5975],[120.5811,23.5873],[120.5331,23.6035],[120.4941,23.6401],[120.4678,23.6388],[120.3926,23.6237],[120.3306,23.5909],[120.2727,23.5495],[120.2524,23.5466],[120.2382,23.5191],[120.2231,23.5082],[120.2001,23.5084],[120.1685,23.5247],[120.1243,23.52],[120.125,23.4896],[120.1575,23.4915],[120.1305,23.451],[120.1421,23.4458],[120.1348,23.4263],[120.1646,23.3617],[120.1301,23.361],[120.1209,23.3297],[120.1458,23.3333],[120.1489,23.3223],[120.1165,23.3179]],[[120.4546,23.4453],[120.4267,23.4511],[120.3769,23.4753],[120.3736,23.4949],[120.3878,23.5092],[120.4531,23.5173],[120.4899,23.5022],[120.509,23.4646],[120.4546,23.4453]]],[[[120.0219,23.4516],[120.0077,23.4326],[120.0479,23.4581],[120.0903,23.4994],[120.1248,23.5505],[120.1153,23.5479],[120.0749,23.5008],[120.0219,23.4516]]]]},"properties":{"name":"Chiayi","name_en":"Chiayi","name_ja":"嘉義県","name_zh":"嘉义县","name_ko":"자이현","adm0_a3":"TWN","postal":"CH","iso_3166_2":"TW-CYQ","type_en":"County","region":"Taiwan Province","geonunit":"Taiwan"}},
{"type":"Feature","geometry":{"type":"Polygon","coordinates":[[[120.1675,22.9319],[120.1909,22.9448],[120.2065,22.9129],[120.2247,22.9044],[120.2843,22.8965],[120.3157,22.8996],[120.3477,22.8961],[120.4017,22.9195],[120.4257,22.935],[120.4461,22.9726],[120.4895,23.0197],[120.5424,23.064],[120.567,23.0931],[120.6051,23.1526],[120.6448,23.2056],[120.6534,23.2287],[120.6076,23.2359],[120.5538,23.2254],[120.5307,23.2535],[120.5373,23.3031],[120.5336,23.3294],[120.4959,23.3647],[120.4815,23.3972],[120.4389,23.4139],[120.4066,23.4123],[120.3488,23.4023],[120.3192,23.3901],[120.2781,23.3575],[120.2309,23.3271],[120.2214,23.3097],[120.1977,23.3],[120.1365,23.311],[120.1165,23.3179],[120.1105,23.3037],[120.1247,23.295],[120.1089,23.2867],[120.096,23.2554],[120.0961,23.2395],[120.0786,23.207],[120.0869,23.182],[120.062,23.165],[120.0594,23.151],[120.0892,23.1177],[120.0594,23.1175],[120.0594,23.1107],[120.095,23.1025],[120.0964,23.0864],[120.0594,23.0759],[120.0524,23.0558],[120.0663,23.0349],[120.0925,23.0548],[120.1079,23.0486],[120.1091,23.0154],[120.1267,23.0071],[120.1421,23.0349],[120.1662,23.0317],[120.1703,23.0134],[120.1602,22.9921],[120.1421,22.9803],[120.1638,22.9538],[120.1675,22.9319]]]},"properties":{"name":"Tainan City","name_en":"Tainan","name_ja":"台南市","name_zh":"台南市","name_ko":"타이난시","adm0_a3":"TWN","postal":"TN","iso_3166_2":"TW-TNN","type_en":"Special Municipality","region":"Special Municipalities","geonunit":"Taiwan"}},
{"type":"Feature","geometry":{"type":"Polygon","coordinates":[[[120.4119,22.4829],[120.4428,22.5549],[120.4414,22.5838],[120.4308,22.61],[120.4314,22.6351],[120.4529,22.7095],[120.4513,22.7673],[120.4728,22.8372],[120.5406,22.8335],[120.571,22.8434],[120.5952,22.8682],[120.6309,22.8839],[120.6807,22.8608],[120.7059,22.8814],[120.7334,22.8876],[120.7845,22.8372],[120.8169,22.8608],[120.8533,22.8583],[120.868,22.8599],[120.8632,22.8773],[120.8285,22.9158],[120.8234,22.9443],[120.8322,22.9784],[120.8647,23.0038],[120.881,23.0243],[120.8812,23.0636],[120.8928,23.1096],[120.8845,23.1444],[120.8878,23.1684],[120.916,23.1824],[120.9261,23.1996],[120.9176,23.2204],[120.9209,23.2405],[120.9902,23.286],[121.0496,23.2994],[121.0377,23.3348],[120.9924,23.3653],[120.9939,23.3904],[121.0152,23.399],[121.0265,23.4164],[121.0193,23.4367],[121.0009,23.4639],[120.9622,23.4754],[120.8918,23.4424],[120.8597,23.4189],[120.83,23.3775],[120.7704,23.3412],[120.7535,23.3226],[120.7068,23.2969],[120.6584,23.2973],[120.6448,23.2849],[120.6534,23.2287],[120.6448,23.2056],[120.6051,23.1526],[120.567,23.0931],[120.5424,23.064],[120.4895,23.0197],[120.4461,22.9726],[120.4257,22.935],[120.4017,22.9195],[120.3477,22.8961],[120.3157,22.8996],[120.2843,22.8965],[120.2247,22.9044],[120.2065,22.9129],[120.1909,22.9448],[120.1675,22.9319],[120.1755,22.8841],[120.2013,22.8441],[120.1965,22.8186],[120.2,22.7925],[120.2362,22.7299],[120.2521,22.6896],[120.2396,22.6591],[120.259,22.6276],[120.3135,22.5771],[120.328,22.5517],[120.3337,22.5259],[120.2852,22.5801],[120.3312,22.5197],[120.3809,22.4839],[120.4119,22.4829]]]},"properties":{"name":"Kaohsiung City","name_en":"Kaohsiung","name_ja":"高雄市","name_zh":"高雄市","name_ko":"가오슝시","adm0_a3":"TWN","postal":"KH","iso_3166_2":"TW-KHH","type_en":"Special Municipality","region":"Special Municipalities","geonunit":"Taiwan"}},
{"type":"Feature","geometry":{"type":"Polygon","coordinates":[[[120.876,22.2377],[120.8589,22.2365],[120.82,22.2531],[120.7903,22.2911],[120.7886,22.3324],[120.7535,22.3676],[120.7634,22.3973],[120.7932,22.4219],[120.7655,22.4591],[120.7615,22.503],[120.7491,22.5472],[120.7522,22.5989],[120.787,22.6714],[120.8074,22.6871],[120.8366,22.6929],[120.8918,22.7169],[120.9106,22.8008],[120.8692,22.8182],[120.8533,22.8583],[120.8169,22.8608],[120.7845,22.8372],[120.7334,22.8876],[120.7059,22.8814],[120.6807,22.8608],[120.6309,22.8839],[120.5952,22.8682],[120.571,22.8434],[120.5406,22.8335],[120.4728,22.8372],[120.4513,22.7673],[120.4529,22.7095],[120.4314,22.6351],[120.4308,22.61],[120.4414,22.5838],[120.4428,22.5549],[120.4119,22.4829],[120.4572,22.4516],[120.512,22.4248],[120.5181,22.407],[120.5697,22.3738],[120.5939,22.3292],[120.6213,22.2951],[120.697,22.1132],[120.6834,22.079],[120.6834,22.0139],[120.7044,21.9814],[120.7004,21.9484],[120.7273,21.9345],[120.7373,21.9661],[120.7974,21.9468],[120.8231,21.9286],[120.8403,21.9046],[120.8357,21.9873],[120.8636,22.0089],[120.8792,22.0558],[120.876,22.2377]]]},"properties":{"name":"Pingtung","name_en":"Pingtung","name_ja":"屏東県","name_zh":"屏东县","name_ko":"핑둥현","adm0_a3":"TWN","postal":"PT","iso_3166_2":"TW-PIF","type_en":"County","region":"Taiwan Province","geonunit":"Taiwan"}},
{"type":"Feature","geometry":{"type":"MultiPolygon","coordinates":[[[[121.4795,23.4352],[121.4662,23.4387],[121.4253,23.4205],[121.4106,23.4015],[121.4193,23.3536],[121.3926,23.3114],[121.3732,23.2589],[121.329,23.1646],[121.3259,23.1194],[121.3013,23.1063],[121.27,23.1105],[121.2254,23.1442],[121.1905,23.2002],[121.145,23.2087],[121.126,23.2254],[121.0731,23.2452],[121.0538,23.2736],[121.0496,23.2994],[120.9902,23.286],[120.9209,23.2405],[120.9176,23.2204],[120.9261,23.1996],[120.916,23.1824],[120.8878,23.1684],[120.8845,23.1444],[120.8928,23.1096],[120.8812,23.0636],[120.881,23.0243],[120.8647,23.0038],[120.8322,22.9784],[120.8234,22.9443],[120.8285,22.9158],[120.8632,22.8773],[120.868,22.8599],[120.8533,22.8583],[120.8692,22.8182],[120.9106,22.8008],[120.8918,22.7169],[120.8366,22.6929],[120.8074,22.6871],[120.787,22.6714],[120.7522,22.5989],[120.7491,22.5472],[120.7615,22.503],[120.7655,22.4591],[120.7932,22.4219],[120.7634,22.3973],[120.7535,22.3676],[120.7886,22.3324],[120.7903,22.2911],[120.82,22.2531],[120.8589,22.2365],[120.876,22.2377],[120.875,22.2893],[120.8866,22.366],[120.9229,22.4248],[120.9411,22.4836],[120.9483,22.5268],[120.9606,22.5478],[120.9912,22.5831],[121.021,22.6479],[121.0803,22.7041],[121.1414,22.7418],[121.1774,22.7786],[121.1903,22.8022],[121.1903,22.8432],[121.2556,22.8978],[121.2996,22.9592],[121.3189,23.0255],[121.3371,23.0551],[121.3474,23.0833],[121.3816,23.1107],[121.4001,23.1455],[121.4033,23.2147],[121.4089,23.2546],[121.4268,23.2931],[121.4622,23.343],[121.4795,23.4352]]],[[[121.5635,22.0446],[121.5666,22.0822],[121.492,22.0822],[121.5026,22.0666],[121.4983,22.048],[121.5389,22.0182],[121.5669,22.0078],[121.5889,22.0235],[121.5635,22.0446]]],[[[121.4607,22.659],[121.4714,22.6418],[121.4961,22.6347],[121.5028,22.6695],[121.4958,22.6785],[121.4575,22.6759],[121.4607,22.659]]]]},"properties":{"name":"Taitung","name_en":"Taitung","name_ja":"台東県","name_zh":"台东县","name_ko":"타이둥현","adm0_a3":"TWN","postal":"TT","iso_3166_2":"TW-TTT","type_en":"County","region":"Taiwan Province","geonunit":"Taiwan"}},
{"type":"Feature","geometry":{"type":"Polygon","coordinates":[[[121.7633,24.3258],[121.7169,24.3317],[121.6465,24.37],[121.632,24.367],[121.6232,24.3463],[121.6044,24.3306],[121.5796,24.3307],[121.5482,24.3416],[121.4909,24.3548],[121.4567,24.3728],[121.4391,24.3559],[121.4285,24.3201],[121.3998,24.3036],[121.3834,24.2686],[121.3435,24.2355],[121.3496,24.2012],[121.3046,24.1851],[121.2906,24.1751],[121.2915,24.1405],[121.3221,24.1182],[121.3268,24.0892],[121.2963,24.0529],[121.268,23.9894],[121.2827,23.9622],[121.2744,23.9013],[121.2385,23.8169],[121.2376,23.8039],[121.216,23.7713],[121.2361,23.7433],[121.2443,23.6993],[121.2396,23.6702],[121.2213,23.6085],[121.1752,23.5878],[121.1602,23.5699],[121.155,23.5401],[121.1349,23.5236],[121.0786,23.517],[121.0589,23.5036],[121.0475,23.4802],[121.0539,23.4586],[121.0193,23.4367],[121.0265,23.4164],[121.0152,23.399],[120.9939,23.3904],[120.9924,23.3653],[121.0377,23.3348],[121.0496,23.2994],[121.0538,23.2736],[121.0731,23.2452],[121.126,23.2254],[121.145,23.2087],[121.1905,23.2002],[121.2254,23.1442],[121.27,23.1105],[121.3013,23.1063],[121.3259,23.1194],[121.329,23.1646],[121.3732,23.2589],[121.3926,23.3114],[121.4193,23.3536],[121.4106,23.4015],[121.4253,23.4205],[121.4662,23.4387],[121.4795,23.4352],[121.5215,23.6587],[121.5398,23.6928],[121.5703,23.8321],[121.5945,23.8915],[121.6111,23.9825],[121.625,24.0024],[121.6289,24.0262],[121.615,24.0423],[121.6074,24.0769],[121.613,24.0921],[121.6413,24.1299],[121.6522,24.1722],[121.6629,24.1931],[121.6978,24.219],[121.6983,24.2315],[121.7214,24.2512],[121.7727,24.3092],[121.7633,24.3258]]]},"properties":{"name":"Hualien","name_en":"Hualien","name_ja":"花蓮県","name_zh":"花莲县","name_ko":"화롄현","adm0_a3":"TWN","postal":"HL","iso_3166_2":"TW-HUA","type_en":"County","region":"Taiwan Province","geonunit":"Taiwan"}},
{"type":"Feature","geometry":{"type":"Polygon","coordinates":[[[121.9723,24.9871],[121.9567,24.9974],[121.9341,24.9932],[121.8882,24.9693],[121.8458,24.9614],[121.8437,24.9259],[121.7988,24.9048],[121.7747,24.8733],[121.7319,24.8542],[121.6807,24.8264],[121.6311,24.8081],[121.5986,24.7864],[121.5913,24.7693],[121.5973,24.737],[121.5571,24.7163],[121.5239,24.693],[121.4833,24.6811],[121.4512,24.6646],[121.4631,24.6216],[121.4545,24.6084],[121.4292,24.6062],[121.4123,24.5955],[121.3983,24.5566],[121.4005,24.5414],[121.3862,24.5213],[121.333,24.4723],[121.3165,24.436],[121.3304,24.4326],[121.3333,24.4004],[121.352,24.3967],[121.3829,24.3791],[121.4345,24.389],[121.4567,24.3728],[121.4909,24.3548],[121.5482,24.3416],[121.5796,24.3307],[121.6044,24.3306],[121.6232,24.3463],[121.632,24.367],[121.6465,24.37],[121.7169,24.3317],[121.7633,24.3258],[121.7715,24.3806],[121.7808,24.3976],[121.78,24.4327],[121.8068,24.4606],[121.84,24.4814],[121.8301,24.5192],[121.8528,24.531],[121.856,24.5505],[121.8408,24.5903],[121.8818,24.604],[121.8527,24.6089],[121.828,24.6228],[121.815,24.6444],[121.8203,24.6997],[121.8078,24.7531],[121.8088,24.8052],[121.8235,24.8549],[121.8347,24.8715],[121.9058,24.9501],[121.9268,24.9666],[121.9723,24.9871]]]},"properties":{"name":"Yilan","name_en":"Yilan","name_ja":"宜蘭県","name_zh":"宜兰县","name_ko":"이란현","adm0_a3":"TWN","postal":"IL","iso_3166_2":"TW-ILA","type_en":"County","region":"Taiwan Province","geonunit":"Taiwan"}},
{"type":"Feature","geometry":{"type":"Polygon","coordinates":[[[121.7613,25.1426],[121.7608,25.091],[121.7734,25.0692],[121.7486,25.0576],[121.729,25.0599],[121.6888,25.0751],[121.6635,25.0944],[121.6331,25.1412],[121.6893,25.1695],[121.6764,25.1794],[121.6844,25.2005],[121.6497,25.1971],[121.636,25.2228],[121.5979,25.2714],[121.5808,25.283],[121.5397,25.2874],[121.4978,25.2788],[121.4613,25.2619],[121.4363,25.2414],[121.4163,25.2036],[121.3958,25.1828],[121.4295,25.156],[121.4432,25.1364],[121.43,25.1316],[121.4123,25.1555],[121.3788,25.1579],[121.3483,25.1371],[121.2874,25.1237],[121.3035,25.1078],[121.3575,25.0769],[121.3891,25.0659],[121.4086,25.0402],[121.4067,25.0118],[121.3939,24.9998],[121.3443,24.9865],[121.3302,24.9726],[121.3269,24.9313],[121.3311,24.9138],[121.3514,24.8962],[121.3501,24.8553],[121.3697,24.8454],[121.3979,24.8468],[121.4171,24.8399],[121.4491,24.7973],[121.4316,24.7663],[121.44,24.7291],[121.474,24.6999],[121.4833,24.6811],[121.5239,24.693],[121.5571,24.7163],[121.5973,24.737],[121.5913,24.7693],[121.5986,24.7864],[121.6311,24.8081],[121.6807,24.8264],[121.7319,24.8542],[121.7747,24.8733],[121.7988,24.9048],[121.8437,24.9259],[121.8458,24.9614],[121.8882,24.9693],[121.9341,24.9932],[121.9567,24.9974],[121.9723,24.9871],[122.0054,25.0019],[121.9836,25.0172],[121.9539,25.0224],[121.9273,25.0187],[121.9092,25.036],[121.8972,25.0839],[121.9051,25.1066],[121.8928,25.1137],[121.7613,25.1426]],[[121.6028,24.9706],[121.5624,24.9745],[121.5121,25.0163],[121.497,25.0395],[121.503,25.0651],[121.4985,25.0866],[121.4622,25.1202],[121.4967,25.1681],[121.5645,25.2059],[121.5869,25.1941],[121.5864,25.1698],[121.6081,25.1117],[121.6291,25.0845],[121.6236,25.0442],[121.6552,25.0244],[121.6188,24.9766],[121.6028,24.9706]]]},"properties":{"name":"New Taipei City","name_en":"New Taipei","name_ja":"新北市","name_zh":"新北市","name_ko":"신베이시","adm0_a3":"TWN","postal":"TP","iso_3166_2":"TW-TPQ","type_en":"Special Municipality","region":"Special Municipalities","geonunit":"Taiwan"}},
{"type":"Feature","geometry":{"type":"Polygon","coordinates":[[[121.6893,25.1695],[121.6331,25.1412],[121.6635,25.0944],[121.6888,25.0751],[121.729,25.0599],[121.7486,25.0576],[121.7734,25.0692],[121.7608,25.091],[121.7613,25.1426],[121.7039,25.1569],[121.6893,25.1695]]]},"properties":{"name":"Keelung City","name_en":"Keelung","name_ja":"基隆市","name_zh":"基隆市","name_ko":"지룽시","adm0_a3":"TWN","postal":"CL","iso_3166_2":"TW-KEE","type_en":"Provincial City","region":"Taiwan Province","geonunit":"Taiwan"}},
{"type":"Feature","geometry":{"type":"Polygon","coordinates":[[[118.3942,24.5227],[118.3814,24.4735],[118.3548,24.4706],[118.3167,24.4933],[118.2821,24.4774],[118.292,24.425],[118.2839,24.4013],[118.3182,24.3905],[118.3458,24.4176],[118.3729,24.4332],[118.4036,24.436],[118.4488,24.4155],[118.4634,24.4315],[118.4674,24.4618],[118.4496,24.5055],[118.4226,24.528],[118.3942,24.5227]]]},"properties":{"name":"Kinmen","name_en":"Kinmen","name_ja":"金門県","name_zh":"金门县","name_ko":"진먼현","adm0_a3":"TWN","postal":"CM","iso_3166_2":"TW-KIN","type_en":"County","region":"Fujian Province","geonunit":"Taiwan"}},
{"type":"Feature","geometry":{"type":"MultiPolygon","coordinates":[[[[119.648,23.6035],[119.6419,23.5941],[119.6063,23.5904],[119.6131,23.6103],[119.5672,23.5885],[119.5524,23.5904],[119.5593,23.5693],[119.5872,23.5488],[119.5574,23.5346],[119.532,23.5488],[119.5271,23.54],[119.564,23.5166],[119.6001,23.5284],[119.615,23.5546],[119.6406,23.5635],[119.6685,23.5488],[119.6658,23.5733],[119.648,23.6035]]],[[[119.4771,23.6035],[119.4745,23.5797],[119.4495,23.5741],[119.4424,23.5625],[119.4917,23.571],[119.4907,23.5904],[119.5078,23.6324],[119.5173,23.6376],[119.5013,23.6504],[119.4894,23.6396],[119.4771,23.6035]]],[[[119.5726,23.6277],[119.5851,23.6247],[119.5911,23.6635],[119.5664,23.6792],[119.5453,23.6649],[119.5693,23.6397],[119.5726,23.6277]]]]},"properties":{"name":"Penghu","name_en":"Penghu","name_ja":"澎湖県","name_zh":"澎湖县","name_ko":"펑후현","adm0_a3":"TWN","postal":"PH","iso_3166_2":"TW-PEN","type_en":"County","region":"Taiwan Province","geonunit":"Taiwan"}},
{"type":"Feature","geometry":{"type":"Polygon","coordinates":[[[121.3435,24.2355],[121.257,24.2424],[121.2148,24.2271],[121.1675,24.2228],[121.0979,24.1939],[121.0678,24.1674],[121.0236,24.1612],[120.9959,24.1287],[120.9826,24.1255],[120.9485,24.1487],[120.9151,24.1155],[120.8537,24.1196],[120.8294,24.109],[120.7866,24.0296],[120.7676,24.0131],[120.7517,24.0108],[120.6672,24.0201],[120.6673,24.0076],[120.6511,24.0023],[120.6486,23.9781],[120.6347,23.9435],[120.6266,23.8542],[120.6343,23.8323],[120.6482,23.8207],[120.6841,23.806],[120.6806,23.7937],[120.6474,23.7749],[120.6547,23.7496],[120.6431,23.7083],[120.647,23.6816],[120.6363,23.6436],[120.6514,23.6272],[120.6735,23.6184],[120.7308,23.6287],[120.7407,23.6163],[120.7638,23.614],[120.8248,23.5911],[120.812,23.5547],[120.8269,23.5152],[120.8324,23.4815],[120.8614,23.4768],[120.9622,23.4754],[121.0009,23.4639],[121.0193,23.4367],[121.0539,23.4586],[121.0475,23.4802],[121.0589,23.5036],[121.0786,23.517],[121.1349,23.5236],[121.155,23.5401],[121.1602,23.5699],[121.1752,23.5878],[121.2213,23.6085],[121.2396,23.6702],[121.2443,23.6993],[121.2361,23.7433],[121.216,23.7713],[121.2376,23.8039],[121.2385,23.8169],[121.2744,23.9013],[121.2827,23.9622],[121.268,23.9894],[121.2963,24.0529],[121.3268,24.0892],[121.3221,24.1182],[121.2915,24.1405],[121.2906,24.1751],[121.3046,24.1851],[121.3496,24.2012],[121.3435,24.2355]]]},"properties":{"name":"Nantou","name_en":"Nantou","name_ja":"南投県","name_zh":"南投县","name_ko":"난터우현","adm0_a3":"TWN","postal":"NT","iso_3166_2":"TW-NAN","type_en":"County","region":"Taiwan Province","geonunit":"Taiwan"}},
{"type":"Feature","geometry":{"type":"Polygon","coordinates":[[[121.6028,24.9706],[121.6188,24.9766],[121.6552,25.0244],[121.6236,25.0442],[121.6291,25.0845],[121.6081,25.1117],[121.5864,25.1698],[121.5869,25.1941],[121.5645,25.2059],[121.4967,25.1681],[121.4622,25.1202],[121.4985,25.0866],[121.503,25.0651],[121.497,25.0395],[121.5121,25.0163],[121.5624,24.9745],[121.6028,24.9706]]]},"properties":{"name":"Taipei City","name_en":"Taipei","name_ja":"台北市","name_zh":"台北市","name_ko":"타이베이시","adm0_a3":"TWN","postal":"TW","iso_3166_2":"TW-TPE","type_en":"Special Municipality","region":"Special Municipalities","geonunit":"Taiwan"}},
{"type":"Feature","geometry":{"type":"Polygon","coordinates":[[[120.4546,23.4453],[120.509,23.4646],[120.4899,23.5022],[120.4531,23.5173],[120.3878,23.5092],[120.3736,23.4949],[120.3769,23.4753],[120.4267,23.4511],[120.4546,23.4453]]]},"properties":{"name":"Chiayi City","name_en":"Chiayi","name_ja":"嘉義市","name_zh":"嘉义市","name_ko":"자이시","adm0_a3":"TWN","postal":"CH","iso_3166_2":"TW-CYI","type_en":"Provincial City","region":"Taiwan Province","geonunit":"Taiwan"}}
]}