{"type":"FeatureCollection", "features": [
{"type":"Feature","geometry":{"type":"MultiPolygon","coordinates":[[[[-7.4158,54.9444],[-7.437,54.9383],[-7.449,54.9203],[-7.4447,54.8845],[-7.4708,54.8453],[-7.5434,54.7931],[-7.5517,54.7547],[-7.5431,54.7417],[-7.5666,54.7387],[-7.5854,54.7447],[-7.6154,54.7393],[-7.6497,54.7449],[-7.7023,54.7189],[-7.7366,54.7075],[-7.7705,54.706],[-7.8036,54.7161],[-7.8322,54.7306],[-7.8459,54.731],[-7.8801,54.711],[-7.9297,54.6967],[-7.9071,54.6867],[-7.9148,54.6717],[-7.9066,54.6613],[-7.8643,54.6491],[-7.838,54.6312],[-7.815,54.6395],[-7.7692,54.618],[-7.7536,54.6145],[-7.7212,54.6259],[-7.7106,54.6243],[-7.7079,54.6042],[-7.7493,54.5962],[-7.8488,54.5409],[-7.8871,54.5321],[-7.9264,54.5331],[-8.0022,54.5434],[-8.0233,54.5297],[-8.0559,54.4976],[-8.097,54.4786],[-8.1502,54.4694],[-8.1738,54.4617],[-8.1612,54.4548],[-8.156,54.4391],[-8.1224,54.4152],[-8.0799,54.3802],[-8.0565,54.3659],[-8.0313,54.358],[-8.0022,54.3579],[-7.981,54.3266],[-7.9508,54.3009],[-7.895,54.2936],[-7.8803,54.287],[-7.8736,54.2711],[-7.8697,54.2269],[-7.8564,54.2114],[-7.837,54.2043],[-7.7821,54.2],[-7.7226,54.2023],[-7.7048,54.2004],[-7.6327,54.1685],[-7.6208,54.145],[-7.609,54.1399],[-7.5023,54.1251],[-7.4808,54.1277],[-7.4396,54.1469],[-7.4147,54.1457],[-7.4258,54.137],[-7.404,54.135],[-7.3947,54.1219],[-7.3755,54.1233],[-7.327,54.1136],[-7.3103,54.1147],[-7.3332,54.1427],[-7.326,54.1546],[-7.2955,54.1651],[-7.2974,54.1259],[-7.28,54.1262],[-7.2635,54.141],[-7.2654,54.1611],[-7.2458,54.167],[-7.2611,54.1809],[-7.2491,54.1974],[-7.2295,54.2075],[-7.1747,54.2161],[-7.1533,54.2242],[-7.1597,54.2407],[-7.1459,54.2521],[-7.1815,54.2698],[-7.1755,54.2837],[-7.209,54.2934],[-7.1846,54.3166],[-7.1924,54.3347],[-7.1599,54.3352],[-7.127,54.3498],[-7.0785,54.3947],[-7.0493,54.4115],[-7.0178,54.4132],[-6.9841,54.4031],[-6.922,54.3727],[-6.906,54.349],[-6.8797,54.3416],[-6.8584,54.3073],[-6.8567,54.2928],[-6.8822,54.2773],[-6.8377,54.2605],[-6.8239,54.2324],[-6.7878,54.203],[-6.7448,54.1842],[-6.7328,54.1836],[-6.7065,54.1989],[-6.684,54.1944],[-6.6403,54.168],[-6.6346,54.1501],[-6.644,54.1318],[-6.6664,54.1148],[-6.6571,54.0919],[-6.6725,54.0684],[-6.6306,54.0418],[-6.6165,54.0373],[-6.5951,54.0524],[-6.564,54.049],[-6.4785,54.0677],[-6.4509,54.0684],[-6.4339,54.0553],[-6.3775,54.0633],[-6.3669,54.0751],[-6.3681,54.0973],[-6.3548,54.1107],[-6.3271,54.0979],[-6.2846,54.1052],[-6.2637,54.1047],[-6.1859,54.0927],[-6.1743,54.0743],[-6.1615,54.0737],[-6.0849,54.057],[-6.1129,54.0501],[-6.1129,54.0439],[-6.0796,54.0346],[-6.0405,54.0364],[-5.9847,54.0593],[-5.9538,54.0787],[-5.912,54.0913],[-5.8832,54.1208],[-5.8685,54.1613],[-5.868,54.2185],[-5.862,54.2305],[-5.7794,54.2465],[-5.7369,54.2491],[-5.6788,54.2462],[-5.6558,54.2297],[-5.64,54.2351],[-5.6331,54.2556],[-5.6126,54.2556],[-5.5795,54.2757],[-5.553,54.2985],[-5.5407,54.3273],[-5.5505,54.3654],[-5.5797,54.3837],[-5.6221,54.3767],[-5.6683,54.3607],[-5.7089,54.3518],[-5.6979,54.3623],[-5.6614,54.3796],[-5.6256,54.4411],[-5.6256,54.461],[-5.6446,54.4721],[-5.64,54.4958],[-5.6703,54.5057],[-5.6256,54.5163],[-5.637,54.522],[-5.6741,54.5237],[-5.7015,54.5363],[-5.7156,54.5367],[-5.6974,54.5512],[-5.702,54.5777],[-5.6719,54.5768],[-5.6449,54.5678],[-5.5753,54.529],[-5.558,54.5119],[-5.5474,54.4891],[-5.5437,54.4578],[-5.5487,54.4428],[-5.5717,54.4256],[-5.5766,54.4028],[-5.559,54.3826],[-5.5471,54.3791],[-5.5277,54.3453],[-5.502,54.3397],[-5.4748,54.3586],[-5.4891,54.3696],[-5.4612,54.3921],[-5.4574,54.4087],[-5.4643,54.4252],[-5.4335,54.4663],[-5.4371,54.4879],[-5.4686,54.5163],[-5.4789,54.5695],[-5.5026,54.5835],[-5.5144,54.5979],[-5.5366,54.6575],[-5.5567,54.6628],[-5.5747,54.6801],[-5.6947,54.6687],[-5.7166,54.6699],[-5.748,54.6804],[-5.8038,54.6596],[-5.839,54.6497],[-5.8949,54.6048],[-5.9074,54.6056],[-5.9152,54.6282],[-5.9272,54.633],[-5.8907,54.6723],[-5.8454,54.7012],[-5.8184,54.7096],[-5.7589,54.7199],[-5.7293,54.7285],[-5.7069,54.743],[-5.6926,54.7652],[-5.6898,54.7931],[-5.702,54.8247],[-5.7206,54.841],[-5.7516,54.8569],[-5.7817,54.8617],[-5.7976,54.8446],[-5.7338,54.8052],[-5.7156,54.7838],[-5.7456,54.8046],[-5.8005,54.8207],[-5.814,54.8628],[-5.83,54.8852],[-5.8693,54.9104],[-5.8863,54.9408],[-5.9303,54.9709],[-5.9862,54.9818],[-5.9883,54.9887],[-5.9702,55.0258],[-5.9757,55.053],[-6.0035,55.0632],[-6.0544,55.0651],[-6.0621,55.0741],[-6.0406,55.112],[-6.0371,55.1679],[-6.0472,55.1785],[-6.101,55.2124],[-6.16,55.2219],[-6.2176,55.2104],[-6.2558,55.2109],[-6.3529,55.2426],[-6.3782,55.2462],[-6.4159,55.2319],[-6.4759,55.2487],[-6.5198,55.2407],[-6.5713,55.2112],[-6.6405,55.2083],[-6.7545,55.1778],[-6.8838,55.1741],[-6.9467,55.1954],[-6.9626,55.1946],[-6.9687,55.1807],[-6.9749,55.1354],[-6.998,55.1186],[-7.0178,55.084],[-7.0172,55.0711],[-7.0651,55.0439],[-7.0995,55.041],[-7.1339,55.0439],[-7.1775,55.057],[-7.1954,55.0581],[-7.2567,55.0507],[-7.2471,55.0693],[-7.2665,55.0652],[-7.2912,55.0466],[-7.355,55.0409],[-7.377,55.0289],[-7.4053,55.0036],[-7.4131,54.985],[-7.4074,54.9594],[-7.4158,54.9444]]],[[[-6.2364,55.3113],[-6.2615,55.3075],[-6.2836,55.2971],[-6.2111,55.2953],[-6.188,55.284],[-6.1948,55.2629],[-6.1781,55.2806],[-6.1743,55.3039],[-6.2364,55.3113]]]]},"properties":{"geonunit":"Northern Ireland","name":"Northern Ireland"}},
{"type":"Feature","geometry":{"type":"MultiPolygon","coordinates":[[[[-3.0845,53.2586],[-3.0878,53.2347],[-3.1222,53.2623],[-3.2508,53.3126],[-3.2713,53.3306],[-3.3303,53.3518],[-3.3721,53.3509],[-3.5623,53.2944],[-3.6022,53.2889],[-3.7163,53.2869],[-3.7319,53.2929],[-3.7689,53.3192],[-3.7905,53.3234],[-3.8101,53.3171],[-3.8406,53.3328],[-3.8784,53.3376],[-3.8708,53.3256],[-3.8414,53.3074],[-3.8313,53.2891],[-3.8653,53.2891],[-3.9746,53.2618],[-4.0089,53.2445],[-4.0669,53.2291],[-4.0907,53.2352],[-4.1515,53.2281],[-4.178,53.2176],[-4.2006,53.201],[-4.2345,53.164],[-4.2635,53.1545],[-4.3036,53.1253],[-4.3207,53.1015],[-4.3276,53.1147],[-4.3409,53.1127],[-4.3457,53.0595],[-4.3582,53.0285],[-4.4237,53.0026],[-4.4434,52.9822],[-4.524,52.9442],[-4.5961,52.9284],[-4.7349,52.8305],[-4.7554,52.8093],[-4.7628,52.7895],[-4.7474,52.7834],[-4.7045,52.8032],[-4.6486,52.7996],[-4.6263,52.8032],[-4.6065,52.8151],[-4.5831,52.8146],[-4.5165,52.7895],[-4.4891,52.8032],[-4.5013,52.8139],[-4.4817,52.8509],[-4.4462,52.8759],[-4.4066,52.8925],[-4.3373,52.892],[-4.3007,52.9056],[-4.2285,52.9192],[-4.1716,52.9135],[-4.1444,52.9148],[-4.1186,52.9267],[-4.1005,52.9141],[-4.0776,52.9267],[-4.064,52.9192],[-4.1299,52.8892],[-4.1322,52.8683],[-4.1173,52.8308],[-4.1462,52.8202],[-4.149,52.8121],[-4.1252,52.7783],[-4.0488,52.7216],[-4.0147,52.7323],[-3.9883,52.7343],[-4.0011,52.7241],[-4.0565,52.7007],[-4.0635,52.6831],[-4.0848,52.6727],[-4.1059,52.6535],[-4.1222,52.6287],[-4.1255,52.6039],[-4.1141,52.5886],[-4.0685,52.5501],[-4.0531,52.5424],[-4.0259,52.5454],[-3.9745,52.5565],[-3.9473,52.5567],[-3.9473,52.5493],[-3.9988,52.5259],[-4.0162,52.522],[-4.0485,52.5305],[-4.0626,52.521],[-4.0565,52.4879],[-4.079,52.453],[-4.0874,52.4301],[-4.0963,52.3879],[-4.1096,52.3653],[-4.1391,52.3302],[-4.1971,52.2793],[-4.3158,52.2163],[-4.3712,52.2093],[-4.4154,52.1815],[-4.4547,52.1621],[-4.4843,52.1563],[-4.5023,52.1384],[-4.5138,52.1357],[-4.6375,52.1385],[-4.6757,52.1269],[-4.6735,52.0974],[-4.7065,52.1135],[-4.7203,52.1133],[-4.7387,52.1008],[-4.7776,52.0649],[-4.797,52.0565],[-4.838,52.049],[-4.8323,52.019],[-4.8632,52.017],[-4.9205,52.0285],[-4.9137,52.0148],[-4.9617,52.0075],[-5.015,52.0253],[-5.0537,52.0285],[-5.0812,52.0212],[-5.0708,52.0019],[-5.085,52.0019],[-5.088,51.976],[-5.1195,51.9589],[-5.2042,51.9423],[-5.2342,51.923],[-5.2889,51.9169],[-5.2983,51.911],[-5.2905,51.892],[-5.3026,51.8852],[-5.2914,51.864],[-5.2358,51.871],[-5.2216,51.8777],[-5.2038,51.8702],[-5.1644,51.8668],[-5.1465,51.8572],[-5.1396,51.864],[-5.1175,51.8437],[-5.1071,51.7881],[-5.126,51.7685],[-5.1768,51.7597],[-5.2139,51.7357],[-5.2495,51.7337],[-5.2301,51.73],[-5.1807,51.7064],[-5.1829,51.6893],[-5.157,51.6976],[-5.1669,51.7138],[-5.1492,51.7181],[-5.0099,51.7064],[-4.9882,51.7069],[-4.9106,51.7182],[-4.8921,51.7394],[-4.9062,51.7473],[-4.9052,51.7712],[-4.9336,51.7753],[-4.9213,51.78],[-4.865,51.7833],[-4.8243,51.7957],[-4.8243,51.7883],[-4.8625,51.7824],[-4.879,51.762],[-4.8734,51.7377],[-4.8448,51.72],[-4.8683,51.7168],[-4.8926,51.7064],[-4.941,51.7001],[-4.9882,51.6859],[-5.0434,51.6927],[-5.0366,51.6784],[-5.1134,51.6853],[-5.1197,51.6784],[-5.1005,51.6647],[-5.0512,51.6569],[-5.0366,51.6374],[-5.0458,51.6269],[-5.0216,51.616],[-4.9565,51.6028],[-4.941,51.5965],[-4.9048,51.6138],[-4.879,51.6374],[-4.8483,51.6463],[-4.7592,51.645],[-4.7349,51.6592],[-4.7123,51.6501],[-4.6894,51.6916],[-4.6803,51.6927],[-4.6782,51.7174],[-4.6454,51.7321],[-4.5742,51.7412],[-4.4989,51.7348],[-4.4608,51.7358],[-4.4265,51.7473],[-4.4493,51.7663],[-4.4265,51.7753],[-4.4093,51.7632],[-4.393,51.7637],[-4.3651,51.789],[-4.358,51.7731],[-4.3718,51.7548],[-4.3472,51.7358],[-4.3105,51.7337],[-4.32,51.7248],[-4.3793,51.7269],[-4.3664,51.7085],[-4.3424,51.6909],[-4.3153,51.6775],[-4.2937,51.6723],[-4.215,51.6797],[-4.2006,51.6859],[-4.1464,51.6671],[-4.0954,51.6651],[-4.0754,51.6778],[-4.0702,51.6623],[-4.0913,51.6399],[-4.139,51.6323],[-4.1901,51.6303],[-4.221,51.6238],[-4.2347,51.6313],[-4.2347,51.645],[-4.2558,51.6238],[-4.2899,51.617],[-4.2897,51.6015],[-4.2783,51.5782],[-4.2974,51.5692],[-4.2899,51.5556],[-4.2724,51.5548],[-4.2134,51.5391],[-4.1968,51.5494],[-4.1664,51.5425],[-4.1217,51.566],[-4.0873,51.5619],[-4.0702,51.5556],[-4.0531,51.5692],[-4.032,51.5631],[-3.9746,51.563],[-3.9999,51.5909],[-3.99,51.6065],[-3.9624,51.6156],[-3.8549,51.6238],[-3.8327,51.6155],[-3.8077,51.5892],[-3.7822,51.5766],[-3.7589,51.5468],[-3.7376,51.4909],[-3.6954,51.4715],[-3.6632,51.4762],[-3.6047,51.4457],[-3.5574,51.4051],[-3.5392,51.3985],[-3.2894,51.3842],[-3.2189,51.4028],[-3.1848,51.3976],[-3.1671,51.4105],[-3.1601,51.4318],[-3.1727,51.4531],[-3.1409,51.4648],[-3.1317,51.4804],[-3.1056,51.4972],[-3.0157,51.5316],[-2.9747,51.563],[-2.9563,51.5457],[-2.9433,51.5425],[-2.8587,51.5461],[-2.8164,51.5556],[-2.7605,51.5798],[-2.7131,51.5866],[-2.6654,51.6173],[-2.673,51.6473],[-2.6835,51.659],[-2.6617,51.6755],[-2.6837,51.7261],[-2.6702,51.7495],[-2.6806,51.7649],[-2.6758,51.7867],[-2.6542,51.8078],[-2.6589,51.8177],[-2.6958,51.8363],[-2.7287,51.8384],[-2.7757,51.875],[-2.8736,51.9292],[-2.8946,51.9258],[-2.9243,51.9121],[-2.9525,51.9087],[-2.9823,51.9228],[-2.9988,51.9467],[-3.0283,51.9633],[-3.0508,51.983],[-3.0799,52.0168],[-3.0876,52.0517],[-3.1238,52.0757],[-3.1132,52.1016],[-3.1014,52.1132],[-3.1239,52.1251],[-3.1222,52.132],[-3.087,52.1408],[-3.0757,52.1528],[-3.0994,52.1575],[-3.1077,52.1727],[-3.0669,52.2092],[-3.0541,52.2302],[-3.0025,52.257],[-2.9684,52.2578],[-2.959,52.27],[-2.9887,52.2763],[-2.9995,52.2962],[-2.9911,52.3097],[-2.9637,52.3226],[-2.9567,52.3411],[-3.0706,52.3466],[-3.1037,52.3681],[-3.1651,52.3986],[-3.1993,52.4125],[-3.2151,52.4384],[-3.2131,52.4501],[-3.1903,52.4688],[-3.1442,52.4801],[-3.1077,52.4939],[-3.0308,52.4969],[-3.0149,52.5133],[-2.9764,52.5381],[-2.9805,52.5498],[-3.0053,52.5673],[-3.02,52.5667],[-3.0672,52.5455],[-3.0866,52.5291],[-3.1107,52.527],[-3.1084,52.5448],[-3.124,52.5665],[-3.1163,52.5863],[-3.0742,52.6067],[-3.0629,52.6375],[-3.0358,52.6494],[-3.0279,52.6869],[-3.0098,52.7108],[-2.9674,52.7199],[-2.9615,52.7337],[-2.9786,52.739],[-2.9985,52.7561],[-3.0575,52.7662],[-3.0822,52.783],[-3.1131,52.7846],[-3.1403,52.7961],[-3.1522,52.8298],[-3.1219,52.8549],[-3.1284,52.88],[-3.0997,52.8975],[-3.0803,52.9176],[-3.0547,52.9264],[-3.0039,52.9498],[-2.9584,52.9505],[-2.933,52.9343],[-2.878,52.9414],[-2.848,52.9373],[-2.795,52.9039],[-2.7795,52.9006],[-2.7215,52.9182],[-2.7162,52.9418],[-2.7273,52.9664],[-2.7686,52.9815],[-2.8062,52.985],[-2.8505,53.0172],[-2.871,53.0663],[-2.8974,53.1022],[-2.9515,53.1384],[-2.9524,53.1529],[-2.9153,53.1671],[-2.9136,53.1834],[-2.9556,53.2155],[-3.0198,53.2467],[-3.0845,53.2586]]],[[[-4.5773,53.272],[-4.5809,53.2855],[-4.6038,53.3082],[-4.6263,53.3209],[-4.6673,53.3239],[-4.694,53.3096],[-4.6767,53.2851],[-4.6413,53.2844],[-4.6228,53.2759],[-4.6024,53.2531],[-4.5819,53.242],[-4.5636,53.2419],[-4.5585,53.2528],[-4.5773,53.272]]],[[[-4.0981,53.3096],[-4.1278,53.3148],[-4.1366,53.3051],[-4.1778,53.2976],[-4.2032,53.2985],[-4.2148,53.3239],[-4.2352,53.3401],[-4.2347,53.3581],[-4.2669,53.369],[-4.2767,53.401],[-4.3247,53.4195],[-4.4254,53.4267],[-4.5535,53.4006],[-4.571,53.3928],[-4.5587,53.3633],[-4.5653,53.293],[-4.571,53.2755],[-4.5531,53.2619],[-4.5199,53.2228],[-4.4996,53.2112],[-4.496,53.1826],[-4.4817,53.1799],[-4.4486,53.1625],[-4.4329,53.1629],[-4.4109,53.1822],[-4.3851,53.1824],[-4.412,53.1556],[-4.4128,53.1321],[-4.3924,53.1383],[-4.3667,53.1314],[-4.3439,53.1321],[-4.2801,53.155],[-4.2646,53.1669],[-4.222,53.1821],[-4.2204,53.2015],[-4.1955,53.2203],[-4.1467,53.2391],[-4.0981,53.2501],[-4.0634,53.2893],[-4.0429,53.3028],[-4.0689,53.3104],[-4.0981,53.3096]]]]},"properties":{"geonunit":"Wales","name":"Wales"}},
{"type":"Feature","geometry":{"type":"MultiPolygon","coordinates":[[[[-3.0845,53.2586],[-3.0198,53.2467],[-2.9556,53.2155],[-2.9136,53.1834],[-2.9153,53.1671],[-2.9524,53.1529],[-2.9515,53.1384],[-2.8974,53.1022],[-2.871,53.0663],[-2.8505,53.0172],[-2.8062,52.985],[-2.7686,52.9815],[-2.7273,52.9664],[-2.7162,52.9418],[-2.7215,52.9182],[-2.7795,52.9006],[-2.795,52.9039],[-2.848,52.9373],[-2.878,52.9414],[-2.933,52.9343],[-2.9584,52.9505],[-3.0039,52.9498],[-3.0547,52.9264],[-3.0803,52.9176],[-3.0997,52.8975],[-3.1284,52.88],[-3.1219,52.8549],[-3.1522,52.8298],[-3.1403,52.7961],[-3.1131,52.7846],[-3.0822,52.783],[-3.0575,52.7662],[-2.9985,52.7561],[-2.9786,52.739],[-2.9615,52.7337],[-2.9674,52.7199],[-3.0098,52.7108],[-3.0279,52.6869],[-3.0358,52.6494],[-3.0629,52.6375],[-3.0742,52.6067],[-3.1163,52.5863],[-3.124,52.5665],[-3.1084,52.5448],[-3.1107,52.527],[-3.0866,52.5291],[-3.0672,52.5455],[-3.02,52.5667],[-3.0053,52.5673],[-2.9805,52.5498],[-2.9764,52.5381],[-3.0149,52.5133],[-3.0308,52.4969],[-3.1077,52.4939],[-3.1442,52.4801],[-3.1903,52.4688],[-3.2131,52.4501],[-3.2151,52.4384],[-3.1993,52.4125],[-3.1651,52.3986],[-3.1037,52.3681],[-3.0706,52.3466],[-2.9567,52.3411],[-2.9637,52.3226],[-2.9911,52.3097],[-2.9995,52.2962],[-2.9887,52.2763],[-2.959,52.27],[-2.9684,52.2578],[-3.0025,52.257],[-3.0541,52.2302],[-3.0669,52.2092],[-3.1077,52.1727],[-3.0994,52.1575],[-3.0757,52.1528],[-3.087,52.1408],[-3.1222,52.132],[-3.1239,52.1251],[-3.1014,52.1132],[-3.1132,52.1016],[-3.1238,52.0757],[-3.0876,52.0517],[-3.0799,52.0168],[-3.0508,51.983],[-3.0283,51.9633],[-2.9988,51.9467],[-2.9823,51.9228],[-2.9525,51.9087],[-2.9243,51.9121],[-2.8946,51.9258],[-2.8736,51.9292],[-2.7757,51.875],[-2.7287,51.8384],[-2.6958,51.8363],[-2.6589,51.8177],[-2.6542,51.8078],[-2.6758,51.7867],[-2.6806,51.7649],[-2.6702,51.7495],[-2.6837,51.7261],[-2.6617,51.6755],[-2.6835,51.659],[-2.673,51.6473],[-2.6654,51.6173],[-2.6002,51.6656],[-2.5817,51.6817],[-2.5221,51.7064],[-2.4821,51.7429],[-2.4204,51.7531],[-2.4024,51.7636],[-2.3981,51.7821],[-2.3808,51.7619],[-2.4049,51.7412],[-2.465,51.7259],[-2.4992,51.6968],[-2.5564,51.6592],[-2.5745,51.6357],[-2.5804,51.6186],[-2.6078,51.6074],[-2.6962,51.5126],[-2.7164,51.4996],[-2.7809,51.4891],[-2.8164,51.4736],[-2.8842,51.417],[-2.921,51.3944],[-2.953,51.3985],[-2.9747,51.3842],[-2.9596,51.3743],[-2.9878,51.3467],[-2.9922,51.3219],[-3.0218,51.3228],[-3.0106,51.311],[-3.0082,51.2545],[-2.9996,51.2332],[-3.0048,51.2131],[-3.0218,51.1925],[-3.0356,51.1993],[-3.0218,51.2136],[-3.0293,51.2204],[-3.0575,51.2082],[-3.0967,51.2045],[-3.1627,51.2067],[-3.1989,51.2036],[-3.2707,51.1894],[-3.385,51.1862],[-3.4044,51.192],[-3.4342,51.2098],[-3.5593,51.2281],[-3.6398,51.2264],[-3.7692,51.2477],[-3.7871,51.2468],[-3.819,51.2361],[-3.8409,51.2334],[-3.9132,51.2334],[-3.9695,51.2224],[-4.1523,51.2116],[-4.2285,51.1925],[-4.2098,51.1728],[-4.2084,51.1623],[-4.2223,51.1497],[-4.2558,51.1515],[-4.2319,51.1267],[-4.208,51.0764],[-4.2347,51.0553],[-4.3023,51.0075],[-4.3377,50.9966],[-4.3957,51.0007],[-4.4373,51.015],[-4.5264,51.015],[-4.5304,50.9947],[-4.5227,50.9727],[-4.5438,50.9392],[-4.5549,50.8978],[-4.5501,50.8096],[-4.5773,50.7747],[-4.619,50.7548],[-4.6378,50.7412],[-4.6573,50.7111],[-4.7281,50.6723],[-4.7419,50.6749],[-4.7554,50.6594],[-4.7493,50.6444],[-4.7766,50.6098],[-4.7925,50.5952],[-4.8212,50.5892],[-4.8957,50.5859],[-4.9205,50.5892],[-4.9152,50.5725],[-4.9219,50.5549],[-4.9062,50.542],[-4.8558,50.5274],[-4.8448,50.5141],[-4.861,50.5192],[-4.9024,50.5206],[-4.9205,50.5277],[-4.9336,50.5203],[-4.9371,50.5453],[-4.9473,50.5624],[-4.9752,50.5482],[-4.9956,50.5482],[-5.0156,50.538],[-5.0253,50.5242],[-5.0298,50.4868],[-5.0387,50.4479],[-5.0503,50.4287],[-5.1197,50.4048],[-5.1537,50.3995],[-5.147,50.3794],[-5.1465,50.3553],[-5.2003,50.3308],[-5.3148,50.2536],[-5.3519,50.2403],[-5.3876,50.2403],[-5.4174,50.2025],[-5.438,50.1943],[-5.4581,50.2008],[-5.4891,50.2198],[-5.511,50.2195],[-5.5494,50.2035],[-5.5836,50.1959],[-5.6474,50.1721],[-5.6846,50.1615],[-5.7092,50.1326],[-5.6988,50.0854],[-5.7156,50.0827],[-5.7051,50.0523],[-5.6674,50.0429],[-5.6195,50.0462],[-5.5784,50.0548],[-5.5456,50.0689],[-5.5347,50.0823],[-5.5409,50.1135],[-5.5218,50.1237],[-5.4748,50.1304],[-5.4247,50.1127],[-5.3842,50.108],[-5.324,50.0895],[-5.2884,50.0677],[-5.2527,50.0278],[-5.2495,50.0001],[-5.2404,49.9883],[-5.2104,49.9667],[-5.1912,49.9591],[-5.1761,49.9879],[-5.1465,50.0106],[-5.1274,50.0154],[-5.0981,50.0144],[-5.0695,50.0422],[-5.0565,50.0606],[-5.0708,50.0895],[-5.0919,50.0895],[-5.126,50.0963],[-5.0939,50.1055],[-5.081,50.1172],[-5.0803,50.1327],[-5.0434,50.1441],[-5.0646,50.1584],[-5.0519,50.1755],[-5.053,50.1958],[-5.0332,50.1994],[-5.0204,50.192],[-5.0146,50.1566],[-5.0024,50.1441],[-4.9607,50.1905],[-4.9473,50.1994],[-4.8873,50.215],[-4.8687,50.2294],[-4.8497,50.2346],[-4.8002,50.2296],[-4.7902,50.2366],[-4.7765,50.2608],[-4.7834,50.2779],[-4.7554,50.3017],[-4.7633,50.3221],[-4.7521,50.3303],[-4.7113,50.3359],[-4.6872,50.3427],[-4.6735,50.3154],[-4.6598,50.3223],[-4.4954,50.3284],[-4.4562,50.3382],[-4.3837,50.3675],[-4.3377,50.3707],[-4.2523,50.3564],[-4.2351,50.3496],[-4.215,50.3231],[-4.1938,50.3223],[-4.1991,50.3354],[-4.18,50.3564],[-4.208,50.3564],[-4.2006,50.3638],[-4.2285,50.3638],[-4.2285,50.3707],[-4.1938,50.3769],[-4.2162,50.3878],[-4.273,50.3819],[-4.2899,50.3974],[-4.2414,50.3947],[-4.2285,50.3974],[-4.2161,50.4157],[-4.2347,50.4383],[-4.2124,50.4415],[-4.2006,50.4594],[-4.1794,50.4531],[-4.1595,50.4594],[-4.1915,50.4176],[-4.1655,50.3764],[-4.1418,50.369],[-4.105,50.3707],[-4.1187,50.3519],[-4.1083,50.3366],[-4.064,50.3223],[-4.0702,50.3092],[-4.0329,50.2949],[-4.0113,50.307],[-3.9702,50.3207],[-3.9499,50.319],[-3.8842,50.2805],[-3.8263,50.2342],[-3.789,50.2124],[-3.7742,50.223],[-3.718,50.2124],[-3.6606,50.221],[-3.6456,50.226],[-3.6533,50.251],[-3.6476,50.2746],[-3.632,50.3123],[-3.6216,50.3219],[-3.5778,50.3341],[-3.5705,50.3564],[-3.5389,50.3444],[-3.5269,50.3498],[-3.5201,50.3748],[-3.4983,50.3837],[-3.4875,50.4116],[-3.532,50.4102],[-3.5493,50.4156],[-3.5563,50.4321],[-3.5494,50.4465],[-3.5321,50.4548],[-3.4875,50.4594],[-3.505,50.5012],[-3.506,50.5208],[-3.4949,50.5482],[-3.4673,50.5856],[-3.4333,50.6103],[-3.4553,50.6579],[-3.4678,50.667],[-3.4586,50.6776],[-3.4464,50.6683],[-3.4333,50.6444],[-3.4075,50.6213],[-3.3682,50.6171],[-3.2956,50.6375],[-3.2598,50.6745],[-3.2191,50.6808],[-3.1665,50.6928],[-3.1359,50.6859],[-3.1158,50.688],[-3.0714,50.711],[-3.0597,50.7133],[-3.0218,50.7065],[-2.9982,50.7082],[-2.9628,50.7233],[-2.8873,50.7344],[-2.8648,50.7338],[-2.6929,50.6928],[-2.4835,50.5904],[-2.4604,50.5655],[-2.4595,50.5277],[-2.4534,50.5277],[-2.4287,50.5576],[-2.4312,50.5703],[-2.4565,50.5755],[-2.4656,50.5852],[-2.4601,50.6065],[-2.4359,50.6375],[-2.3771,50.6475],[-2.3426,50.6338],[-2.1573,50.6205],[-2.0822,50.5978],[-2.0652,50.5955],[-1.9837,50.5966],[-1.9652,50.6022],[-1.9673,50.6171],[-1.9325,50.6444],[-1.953,50.6518],[-1.9459,50.6689],[-1.9528,50.6766],[-2.0025,50.6813],[-2.0356,50.7133],[-2.0577,50.7028],[-2.0827,50.699],[-2.0481,50.7348],[-2.0338,50.7371],[-2.022,50.7201],[-1.9877,50.7201],[-1.9493,50.7133],[-1.94,50.6908],[-1.8964,50.7163],[-1.8574,50.727],[-1.8351,50.7277],[-1.7717,50.7201],[-1.7151,50.7358],[-1.6706,50.7401],[-1.6021,50.7318],[-1.5612,50.719],[-1.5247,50.7611],[-1.4919,50.7573],[-1.4505,50.7694],[-1.4049,50.7747],[-1.4187,50.7884],[-1.404,50.7916],[-1.3398,50.7952],[-1.3173,50.8002],[-1.3143,50.8122],[-1.3231,50.8258],[-1.4256,50.9001],[-1.4664,50.9119],[-1.4664,50.9182],[-1.3389,50.8727],[-1.3014,50.8437],[-1.2552,50.8319],[-1.2315,50.8189],[-1.1993,50.8079],[-1.1856,50.7924],[-1.1511,50.7814],[-1.1249,50.7887],[-1.1212,50.7994],[-1.1297,50.8251],[-1.1647,50.8437],[-1.0873,50.8498],[-1.0692,50.8437],[-1.0753,50.83],[-1.0936,50.8129],[-1.103,50.7955],[-1.0828,50.781],[-1.0562,50.783],[-1.0426,50.8019],[-1.0336,50.8259],[-1.0207,50.8437],[-0.9708,50.847],[-0.9392,50.8432],[-0.919,50.8362],[-0.9289,50.8228],[-0.9047,50.8293],[-0.8636,50.8083],[-0.8636,50.8021],[-0.9059,50.788],[-0.9041,50.7719],[-0.8128,50.7348],[-0.7899,50.73],[-0.771,50.7369],[-0.7663,50.7471],[-0.7731,50.766],[-0.7582,50.7771],[-0.7327,50.7673],[-0.569,50.8021],[-0.3976,50.8021],[-0.2697,50.8313],[-0.2331,50.8219],[-0.2061,50.831],[-0.1732,50.829],[0.0345,50.781],[0.0956,50.7751],[0.1221,50.7608],[0.1683,50.7598],[0.2141,50.7489],[0.271,50.7474],[0.3081,50.781],[0.3423,50.7952],[0.3652,50.819],[0.4075,50.8293],[0.6242,50.8587],[0.6644,50.8703],[0.7625,50.9309],[0.8023,50.9392],[0.9452,50.9094],[0.9798,50.9182],[0.9691,50.9569],[0.9665,50.9827],[1.0276,51.0417],[1.0669,51.0644],[1.1067,51.0764],[1.1722,51.0774],[1.1921,51.0826],[1.2181,51.101],[1.263,51.1033],[1.2904,51.1165],[1.3572,51.131],[1.3845,51.1517],[1.4048,51.1835],[1.4131,51.2217],[1.4043,51.2614],[1.3806,51.3048],[1.383,51.3298],[1.4186,51.3297],[1.4391,51.3501],[1.4483,51.3829],[1.4238,51.3921],[1.1009,51.3732],[0.9772,51.3492],[0.7644,51.3644],[0.7393,51.3879],[0.7264,51.419],[0.7053,51.4195],[0.7004,51.4098],[0.7129,51.3842],[0.6719,51.3911],[0.5859,51.3911],[0.5545,51.4122],[0.5728,51.4196],[0.6094,51.4251],[0.641,51.4442],[0.6924,51.4395],[0.7232,51.4467],[0.7095,51.4705],[0.6948,51.477],[0.5348,51.4917],[0.4696,51.4804],[0.4484,51.4599],[0.3845,51.4531],[0.4285,51.4671],[0.4417,51.477],[0.4561,51.5056],[0.5254,51.5169],[0.5527,51.518],[0.5689,51.5084],[0.5823,51.5165],[0.6234,51.522],[0.6428,51.5335],[0.6921,51.5363],[0.7713,51.5283],[0.8163,51.5372],[0.8733,51.5595],[0.9245,51.5883],[0.9518,51.617],[0.9385,51.625],[0.9115,51.6238],[0.9347,51.6359],[0.938,51.6645],[0.9518,51.6784],[0.9382,51.7064],[0.9474,51.7252],[0.93,51.7436],[0.9124,51.7415],[0.8836,51.7269],[0.853,51.7189],[0.7891,51.7102],[0.7608,51.6927],[0.7493,51.7085],[0.6986,51.72],[0.7671,51.7394],[0.7918,51.7412],[0.8235,51.7338],[0.846,51.7368],[0.8737,51.7473],[0.887,51.7821],[0.9251,51.8026],[0.9621,51.8138],[0.9771,51.8246],[0.9798,51.8436],[0.9888,51.8303],[1.0213,51.8026],[1.0373,51.7822],[1.0654,51.7753],[1.1354,51.7817],[1.1678,51.7902],[1.2192,51.8118],[1.2764,51.8448],[1.2883,51.8606],[1.2866,51.8817],[1.2644,51.864],[1.2279,51.8674],[1.1996,51.8777],[1.2785,51.9279],[1.282,51.9466],[1.2621,51.9392],[1.0955,51.9457],[1.0691,51.9534],[1.1431,51.9661],[1.1653,51.967],[1.2057,51.9534],[1.2507,51.9596],[1.271,51.9564],[1.2752,51.977],[1.2603,51.9848],[1.2144,51.9914],[1.1579,52.0217],[1.1579,52.0285],[1.1852,52.0251],[1.2349,52.0003],[1.2644,51.9944],[1.3323,51.9401],[1.4248,52.0019],[1.4639,52.0351],[1.472,52.0562],[1.4868,52.049],[1.5037,52.061],[1.5823,52.0815],[1.6035,52.1278],[1.6074,52.1459],[1.6255,52.1804],[1.6309,52.1998],[1.6283,52.2448],[1.6305,52.2705],[1.6519,52.2891],[1.6836,52.3245],[1.7279,52.3963],[1.7293,52.4156],[1.7544,52.4674],[1.7712,52.4859],[1.7476,52.5328],[1.7468,52.5885],[1.7407,52.6039],[1.7472,52.6252],[1.7341,52.6546],[1.7158,52.6837],[1.697,52.731],[1.6734,52.7557],[1.6442,52.7758],[1.396,52.8914],[1.2747,52.9292],[0.9661,52.9744],[0.9661,52.9676],[0.9915,52.9675],[1.0139,52.9602],[0.9684,52.9475],[0.9211,52.9547],[0.8755,52.9682],[0.8357,52.9744],[0.7505,52.9744],[0.6847,52.9864],[0.6644,52.9819],[0.6719,52.9744],[0.6234,52.9757],[0.5696,52.9693],[0.5203,52.9553],[0.4857,52.9335],[0.4567,52.892],[0.444,52.8651],[0.4387,52.8407],[0.3792,52.7908],[0.3845,52.7684],[0.3699,52.773],[0.3418,52.7974],[0.3255,52.8032],[0.2645,52.8037],[0.2468,52.7957],[0.2224,52.8137],[0.1709,52.8621],[0.0925,52.8925],[0.0407,52.8851],[0.0103,52.8865],[0.0086,52.8986],[0.0221,52.9126],[0.0612,52.925],[0.0821,52.9387],[0.1608,53.009],[0.193,53.0201],[0.2825,53.0749],[0.3298,53.0865],[0.3358,53.0935],[0.3566,53.1457],[0.3562,53.1885],[0.3421,53.2263],[0.2604,53.3615],[0.2449,53.3909],[0.2119,53.4127],[0.2195,53.4195],[0.1758,53.4377],[0.1678,53.4645],[0.1519,53.4758],[0.096,53.4883],[0.0001,53.5353],[-0.0466,53.5704],[-0.0959,53.5771],[-0.144,53.6066],[-0.1886,53.6204],[-0.2604,53.687],[-0.2794,53.7071],[-0.3072,53.7143],[-0.4863,53.6945],[-0.5299,53.6777],[-0.5962,53.7081],[-0.6498,53.7106],[-0.6775,53.7028],[-0.6925,53.687],[-0.7265,53.7006],[-0.6584,53.728],[-0.637,53.732],[-0.5792,53.728],[-0.5444,53.7095],[-0.5105,53.7143],[-0.4311,53.7143],[-0.3052,53.7397],[-0.2604,53.7354],[-0.2253,53.7199],[-0.13,53.6461],[-0.0923,53.631],[-0.045,53.6256],[-0.0239,53.6289],[0.0148,53.6433],[0.0345,53.6461],[0.0562,53.6413],[0.0995,53.6223],[0.136,53.6107],[0.1314,53.5937],[0.1096,53.5629],[0.1369,53.5771],[0.1493,53.6096],[0.1335,53.6426],[-0.0452,53.8012],[-0.1511,53.8993],[-0.1687,53.9293],[-0.1974,53.9948],[-0.2195,54.0228],[-0.1947,54.0623],[-0.1639,54.0834],[-0.0755,54.1121],[-0.1114,54.1316],[-0.2339,54.1605],[-0.2604,54.177],[-0.2771,54.2178],[-0.322,54.2361],[-0.3628,54.2425],[-0.3976,54.2692],[-0.3907,54.2835],[-0.409,54.2908],[-0.418,54.3039],[-0.4184,54.324],[-0.4306,54.3493],[-0.4628,54.389],[-0.51,54.4116],[-0.5204,54.4201],[-0.5229,54.4471],[-0.5347,54.461],[-0.563,54.4774],[-0.7879,54.5608],[-0.9935,54.5981],[-1.0421,54.6171],[-1.1036,54.6247],[-1.1381,54.6466],[-1.1467,54.6185],[-1.1647,54.6118],[-1.177,54.6268],[-1.1988,54.6216],[-1.2063,54.633],[-1.1825,54.6392],[-1.1647,54.6528],[-1.1788,54.6647],[-1.1926,54.6938],[-1.1722,54.7012],[-1.2405,54.7217],[-1.2755,54.7484],[-1.2968,54.7799],[-1.3558,54.9043],[-1.3702,54.9755],[-1.4129,55.0003],[-1.4292,55.0333],[-1.4596,55.0786],[-1.4801,55.0854],[-1.4925,55.113],[-1.496,55.1346],[-1.5221,55.1675],[-1.508,55.1946],[-1.5292,55.2163],[-1.521,55.2294],[-1.5565,55.255],[-1.5701,55.2862],[-1.5558,55.3113],[-1.5586,55.3289],[-1.5833,55.3547],[-1.5893,55.3765],[-1.5814,55.4167],[-1.5849,55.4837],[-1.5893,55.4957],[-1.6113,55.508],[-1.6029,55.5236],[-1.6308,55.5373],[-1.6172,55.5503],[-1.6347,55.5644],[-1.6308,55.5851],[-1.6991,55.613],[-1.7209,55.6146],[-1.756,55.6089],[-1.768,55.6192],[-1.7477,55.6192],[-1.7686,55.6419],[-1.7926,55.6466],[-1.8165,55.6329],[-1.8315,55.6507],[-1.8531,55.6593],[-1.8778,55.6949],[-2.0097,55.7908],[-2.0229,55.8055],[-2.0785,55.7904],[-2.092,55.7572],[-2.1166,55.742],[-2.1629,55.7228],[-2.1812,55.7016],[-2.2428,55.6499],[-2.2673,55.6452],[-2.3066,55.6451],[-2.328,55.6382],[-2.3273,55.6251],[-2.3012,55.6124],[-2.2787,55.5891],[-2.2567,55.5495],[-2.217,55.5089],[-2.2127,55.4903],[-2.1829,55.4624],[-2.1845,55.4541],[-2.2114,55.4333],[-2.2439,55.4223],[-2.2722,55.4189],[-2.2956,55.4057],[-2.3252,55.3981],[-2.3595,55.3625],[-2.3879,55.355],[-2.4267,55.366],[-2.4628,55.3604],[-2.5515,55.3144],[-2.6258,55.2625],[-2.619,55.2455],[-2.6313,55.2234],[-2.6614,55.2125],[-2.6975,55.1794],[-2.7466,55.1562],[-2.8225,55.1352],[-2.8831,55.0836],[-2.9223,55.0717],[-2.9538,55.041],[-2.977,55.0401],[-3.015,55.0515],[-3.0303,55.0459],[-3.033,55.0152],[-3.0459,54.9997],[-3.0503,54.9815],[-3.0218,54.9755],[-3.0907,54.9612],[-3.0907,54.9544],[-3.0218,54.9544],[-3.0395,54.9472],[-3.1228,54.9327],[-3.1802,54.9408],[-3.2136,54.9544],[-3.2765,54.9434],[-3.3173,54.9203],[-3.2546,54.8998],[-3.2957,54.8869],[-3.3227,54.8899],[-3.345,54.9025],[-3.3645,54.8998],[-3.3879,54.8834],[-3.4075,54.856],[-3.4402,54.7974],[-3.431,54.7805],[-3.4396,54.7615],[-3.4681,54.7353],[-3.5007,54.726],[-3.516,54.7129],[-3.5301,54.6881],[-3.5638,54.6428],[-3.5903,54.5646],[-3.6116,54.5299],[-3.6342,54.5129],[-3.6132,54.4916],[-3.5919,54.4831],[-3.4977,54.4058],[-3.4743,54.3935],[-3.4402,54.3518],[-3.4163,54.3449],[-3.4041,54.3185],[-3.4129,54.2938],[-3.4074,54.2777],[-3.3645,54.2425],[-3.3285,54.2047],[-3.3068,54.1919],[-3.2322,54.2025],[-3.241,54.2221],[-3.2231,54.2576],[-3.2074,54.263],[-3.2068,54.2089],[-3.2152,54.1798],[-3.2484,54.1737],[-3.2331,54.1592],[-3.241,54.1121],[-3.2196,54.1008],[-3.1898,54.0979],[-3.1454,54.0638],[-3.1453,54.1],[-3.1179,54.1088],[-3.0907,54.1395],[-3.061,54.1619],[-3.0447,54.2083],[-3.0492,54.2221],[-3.0245,54.2216],[-3.0082,54.2003],[-3.0173,54.1901],[-3.0113,54.1741],[-2.9842,54.1531],[-2.9392,54.1551],[-2.9204,54.1621],[-2.9047,54.1876],[-2.8506,54.2078],[-2.8209,54.2217],[-2.796,54.2487],[-2.7952,54.2295],[-2.8103,54.2119],[-2.8329,54.199],[-2.8542,54.1941],[-2.8509,54.1846],[-2.8128,54.1399],[-2.796,54.1252],[-2.8268,54.0888],[-2.8589,54.081],[-2.8921,54.0501],[-2.9182,54.0343],[-2.8955,54.0023],[-2.8649,54.0043],[-2.8301,54.016],[-2.8345,53.9998],[-2.8693,53.9788],[-2.858,53.9676],[-2.882,53.9565],[-2.8885,53.946],[-2.9257,53.9527],[-3.0176,53.932],[-3.0407,53.9235],[-3.0566,53.9062],[-3.0449,53.8785],[-3.0564,53.803],[-3.0492,53.7695],[-3.0215,53.7458],[-2.9849,53.7361],[-2.899,53.7354],[-2.9114,53.725],[-2.9517,53.7081],[-3.0218,53.6528],[-3.0876,53.5877],[-3.0995,53.572],[-3.0966,53.5443],[-2.9808,53.3928],[-2.9569,53.3706],[-2.925,53.35],[-2.8865,53.3336],[-2.8437,53.3239],[-2.7998,53.321],[-2.7824,53.3264],[-2.7754,53.341],[-2.7141,53.3524],[-2.7174,53.3427],[-2.7345,53.3444],[-2.7509,53.3316],[-2.7481,53.3096],[-2.7755,53.2999],[-2.8061,53.2966],[-2.845,53.3001],[-2.8506,53.2891],[-2.8815,53.2884],[-2.9106,53.2963],[-2.953,53.3239],[-3.0122,53.4167],[-3.0356,53.4337],[-3.0583,53.4348],[-3.0942,53.4174],[-3.1573,53.4088],[-3.1863,53.3928],[-3.1852,53.3773],[-3.1715,53.3623],[-3.1354,53.3338],[-3.1112,53.3028],[-3.0845,53.2755],[-3.0845,53.2586]]],[[[0.9115,51.4122],[0.8908,51.421],[0.7669,51.4479],[0.7468,51.4396],[0.7339,51.4122],[0.7576,51.3864],[0.7948,51.3706],[0.9115,51.3644],[0.9364,51.371],[0.9421,51.383],[0.9325,51.3977],[0.9115,51.4122]]],[[[-0.9599,50.8083],[-0.9478,50.8178],[-0.9726,50.8298],[-0.9987,50.801],[-1.0207,50.7952],[-1.0207,50.7884],[-0.9388,50.781],[-0.9388,50.7884],[-0.9599,50.8083]]],[[[-4.6654,51.1836],[-4.6712,51.1951],[-4.6785,51.1671],[-4.6635,51.1649],[-4.6654,51.1836]]],[[[-1.0828,50.7133],[-1.0942,50.7126],[-1.097,50.727],[-1.1091,50.7329],[-1.1443,50.7338],[-1.2958,50.7732],[-1.3185,50.7722],[-1.3435,50.7611],[-1.3776,50.7342],[-1.4009,50.722],[-1.4254,50.7201],[-1.4187,50.7338],[-1.5059,50.7077],[-1.5453,50.6861],[-1.5695,50.658],[-1.5351,50.6694],[-1.4974,50.6723],[-1.4528,50.6543],[-1.446,50.6481],[-1.3155,50.5892],[-1.2792,50.5825],[-1.1684,50.6035],[-1.1647,50.6409],[-1.1287,50.6664],[-1.0753,50.6785],[-1.0623,50.6928],[-1.0828,50.7133]]],[[[-6.2988,49.9355],[-6.3092,49.9136],[-6.2973,49.9096],[-6.2842,49.9228],[-6.2988,49.9355]]],[[[-6.3336,49.9597],[-6.3489,49.9643],[-6.3412,49.9448],[-6.3265,49.9492],[-6.3336,49.9597]]]]},"properties":{"geonunit":"England","name":"England"}},
{"type":"Feature","geometry":{"type":"MultiPolygon","coordinates":[[[[-2.0229,55.8055],[-2.0802,55.8694],[-2.0995,55.8818],[-2.1288,55.8898],[-2.1326,55.9064],[-2.1468,55.9173],[-2.3078,55.935],[-2.3509,55.9482],[-2.4144,55.9783],[-2.4525,55.9853],[-2.5079,56.0102],[-2.529,55.9966],[-2.5441,56.0027],[-2.5836,56.0028],[-2.5694,56.0245],[-2.5876,56.031],[-2.616,56.0532],[-2.6351,56.0581],[-2.8028,56.0648],[-2.8231,56.0598],[-2.871,56.0307],[-2.858,56.0102],[-2.8829,56.0085],[-2.9167,55.9806],[-2.9399,55.9693],[-3.0157,55.9505],[-3.0907,55.9482],[-3.1218,55.9693],[-3.3035,55.9776],[-3.331,55.9941],[-3.3583,55.9897],[-3.4054,55.9897],[-3.5774,56.017],[-3.5997,56.0172],[-3.6562,56.0102],[-3.6683,56.0128],[-3.6866,56.0307],[-3.7126,56.029],[-3.7264,56.038],[-3.7609,56.0725],[-3.7777,56.0828],[-3.8375,56.1064],[-3.8375,56.1126],[-3.8031,56.1071],[-3.7454,56.0722],[-3.71,56.0581],[-3.6715,56.0508],[-3.5826,56.0517],[-3.421,56.0249],[-3.3818,56.0234],[-3.3427,56.0272],[-3.303,56.0375],[-3.2484,56.056],[-3.1784,56.0581],[-3.1523,56.0785],[-3.1383,56.1122],[-3.1276,56.1229],[-3.0911,56.1323],[-3.0356,56.1679],[-2.9824,56.1891],[-2.9643,56.2056],[-2.9401,56.2094],[-2.8921,56.2089],[-2.8307,56.1907],[-2.7836,56.192],[-2.7202,56.2163],[-2.6483,56.2287],[-2.6301,56.2485],[-2.5768,56.2778],[-2.5768,56.2839],[-2.6553,56.3222],[-2.6772,56.3284],[-2.7686,56.3323],[-2.8028,56.3454],[-2.813,56.3659],[-2.8376,56.3659],[-2.8083,56.3911],[-2.8009,56.4089],[-2.8028,56.428],[-2.8148,56.4404],[-2.8501,56.442],[-2.885,56.458],[-2.9307,56.4481],[-2.9503,56.4319],[-3.1496,56.3756],[-3.1884,56.3702],[-3.2306,56.356],[-3.294,56.3528],[-3.3235,56.3659],[-3.2802,56.3579],[-3.2382,56.3677],[-3.1339,56.4269],[-3.0993,56.4419],[-3.0606,56.4517],[-2.7648,56.4757],[-2.7277,56.4696],[-2.6998,56.5036],[-2.6409,56.5224],[-2.6238,56.5434],[-2.53,56.5808],[-2.5041,56.6088],[-2.4806,56.6265],[-2.4875,56.6539],[-2.4516,56.691],[-2.4407,56.7348],[-2.4264,56.7513],[-2.3918,56.7712],[-2.3361,56.7908],[-2.269,56.8463],[-2.2199,56.8726],[-2.2097,56.8958],[-2.1864,56.9145],[-2.1863,56.9267],[-2.2001,56.9487],[-2.1869,56.9847],[-2.1562,57.0207],[-2.0658,57.0998],[-2.0493,57.1188],[-2.0714,57.1356],[-2.0685,57.1746],[-2.0447,57.2265],[-1.9803,57.3193],[-1.9545,57.3411],[-1.85,57.3944],[-1.8475,57.4081],[-1.8301,57.4262],[-1.7892,57.4564],[-1.7593,57.4736],[-1.7812,57.4804],[-1.7754,57.4965],[-1.7611,57.4975],[-1.8,57.5259],[-1.796,57.5446],[-1.8114,57.5605],[-1.8295,57.6135],[-1.9142,57.6647],[-1.9325,57.6824],[-1.9735,57.6755],[-1.9977,57.7028],[-2.1081,57.705],[-2.1243,57.7028],[-2.1841,57.6785],[-2.2099,57.6755],[-2.2743,57.6938],[-2.3134,57.6899],[-2.329,57.6741],[-2.3605,57.6824],[-2.3981,57.6681],[-2.4255,57.6757],[-2.4329,57.6681],[-2.4801,57.6812],[-2.498,57.6824],[-2.5261,57.6686],[-2.542,57.6824],[-2.5734,57.6815],[-2.6589,57.6975],[-2.6929,57.6885],[-2.7035,57.6947],[-2.7311,57.6885],[-2.758,57.7028],[-2.9161,57.7028],[-2.9327,57.6996],[-2.9945,57.6755],[-3.0349,57.6686],[-3.0787,57.6694],[-3.2101,57.694],[-3.2847,57.7204],[-3.4092,57.7233],[-3.4607,57.7097],[-3.4919,57.7131],[-3.5017,57.7028],[-3.496,57.6914],[-3.5054,57.6787],[-3.5358,57.6619],[-3.5748,57.6611],[-3.6116,57.6681],[-3.591,57.6414],[-3.6325,57.6356],[-3.6456,57.6414],[-3.6252,57.6619],[-3.6848,57.6544],[-3.8375,57.593],[-3.8683,57.5879],[-3.9643,57.593],[-4.056,57.5852],[-4.0839,57.5861],[-4.0465,57.5679],[-4.035,57.5569],[-4.0673,57.55],[-4.0975,57.5367],[-4.1162,57.5218],[-4.1493,57.5179],[-4.1739,57.4975],[-4.1948,57.4916],[-4.2489,57.4975],[-4.2263,57.5154],[-4.208,57.5384],[-4.234,57.5451],[-4.2626,57.5446],[-4.2626,57.5521],[-4.1781,57.5495],[-4.1875,57.5588],[-4.1514,57.5769],[-4.105,57.5793],[-4.1186,57.593],[-4.0834,57.6234],[-4.0542,57.6357],[-4.0253,57.6552],[-4.0045,57.676],[-4.0093,57.6885],[-4.0681,57.6723],[-4.0968,57.6581],[-4.169,57.6638],[-4.2019,57.675],[-4.2445,57.663],[-4.2831,57.6414],[-4.3287,57.6263],[-4.3799,57.5893],[-4.4285,57.5775],[-4.4032,57.6095],[-4.3382,57.6451],[-4.3088,57.6549],[-4.2948,57.6802],[-4.2593,57.6787],[-4.1553,57.6926],[-4.078,57.7303],[-4.043,57.7373],[-4.0162,57.7233],[-4.0286,57.7077],[-4.0237,57.6978],[-3.9883,57.696],[-3.9488,57.7249],[-3.926,57.7348],[-3.79,57.8307],[-3.7794,57.8557],[-3.7985,57.8665],[-3.8419,57.8349],[-3.8777,57.8167],[-3.9148,57.8077],[-3.9473,57.8127],[-3.9337,57.8257],[-3.9515,57.8383],[-3.9835,57.8424],[-4.0399,57.8182],[-4.0751,57.8232],[-4.1391,57.8469],[-4.1335,57.8301],[-4.1735,57.839],[-4.2082,57.8592],[-4.2694,57.8469],[-4.3077,57.8515],[-4.3396,57.8657],[-4.3924,57.9083],[-4.3532,57.8952],[-4.321,57.871],[-4.2989,57.8628],[-4.2182,57.8742],[-4.1904,57.8701],[-4.1329,57.8542],[-4.105,57.8537],[-4.0702,57.8742],[-4.0093,57.8679],[-4.0089,57.8896],[-3.9883,57.9083],[-4.0162,57.9322],[-4.0627,57.937],[-4.0776,57.9431],[-4.0844,57.9642],[-4.0558,57.955],[-4.0162,57.9493],[-4.0231,57.9431],[-4.0019,57.9356],[-3.991,57.9604],[-3.9173,57.9875],[-3.8606,57.9989],[-3.8461,58.0112],[-3.8275,58.0421],[-3.8092,58.0519],[-3.735,58.0722],[-3.5153,58.1684],[-3.4735,58.1934],[-3.4547,58.2102],[-3.4381,58.236],[-3.385,58.2646],[-3.3498,58.2761],[-3.2623,58.2926],[-3.2205,58.3056],[-3.1828,58.3284],[-3.1298,58.3693],[-3.0863,58.4142],[-3.0771,58.4495],[-3.0533,58.4658],[-3.0644,58.483],[-3.0975,58.4775],[-3.1187,58.4844],[-3.1293,58.5126],[-3.1107,58.5386],[-3.0845,58.5519],[-3.0492,58.5867],[-3.0444,58.6016],[-3.0254,58.6221],[-3.0191,58.6403],[-3.0529,58.6481],[-3.1188,58.6411],[-3.1519,58.6413],[-3.2041,58.6611],[-3.2443,58.659],[-3.3099,58.6481],[-3.3479,58.652],[-3.3583,58.6755],[-3.39,58.6718],[-3.4129,58.6556],[-3.3861,58.6317],[-3.3508,58.6208],[-3.3641,58.6008],[-3.3915,58.6007],[-3.447,58.614],[-3.504,58.6033],[-3.5321,58.6021],[-3.5563,58.614],[-3.5426,58.6208],[-3.5976,58.6271],[-3.6599,58.6208],[-3.6984,58.6112],[-3.767,58.5837],[-3.8101,58.5731],[-3.8957,58.5656],[-3.9814,58.5731],[-4.0038,58.5706],[-4.0278,58.5927],[-4.0488,58.5896],[-4.0615,58.5728],[-4.0815,58.5618],[-4.1112,58.5656],[-4.1606,58.5626],[-4.177,58.5464],[-4.2097,58.5529],[-4.2277,58.5482],[-4.2573,58.528],[-4.2872,58.5429],[-4.317,58.5457],[-4.3824,58.5246],[-4.4342,58.4963],[-4.4339,58.4836],[-4.4612,58.4625],[-4.4954,58.4495],[-4.4499,58.5102],[-4.4265,58.5246],[-4.4265,58.5464],[-4.4755,58.5656],[-4.5175,58.5755],[-4.5605,58.5799],[-4.5849,58.5742],[-4.6121,58.5246],[-4.6669,58.5029],[-4.683,58.4846],[-4.7424,58.4495],[-4.761,58.448],[-4.7145,58.5056],[-4.6673,58.5321],[-4.66,58.5559],[-4.728,58.5775],[-4.7765,58.6072],[-4.7716,58.5904],[-4.7858,58.5771],[-4.7918,58.5417],[-4.8181,58.5246],[-4.8038,58.5594],[-4.8181,58.5929],[-4.8595,58.6132],[-4.9882,58.6283],[-5.005,58.6177],[-5.028,58.5441],[-5.0428,58.5355],[-5.1037,58.5142],[-5.1055,58.4874],[-4.9956,58.4365],[-5.0501,58.4538],[-5.1055,58.4365],[-5.085,58.429],[-5.0981,58.4148],[-5.057,58.4222],[-5.0534,58.4066],[-5.0162,58.3881],[-5.058,58.3873],[-5.116,58.4086],[-5.1431,58.4148],[-5.1465,58.395],[-5.1629,58.3745],[-5.1533,58.3539],[-5.1732,58.3539],[-5.1601,58.3266],[-5.0964,58.2768],[-5.0501,58.2599],[-5.0294,58.2597],[-5.0099,58.2714],[-4.9267,58.2646],[-4.982,58.2509],[-4.9434,58.2336],[-4.9336,58.223],[-5.0024,58.2509],[-5.0677,58.2509],[-5.1294,58.2714],[-5.1523,58.2648],[-5.1732,58.2509],[-5.1943,58.26],[-5.2373,58.2576],[-5.277,58.2434],[-5.3108,58.2434],[-5.3759,58.2642],[-5.3921,58.2614],[-5.3929,58.2447],[-5.3468,58.2069],[-5.324,58.2031],[-5.3315,58.182],[-5.2974,58.1684],[-5.3048,58.1621],[-5.2751,58.1545],[-5.2421,58.1553],[-5.2421,58.1479],[-5.2974,58.1348],[-5.2768,58.1274],[-5.2905,58.1206],[-5.2788,58.1054],[-5.2831,58.0864],[-5.3008,58.0701],[-5.3443,58.0755],[-5.3662,58.066],[-5.39,58.0922],[-5.4281,58.098],[-5.447,58.0844],[-5.4139,58.0523],[-5.4276,58.0312],[-5.3866,58.0325],[-5.3519,58.0175],[-5.3594,58.0114],[-5.3339,58.0085],[-5.2926,57.9806],[-5.2045,57.9602],[-5.194,57.936],[-5.2216,57.9288],[-5.2216,57.9213],[-5.1973,57.9179],[-5.0972,57.8709],[-5.0765,57.8385],[-5.0911,57.8403],[-5.12,57.868],[-5.1623,57.8785],[-5.1988,57.8978],[-5.2563,57.9151],[-5.2974,57.9083],[-5.3192,57.9147],[-5.3472,57.9367],[-5.3662,57.9431],[-5.3717,57.9311],[-5.3973,57.9289],[-5.3849,57.9141],[-5.3207,57.8985],[-5.2768,57.8742],[-5.2475,57.867],[-5.2216,57.8469],[-5.2939,57.862],[-5.3275,57.8733],[-5.3695,57.8975],[-5.4276,57.9083],[-5.4371,57.8977],[-5.455,57.8537],[-5.487,57.8559],[-5.5279,57.8676],[-5.5563,57.8878],[-5.5505,57.9151],[-5.5873,57.9151],[-5.6126,57.9288],[-5.6536,57.8947],[-5.64,57.8878],[-5.6504,57.8778],[-5.6376,57.8664],[-5.599,57.8469],[-5.5853,57.8314],[-5.5912,57.8044],[-5.5846,57.7848],[-5.6256,57.7922],[-5.6058,57.7705],[-5.6221,57.7702],[-5.6505,57.7818],[-5.6604,57.7922],[-5.6748,57.8271],[-5.6741,57.8605],[-5.7248,57.8735],[-5.7511,57.8734],[-5.7895,57.862],[-5.8074,57.8439],[-5.8099,57.8206],[-5.8013,57.8004],[-5.807,57.7546],[-5.8038,57.7438],[-5.7205,57.7334],[-5.6852,57.7114],[-5.6741,57.7097],[-5.6925,57.6911],[-5.705,57.6901],[-5.7345,57.708],[-5.7536,57.7075],[-5.7908,57.696],[-5.785,57.6795],[-5.8054,57.6672],[-5.8059,57.6426],[-5.7628,57.634],[-5.7443,57.618],[-5.7142,57.5827],[-5.6809,57.5793],[-5.6945,57.5663],[-5.6604,57.5446],[-5.6327,57.5577],[-5.5884,57.561],[-5.5431,57.5554],[-5.5127,57.5415],[-5.5168,57.5349],[-5.5815,57.5384],[-5.6536,57.5316],[-5.64,57.5111],[-5.6898,57.5279],[-5.707,57.5423],[-5.7326,57.5452],[-5.7864,57.5752],[-5.8214,57.5832],[-5.8392,57.5793],[-5.8317,57.5588],[-5.8471,57.5589],[-5.8522,57.5241],[-5.8697,57.5009],[-5.8705,57.4808],[-5.859,57.4527],[-5.8112,57.4422],[-5.8219,57.4355],[-5.8249,57.4155],[-5.8112,57.4012],[-5.8249,57.3944],[-5.8078,57.3549],[-5.7846,57.3486],[-5.7324,57.3528],[-5.7072,57.3598],[-5.64,57.408],[-5.624,57.4164],[-5.6092,57.3978],[-5.6156,57.3825],[-5.64,57.3739],[-5.5635,57.3631],[-5.5375,57.3739],[-5.4921,57.4088],[-5.4651,57.4239],[-5.4481,57.4217],[-5.4567,57.3935],[-5.5013,57.371],[-5.6132,57.342],[-5.6365,57.3398],[-5.6544,57.3539],[-5.702,57.3323],[-5.7293,57.2982],[-5.7206,57.2845],[-5.7001,57.2836],[-5.657,57.2913],[-5.5994,57.2792],[-5.5585,57.2814],[-5.5062,57.2982],[-5.465,57.3249],[-5.4407,57.3193],[-5.4407,57.3118],[-5.4648,57.3066],[-5.4889,57.2924],[-5.5019,57.2777],[-5.4488,57.2421],[-5.4072,57.2367],[-5.4072,57.2299],[-5.4463,57.223],[-5.4801,57.237],[-5.5116,57.2576],[-5.5437,57.2709],[-5.5782,57.2668],[-5.6201,57.2521],[-5.6442,57.2332],[-5.6256,57.2163],[-5.6738,57.175],[-5.6809,57.1579],[-5.6684,57.1477],[-5.5846,57.1337],[-5.5406,57.1064],[-5.5039,57.1127],[-5.42,57.1207],[-5.4004,57.1064],[-5.4474,57.1102],[-5.4598,57.0998],[-5.5583,57.1004],[-5.6208,57.1241],[-5.6459,57.1295],[-5.6737,57.119],[-5.7156,57.1201],[-5.7762,57.0758],[-5.7911,57.0593],[-5.7526,57.0406],[-5.7314,57.039],[-5.702,57.0449],[-5.68,57.0362],[-5.6855,57.0096],[-5.6288,56.9919],[-5.6071,56.9885],[-5.5846,56.9971],[-5.5713,56.9933],[-5.5233,57.004],[-5.5233,56.9971],[-5.5713,56.9838],[-5.6256,56.9766],[-5.6586,56.9795],[-5.6883,56.9897],[-5.7293,57.0238],[-5.7552,57.0266],[-5.786,57.0206],[-5.8317,56.9971],[-5.8625,56.9337],[-5.8801,56.922],[-5.8522,56.9077],[-5.8522,56.9003],[-5.9211,56.8941],[-5.8749,56.8872],[-5.7806,56.8987],[-5.7355,56.8941],[-5.7754,56.8699],[-5.7839,56.8599],[-5.7244,56.8538],[-5.7085,56.8706],[-5.6736,56.8765],[-5.6604,56.873],[-5.6927,56.8549],[-5.7339,56.8448],[-5.8375,56.8366],[-5.8508,56.818],[-5.8317,56.8054],[-5.7567,56.7849],[-5.8021,56.7918],[-5.8246,56.7876],[-5.8392,56.7774],[-5.8618,56.7851],[-5.8863,56.7849],[-5.8863,56.7774],[-5.8581,56.7685],[-5.8522,56.747],[-5.9136,56.7637],[-5.9482,56.7825],[-5.9799,56.7816],[-6.027,56.7637],[-6.1805,56.7546],[-6.2153,56.7296],[-6.2345,56.7286],[-6.2325,56.7065],[-6.2228,56.6955],[-6.1866,56.6811],[-6.1617,56.6782],[-6.1238,56.6956],[-6.0986,56.697],[-6.0249,56.6857],[-5.9556,56.6887],[-5.8968,56.6751],[-5.859,56.6812],[-5.75,56.7145],[-5.7089,56.7086],[-5.6586,56.6907],[-5.6365,56.6887],[-5.5437,56.6955],[-5.5941,56.6833],[-5.6474,56.6812],[-5.6726,56.6841],[-5.7355,56.7023],[-5.76,56.7008],[-5.8658,56.6613],[-5.8656,56.6514],[-5.8317,56.634],[-5.8392,56.6265],[-5.8669,56.6415],[-5.899,56.6508],[-5.9336,56.6547],[-5.9835,56.6528],[-6.0082,56.6423],[-6.0034,56.6187],[-5.8544,56.5505],[-5.7939,56.5433],[-5.7567,56.572],[-5.7552,56.554],[-5.7703,56.5378],[-5.7408,56.5233],[-5.6947,56.5139],[-5.683,56.5006],[-5.6674,56.4985],[-5.5996,56.529],[-5.5334,56.5729],[-5.4933,56.6064],[-5.4487,56.6246],[-5.4344,56.6429],[-5.3881,56.6552],[-5.3402,56.6931],[-5.3098,56.7065],[-5.2685,56.7131],[-5.2421,56.7365],[-5.2335,56.7607],[-5.2023,56.7691],[-5.1791,56.7893],[-5.1197,56.8184],[-5.1547,56.7823],[-5.2221,56.7415],[-5.2383,56.7166],[-5.1606,56.6959],[-4.9956,56.716],[-5.0128,56.7093],[-5.0934,56.699],[-5.1326,56.6845],[-5.1533,56.6812],[-5.1964,56.6887],[-5.2189,56.6887],[-5.2482,56.6741],[-5.2868,56.675],[-5.3178,56.6613],[-5.2985,56.6464],[-5.3109,56.6336],[-5.3519,56.6129],[-5.3866,56.5788],[-5.4139,56.5447],[-5.3843,56.5334],[-5.3603,56.5322],[-5.3109,56.5521],[-5.2756,56.5536],[-5.2421,56.5651],[-5.2526,56.5563],[-5.2905,56.5447],[-5.3383,56.5242],[-5.3793,56.5192],[-5.4038,56.5246],[-5.4276,56.5378],[-5.4333,56.5236],[-5.4686,56.4757],[-5.455,56.4696],[-5.4359,56.4912],[-5.4106,56.5036],[-5.3943,56.4655],[-5.3781,56.459],[-5.3502,56.473],[-5.2438,56.4592],[-5.2011,56.4621],[-5.1669,56.4901],[-5.126,56.5105],[-5.0865,56.5585],[-5.0646,56.5651],[-5.0857,56.5488],[-5.1185,56.5078],[-5.1819,56.4597],[-5.2087,56.4468],[-5.2421,56.4422],[-5.3229,56.455],[-5.4236,56.45],[-5.457,56.4409],[-5.4823,56.4211],[-5.478,56.4129],[-5.5096,56.4006],[-5.5375,56.3597],[-5.5154,56.3568],[-5.4722,56.3649],[-5.4481,56.3597],[-5.4982,56.3483],[-5.5252,56.3466],[-5.5437,56.3529],[-5.5726,56.3281],[-5.5981,56.2586],[-5.5823,56.2488],[-5.5543,56.2635],[-5.5127,56.2709],[-5.4993,56.2676],[-5.4947,56.2531],[-5.5472,56.2402],[-5.5594,56.2296],[-5.5505,56.2163],[-5.5864,56.1811],[-5.6058,56.14],[-5.5827,56.1506],[-5.5399,56.1834],[-5.5096,56.1884],[-5.5225,56.1658],[-5.5587,56.1308],[-5.5505,56.1064],[-5.5347,56.0985],[-5.5316,56.0863],[-5.571,56.099],[-5.5846,56.0847],[-5.6599,56.0233],[-5.6964,55.9822],[-5.7075,55.9426],[-5.6945,55.9345],[-5.6741,55.9556],[-5.6749,55.9777],[-5.6317,56.0059],[-5.6256,56.0245],[-5.5839,56.0407],[-5.571,56.0375],[-5.5868,56.012],[-5.6964,55.916],[-5.6809,55.8867],[-5.6276,55.9053],[-5.5935,55.928],[-5.571,55.9345],[-5.6194,55.9031],[-5.632,55.8818],[-5.6741,55.8458],[-5.668,55.811],[-5.6467,55.7875],[-5.6058,55.7768],[-5.6126,55.7639],[-5.5875,55.7672],[-5.5517,55.7836],[-5.455,55.8458],[-5.4735,55.8157],[-5.5046,55.7894],[-5.5392,55.7709],[-5.5812,55.7576],[-5.6132,55.7258],[-5.6265,55.7006],[-5.6809,55.6745],[-5.6694,55.6607],[-5.6733,55.6406],[-5.7218,55.5646],[-5.7078,55.5434],[-5.7219,55.5139],[-5.7156,55.4479],[-5.7634,55.4121],[-5.7914,55.3986],[-5.7947,55.3564],[-5.7829,55.3135],[-5.7723,55.3013],[-5.7545,55.2973],[-5.714,55.2991],[-5.6809,55.3113],[-5.64,55.3039],[-5.5941,55.3131],[-5.558,55.3319],[-5.5251,55.3586],[-5.515,55.3737],[-5.5437,55.4069],[-5.5846,55.4274],[-5.5615,55.4355],[-5.5455,55.4492],[-5.5233,55.4827],[-5.511,55.4844],[-5.5106,55.5115],[-5.4823,55.5503],[-5.4888,55.5691],[-5.4611,55.5788],[-5.455,55.5919],[-5.4839,55.6101],[-5.4823,55.6329],[-5.4901,55.6446],[-5.4686,55.654],[-5.4612,55.6881],[-5.4335,55.721],[-5.3876,55.7503],[-5.3385,55.7626],[-5.3178,55.783],[-5.3268,55.8086],[-5.3518,55.8324],[-5.4072,55.8663],[-5.3929,55.8737],[-5.4072,55.8799],[-5.4004,55.8929],[-5.4125,55.8996],[-5.4308,55.9482],[-5.455,55.9556],[-5.4479,56.0223],[-5.4371,56.03],[-5.4338,56.0102],[-5.3903,56.0057],[-5.3686,56.0094],[-5.3564,56.0198],[-5.338,56.0541],[-5.3109,56.0581],[-5.2281,56.1292],[-5.1089,56.1747],[-5.0994,56.182],[-5.0646,56.2293],[-5.0327,56.2412],[-4.9919,56.243],[-4.9751,56.248],[-4.9205,56.2778],[-4.9401,56.2514],[-4.975,56.237],[-5.0434,56.2163],[-5.0594,56.2031],[-5.095,56.1574],[-5.1465,56.1331],[-5.2045,56.1195],[-5.3136,56.0124],[-5.3383,55.9966],[-5.3258,55.9672],[-5.3262,55.9503],[-5.3383,55.9314],[-5.3348,55.8967],[-5.3134,55.8854],[-5.3071,55.8604],[-5.2967,55.8527],[-5.2632,55.8458],[-5.2194,55.8314],[-5.2011,55.8315],[-5.2181,55.8647],[-5.2421,55.8929],[-5.2126,55.9171],[-5.1996,55.9486],[-5.1807,55.9693],[-5.1807,55.9484],[-5.1715,55.9355],[-5.1056,55.905],[-5.0865,55.9013],[-5.0782,55.911],[-5.0857,55.9319],[-5.1238,55.9863],[-5.1396,56.0028],[-5.1236,56.0099],[-5.1108,55.989],[-5.0708,55.9587],[-5.0568,55.9103],[-5.0425,55.8848],[-5.0264,55.8737],[-4.9831,55.871],[-4.9592,55.8901],[-4.9473,55.9208],[-4.9174,55.9475],[-4.9137,55.9619],[-4.9289,55.9811],[-4.9547,55.9897],[-4.9547,55.9966],[-4.9064,55.9857],[-4.8926,55.9897],[-4.898,56.0012],[-4.9019,56.0619],[-4.8891,56.0648],[-4.8862,56.0804],[-4.8953,56.1147],[-4.9205,56.1679],[-4.8935,56.1743],[-4.879,56.1505],[-4.8806,56.1199],[-4.8731,56.112],[-4.8517,56.1126],[-4.8373,56.1244],[-4.7799,56.1915],[-4.7555,56.2065],[-4.7554,56.1884],[-4.8263,56.1242],[-4.8654,56.0667],[-4.8623,56.0021],[-4.8516,55.988],[-4.828,55.9823],[-4.7853,55.984],[-4.7789,55.9921],[-4.7902,56.0102],[-4.8376,56.0506],[-4.8443,56.073],[-4.8243,56.0785],[-4.8106,56.0438],[-4.7834,56.0176],[-4.765,56.0071],[-4.7245,55.9984],[-4.6735,55.9619],[-4.63,55.9463],[-4.4817,55.9283],[-4.506,55.9191],[-4.6725,55.9338],[-4.694,55.9414],[-4.7223,55.9401],[-4.7858,55.957],[-4.8181,55.9556],[-4.8494,55.9482],[-4.8721,55.9372],[-4.8865,55.9197],[-4.8926,55.8929],[-4.8827,55.8214],[-4.8653,55.7905],[-4.8611,55.7567],[-4.8763,55.7353],[-4.9205,55.7086],[-4.901,55.6923],[-4.8686,55.6756],[-4.8106,55.654],[-4.8181,55.6372],[-4.7765,55.6329],[-4.722,55.6192],[-4.6927,55.6052],[-4.6711,55.5844],[-4.6662,55.5622],[-4.6872,55.5441],[-4.6508,55.5371],[-4.6268,55.5197],[-4.6178,55.4956],[-4.6263,55.4684],[-4.6505,55.4485],[-4.717,55.4305],[-4.7493,55.4138],[-4.7731,55.3694],[-4.8325,55.3311],[-4.8398,55.3156],[-4.8419,55.2751],[-4.8648,55.2414],[-4.8673,55.2225],[-4.8824,55.2186],[-4.9473,55.1679],[-4.9883,55.1527],[-5.0078,55.1412],[-5.019,55.1022],[-5.0497,55.049],[-5.047,55.0151],[-5.0241,54.9764],[-4.9882,54.9346],[-4.9882,54.9277],[-5.0131,54.9096],[-5.031,54.9113],[-5.0609,54.9311],[-5.0653,54.9403],[-5.0646,54.9755],[-5.0769,54.9956],[-5.1151,55.0316],[-5.1246,55.0168],[-5.1567,55.0165],[-5.1708,55.0087],[-5.1776,54.9905],[-5.1807,54.9544],[-5.1755,54.9146],[-5.1571,54.8791],[-5.1282,54.8489],[-5.0332,54.7824],[-5.0033,54.7713],[-4.9882,54.7353],[-4.9547,54.7285],[-4.9589,54.7141],[-4.9473,54.7012],[-4.959,54.692],[-4.9599,54.6755],[-4.9441,54.6528],[-4.8591,54.633],[-4.8721,54.6492],[-4.8673,54.6901],[-4.896,54.7045],[-4.9302,54.7626],[-4.9479,54.7773],[-4.9537,54.81],[-4.941,54.8247],[-4.9059,54.8498],[-4.8591,54.8663],[-4.821,54.8666],[-4.7996,54.8613],[-4.7811,54.8331],[-4.7596,54.8253],[-4.7145,54.8179],[-4.5967,54.7753],[-4.5636,54.7564],[-4.5056,54.7047],[-4.4612,54.7012],[-4.4053,54.6821],[-4.3719,54.6823],[-4.3481,54.702],[-4.3565,54.7419],[-4.3439,54.7564],[-4.3581,54.771],[-4.3445,54.7945],[-4.3476,54.8073],[-4.3724,54.8218],[-4.4029,54.8247],[-4.4265,54.8695],[-4.4029,54.9073],[-4.3868,54.9048],[-4.3656,54.8725],[-4.3453,54.8602],[-4.2707,54.8394],[-4.2397,54.843],[-4.2006,54.8663],[-4.2091,54.8262],[-4.1739,54.7923],[-4.123,54.773],[-4.0839,54.7769],[-4.0935,54.7927],[-4.0901,54.8098],[-4.064,54.8315],[-4.05,54.8232],[-4.0497,54.79],[-4.0558,54.7825],[-4.0429,54.7695],[-4.0117,54.7682],[-3.9642,54.7719],[-3.8857,54.8065],[-3.8238,54.8247],[-3.8579,54.8446],[-3.8375,54.852],[-3.8443,54.8663],[-3.817,54.8862],[-3.8313,54.8663],[-3.8198,54.8559],[-3.8101,54.8663],[-3.7392,54.8598],[-3.7176,54.8808],[-3.6918,54.8832],[-3.5984,54.878],[-3.5817,54.8836],[-3.5705,54.8998],[-3.5706,54.9376],[-3.5836,54.9681],[-3.5705,54.9954],[-3.526,54.9771],[-3.501,54.9925],[-3.4538,54.9818],[-3.1354,54.9681],[-3.0503,54.9815],[-3.0459,54.9997],[-3.033,55.0152],[-3.0303,55.0459],[-3.015,55.0515],[-2.977,55.0401],[-2.9538,55.041],[-2.9223,55.0717],[-2.8831,55.0836],[-2.8225,55.1352],[-2.7466,55.1562],[-2.6975,55.1794],[-2.6614,55.2125],[-2.6313,55.2234],[-2.619,55.2455],[-2.6258,55.2625],[-2.5515,55.3144],[-2.4628,55.3604],[-2.4267,55.366],[-2.3879,55.355],[-2.3595,55.3625],[-2.3252,55.3981],[-2.2956,55.4057],[-2.2722,55.4189],[-2.2439,55.4223],[-2.2114,55.4333],[-2.1845,55.4541],[-2.1829,55.4624],[-2.2127,55.4903],[-2.217,55.5089],[-2.2567,55.5495],[-2.2787,55.5891],[-2.3012,55.6124],[-2.3273,55.6251],[-2.328,55.6382],[-2.3066,55.6451],[-2.2673,55.6452],[-2.2428,55.6499],[-2.1812,55.7016],[-2.1629,55.7228],[-2.1166,55.742],[-2.092,55.7572],[-2.0785,55.7904],[-2.0229,55.8055]]],[[[-5.0708,55.5093],[-5.1197,55.5236],[-5.1252,55.5369],[-5.0919,55.5441],[-5.0942,55.5666],[-5.1374,55.592],[-5.126,55.6055],[-5.146,55.655],[-5.16,55.6762],[-5.1983,55.7043],[-5.2632,55.7228],[-5.2974,55.7228],[-5.2905,55.7086],[-5.3243,55.705],[-5.3552,55.6896],[-5.3794,55.6681],[-5.3929,55.6466],[-5.3979,55.6142],[-5.3891,55.5902],[-5.3457,55.5503],[-5.3594,55.5373],[-5.3457,55.4827],[-5.3047,55.4621],[-5.2631,55.4472],[-5.2174,55.438],[-5.1636,55.4349],[-5.1178,55.4398],[-5.0782,55.4553],[-5.093,55.5004],[-5.0708,55.5093]]],[[[-5.0298,55.7495],[-5.0115,55.7745],[-5.0218,55.8056],[-5.0503,55.8458],[-5.0752,55.8569],[-5.0809,55.8796],[-5.1055,55.8867],[-5.1669,55.9208],[-5.1995,55.9111],[-5.2008,55.8955],[-5.1742,55.8554],[-5.1396,55.842],[-5.126,55.801],[-5.1156,55.7844],[-5.0503,55.7495],[-5.0288,55.7233],[-5.0162,55.7228],[-5.0113,55.7377],[-5.0298,55.7495]]],[[[-6.0304,55.7291],[-6.0583,55.7427],[-6.0498,55.7663],[-6.0791,55.7815],[-6.0992,55.801],[-6.1024,55.8312],[-6.116,55.8868],[-6.1202,55.9294],[-6.1401,55.9414],[-6.1622,55.9285],[-6.2043,55.9166],[-6.2291,55.8973],[-6.2648,55.8854],[-6.297,55.8672],[-6.3184,55.8449],[-6.3109,55.8184],[-6.3307,55.8278],[-6.3382,55.852],[-6.3259,55.8804],[-6.3314,55.89],[-6.3545,55.8774],[-6.4091,55.8636],[-6.4452,55.8488],[-6.4528,55.8409],[-6.4608,55.8032],[-6.4822,55.7905],[-6.4486,55.7768],[-6.4932,55.7392],[-6.5039,55.7228],[-6.4897,55.7154],[-6.5024,55.6977],[-6.5035,55.6813],[-6.491,55.6718],[-6.463,55.6745],[-6.4186,55.7096],[-6.3866,55.7223],[-6.349,55.7734],[-6.3287,55.7831],[-6.3004,55.7858],[-6.25,55.7768],[-6.2955,55.7519],[-6.321,55.7335],[-6.3252,55.7154],[-6.2771,55.704],[-6.2648,55.6955],[-6.2432,55.6601],[-6.2975,55.6425],[-6.3192,55.6282],[-6.3252,55.6055],[-6.3112,55.5832],[-6.2873,55.5784],[-6.2619,55.5838],[-6.2228,55.6055],[-6.2153,55.6267],[-6.2025,55.6306],[-6.16,55.6267],[-6.1055,55.6402],[-6.0644,55.6676],[-6.0583,55.6601],[-6.0457,55.6743],[-6.0235,55.6819],[-6.0328,55.7177],[-6.0304,55.7291]]],[[[-6.2057,56.1027],[-6.2327,56.0816],[-6.2543,56.0446],[-6.2699,56.0375],[-6.2492,56.0313],[-6.1943,56.0353],[-6.1743,56.0438],[-6.1772,56.0615],[-6.1656,56.0815],[-6.1334,56.1126],[-6.138,56.1247],[-6.1818,56.1195],[-6.1743,56.1064],[-6.2057,56.1027]]],[[[-5.7976,56.1126],[-5.8737,56.0701],[-5.9244,56.056],[-5.9552,56.0347],[-5.9833,56.0089],[-5.9956,55.986],[-5.9807,55.9699],[-5.8863,55.9761],[-5.9191,55.9604],[-5.9974,55.9517],[-6.0431,55.928],[-6.0752,55.916],[-6.0869,55.883],[-6.0781,55.8349],[-6.0624,55.8095],[-6.0266,55.7961],[-5.9875,55.7946],[-5.9621,55.8048],[-5.9454,55.8586],[-5.8968,55.8889],[-5.8863,55.8867],[-5.8645,55.9267],[-5.7802,56.0207],[-5.7402,56.0765],[-5.6893,56.1118],[-5.6945,56.1474],[-5.7159,56.1531],[-5.7465,56.1418],[-5.7976,56.1126]]],[[[-5.6883,56.2021],[-5.7384,56.1775],[-5.7491,56.1611],[-5.6942,56.1686],[-5.6737,56.1789],[-5.6883,56.2021]]],[[[-5.6331,56.2635],[-5.6453,56.2559],[-5.6667,56.2225],[-5.6374,56.1893],[-5.6282,56.2205],[-5.6106,56.2494],[-5.6126,56.2635],[-5.6331,56.2635]]],[[[-5.6331,56.3188],[-5.6467,56.2988],[-5.6403,56.2828],[-5.6217,56.2761],[-5.599,56.2839],[-5.6053,56.2969],[-5.5846,56.3256],[-5.6208,56.3242],[-5.6331,56.3188]]],[[[-5.558,56.4143],[-5.5846,56.387],[-5.558,56.3865],[-5.5362,56.3922],[-5.5028,56.4211],[-5.5265,56.4136],[-5.558,56.4143]]],[[[-6.16,56.4696],[-6.1706,56.4811],[-6.2153,56.5036],[-6.2421,56.4996],[-6.2637,56.4832],[-6.2375,56.47],[-6.16,56.4696]]],[[[-6.8186,56.5378],[-6.8411,56.5347],[-6.9005,56.5167],[-6.9681,56.5105],[-6.9899,56.5036],[-6.9652,56.4599],[-6.9025,56.4438],[-6.8816,56.4443],[-6.8875,56.4621],[-6.8693,56.4796],[-6.8255,56.4873],[-6.8056,56.4969],[-6.8038,56.5136],[-6.7433,56.5178],[-6.7292,56.5303],[-6.7419,56.5478],[-6.7672,56.5486],[-6.8186,56.5378]]],[[[-5.6883,56.4348],[-5.6536,56.428],[-5.6484,56.4477],[-5.6809,56.4519],[-5.6968,56.4757],[-5.7218,56.4901],[-5.7469,56.4884],[-5.7652,56.4942],[-5.7873,56.5136],[-5.814,56.5167],[-5.8295,56.5108],[-5.8522,56.5242],[-5.9521,56.5242],[-5.9626,56.5261],[-5.9683,56.5447],[-6.0088,56.5987],[-6.0335,56.6188],[-6.0644,56.6203],[-6.0583,56.6402],[-6.119,56.6539],[-6.1907,56.6449],[-6.2203,56.6323],[-6.2228,56.6129],[-6.2386,56.6086],[-6.2563,56.6203],[-6.2884,56.608],[-6.3252,56.6061],[-6.3192,56.594],[-6.2904,56.572],[-6.3382,56.5521],[-6.2885,56.5323],[-6.1949,56.5233],[-6.1621,56.5092],[-6.1274,56.4744],[-6.0811,56.4851],[-6.0167,56.5036],[-6.004,56.4797],[-6.0218,56.4641],[-6.0815,56.4484],[-6.1169,56.4504],[-6.1351,56.4423],[-6.1572,56.4074],[-6.1892,56.3978],[-6.2032,56.3803],[-6.1789,56.3599],[-6.154,56.359],[-6.1055,56.3659],[-6.0469,56.384],[-6.0208,56.382],[-6.0849,56.3529],[-6.1539,56.3448],[-6.1866,56.3312],[-6.2318,56.3369],[-6.25,56.3323],[-6.2289,56.3256],[-6.2472,56.3117],[-6.2904,56.3454],[-6.3354,56.3446],[-6.357,56.3363],[-6.3661,56.3222],[-6.3602,56.3036],[-6.3275,56.2772],[-6.3,56.268],[-6.2668,56.2635],[-6.2398,56.2839],[-6.147,56.2839],[-6.1024,56.2982],[-6.066,56.2892],[-6.0375,56.3052],[-5.9579,56.3281],[-5.9148,56.3355],[-5.8972,56.3529],[-5.8604,56.3583],[-5.8535,56.3437],[-5.8801,56.3256],[-5.8482,56.3136],[-5.8087,56.3189],[-5.72,56.3528],[-5.696,56.3754],[-5.7122,56.3802],[-5.75,56.3771],[-5.7839,56.3659],[-5.7839,56.3734],[-5.7511,56.3894],[-5.7391,56.4012],[-5.7423,56.4143],[-5.7156,56.4081],[-5.7174,56.3974],[-5.6703,56.3938],[-5.6576,56.4001],[-5.6649,56.4139],[-5.6883,56.4348]]],[[[-6.4592,56.6781],[-6.4623,56.6912],[-6.5058,56.6854],[-6.5356,56.6708],[-6.5914,56.6518],[-6.6481,56.6029],[-6.6745,56.5884],[-6.7019,56.5856],[-6.6779,56.5583],[-6.6689,56.5778],[-6.633,56.572],[-6.6163,56.5752],[-6.5641,56.5987],[-6.5273,56.6265],[-6.505,56.6301],[-6.4897,56.6402],[-6.4592,56.6781]]],[[[-6.3252,57.0586],[-6.3642,57.0557],[-6.3953,57.0419],[-6.4555,57.004],[-6.4054,56.9805],[-6.3761,56.9712],[-6.3598,56.9473],[-6.3419,56.9419],[-6.3036,56.944],[-6.276,56.9531],[-6.2567,56.9738],[-6.2432,57.0102],[-6.2699,57.0102],[-6.251,57.0266],[-6.2729,57.0402],[-6.3252,57.0586]]],[[[-6.6064,57.0517],[-6.5482,57.0476],[-6.5159,57.0507],[-6.4897,57.0586],[-6.5375,57.0728],[-6.5563,57.0701],[-6.6064,57.0517]]],[[[-5.9586,57.2845],[-5.9254,57.2917],[-5.9294,57.3072],[-5.9557,57.3216],[-5.99,57.3255],[-6.0139,57.3175],[-6.0078,57.3036],[-5.9849,57.2904],[-5.9586,57.2845]]],[[[-6.0644,57.3466],[-6.0719,57.3323],[-6.0548,57.3264],[-5.9895,57.3473],[-5.9951,57.3637],[-6.0167,57.3876],[-6.0176,57.4182],[-5.9825,57.4975],[-6.0098,57.5111],[-5.9956,57.4899],[-6.0159,57.4968],[-6.0371,57.4899],[-6.0167,57.4626],[-6.0455,57.4606],[-6.0616,57.4527],[-6.0691,57.4361],[-6.0771,57.3718],[-6.0754,57.355],[-6.0644,57.3466]]],[[[-5.9683,57.5179],[-5.968,57.5339],[-5.9552,57.5725],[-5.9687,57.5766],[-5.9825,57.5663],[-5.9757,57.5588],[-5.9873,57.5463],[-5.9837,57.5224],[-5.9683,57.5179]]],[[[-6.5641,57.3466],[-6.5731,57.3761],[-6.5621,57.3955],[-6.5389,57.4023],[-6.5306,57.4155],[-6.5176,57.3989],[-6.5238,57.3808],[-6.4908,57.399],[-6.4759,57.4012],[-6.4789,57.3819],[-6.463,57.3739],[-6.4759,57.3671],[-6.4486,57.3603],[-6.463,57.3466],[-6.4062,57.3515],[-6.3866,57.3398],[-6.3239,57.3114],[-6.3109,57.2982],[-6.3376,57.3015],[-6.394,57.3323],[-6.4164,57.3345],[-6.4822,57.3118],[-6.4555,57.2777],[-6.4082,57.2434],[-6.3456,57.2429],[-6.3595,57.2294],[-6.3798,57.2231],[-6.3456,57.1883],[-6.3131,57.1999],[-6.2767,57.202],[-6.2767,57.1957],[-6.3183,57.1684],[-6.3183,57.161],[-6.1772,57.1812],[-6.1598,57.1876],[-6.1645,57.2014],[-6.1401,57.1883],[-6.1265,57.1952],[-6.1129,57.1883],[-6.1014,57.1352],[-6.0886,57.1274],[-6.0738,57.1318],[-6.044,57.161],[-6.0235,57.1957],[-6.044,57.2299],[-6.0193,57.2176],[-5.9956,57.1957],[-5.9862,57.1746],[-5.9009,57.1755],[-5.8454,57.1883],[-5.8454,57.1815],[-5.9416,57.1548],[-5.9618,57.1422],[-6.003,57.0996],[-6.0002,57.0839],[-6.0273,57.0622],[-6.0304,57.0449],[-6.0067,57.0284],[-5.9534,57.0341],[-5.9189,57.0501],[-5.8426,57.108],[-5.8004,57.1237],[-5.7821,57.1662],[-5.7423,57.1684],[-5.6909,57.1895],[-5.6706,57.2047],[-5.6591,57.2225],[-5.6639,57.2398],[-5.6474,57.2646],[-5.7218,57.2646],[-5.7385,57.2773],[-5.7958,57.2718],[-5.8243,57.2562],[-5.8658,57.2571],[-5.8862,57.2421],[-5.9006,57.2429],[-5.9232,57.2669],[-5.9767,57.2703],[-6.0085,57.2868],[-6.0781,57.2777],[-6.0781,57.2845],[-6.0529,57.291],[-6.0454,57.3083],[-6.0682,57.3118],[-6.1539,57.3056],[-6.1066,57.3235],[-6.0992,57.3323],[-6.1352,57.3574],[-6.1401,57.3739],[-6.1179,57.3978],[-6.1265,57.408],[-6.1592,57.4074],[-6.188,57.3944],[-6.1525,57.4175],[-6.1361,57.4613],[-6.1351,57.4901],[-6.1447,57.52],[-6.1539,57.5895],[-6.188,57.6209],[-6.2327,57.6414],[-6.2605,57.6686],[-6.2933,57.686],[-6.3109,57.7028],[-6.338,57.6992],[-6.3599,57.6681],[-6.4157,57.6458],[-6.4145,57.634],[-6.3959,57.6135],[-6.4003,57.5998],[-6.3599,57.593],[-6.3896,57.5525],[-6.373,57.5316],[-6.3246,57.4968],[-6.3252,57.4831],[-6.3109,57.4626],[-6.387,57.5173],[-6.4003,57.521],[-6.4121,57.5014],[-6.4335,57.4865],[-6.4435,57.4881],[-6.4208,57.5179],[-6.4649,57.5125],[-6.5012,57.5355],[-6.5478,57.5495],[-6.5641,57.5588],[-6.5723,57.5825],[-6.6198,57.6072],[-6.6405,57.6073],[-6.6289,57.5911],[-6.631,57.5768],[-6.6548,57.5521],[-6.5994,57.5375],[-6.574,57.5217],[-6.5641,57.5036],[-6.6114,57.5122],[-6.6313,57.4936],[-6.5995,57.4694],[-6.6125,57.4626],[-6.6068,57.4439],[-6.6473,57.4595],[-6.6536,57.4687],[-6.7065,57.5109],[-6.7263,57.5114],[-6.7471,57.4879],[-6.7452,57.4759],[-6.7224,57.4564],[-6.7838,57.4564],[-6.7732,57.4341],[-6.7317,57.417],[-6.7148,57.3766],[-6.6725,57.3559],[-6.5806,57.3388],[-6.5641,57.3466]]],[[[-7.394,57.0102],[-7.435,57.0238],[-7.4144,57.0449],[-7.4492,57.0586],[-7.4571,57.0316],[-7.5243,57.0102],[-7.514,57.0029],[-7.5165,56.9812],[-7.5449,56.9723],[-7.5568,56.9531],[-7.5414,56.9487],[-7.4766,56.9419],[-7.4453,56.9471],[-7.4424,56.963],[-7.4024,56.9834],[-7.382,56.9875],[-7.394,57.0102]]],[[[-7.2438,57.3255],[-7.3053,57.3323],[-7.322,57.3466],[-7.3705,57.3551],[-7.3757,57.3681],[-7.394,57.3808],[-7.3711,57.3876],[-7.3316,57.3609],[-7.2504,57.3319],[-7.2226,57.3398],[-7.2764,57.3647],[-7.2984,57.3671],[-7.2636,57.3739],[-7.353,57.408],[-7.4084,57.3956],[-7.4281,57.3876],[-7.4015,57.3424],[-7.3897,57.312],[-7.41,57.296],[-7.435,57.2519],[-7.4554,57.2367],[-7.4315,57.2294],[-7.4144,57.2163],[-7.4167,57.1816],[-7.3907,57.1291],[-7.353,57.0996],[-7.3217,57.1099],[-7.2391,57.1005],[-7.2159,57.1138],[-7.236,57.1212],[-7.2773,57.1479],[-7.3462,57.1479],[-7.3462,57.1548],[-7.3076,57.1558],[-7.2711,57.1479],[-7.2599,57.1598],[-7.2577,57.1798],[-7.2711,57.2163],[-7.2888,57.2259],[-7.353,57.2367],[-7.353,57.2429],[-7.2761,57.2318],[-7.2567,57.2367],[-7.2332,57.2743],[-7.2003,57.291],[-7.1954,57.3056],[-7.2118,57.3049],[-7.2438,57.3255]]],[[[-7.2636,57.4831],[-7.2984,57.4899],[-7.3221,57.4829],[-7.3462,57.4899],[-7.3696,57.4893],[-7.3893,57.4799],[-7.4027,57.4643],[-7.4076,57.4456],[-7.3961,57.434],[-7.3183,57.408],[-7.2921,57.4047],[-7.2054,57.4186],[-7.212,57.4322],[-7.2497,57.4352],[-7.2636,57.449],[-7.2447,57.4497],[-7.222,57.4609],[-7.2021,57.4626],[-7.2363,57.4763],[-7.2625,57.4721],[-7.2636,57.4831]]],[[[-7.1294,57.6529],[-7.1426,57.6581],[-7.1728,57.6496],[-7.1891,57.6551],[-7.1654,57.6699],[-7.1817,57.6885],[-7.2091,57.686],[-7.256,57.6669],[-7.2773,57.6619],[-7.2567,57.6483],[-7.2779,57.6496],[-7.3325,57.6619],[-7.3121,57.6885],[-7.3354,57.6761],[-7.3669,57.6514],[-7.3966,57.6353],[-7.4144,57.6483],[-7.3871,57.6551],[-7.3871,57.6619],[-7.4553,57.6555],[-7.4766,57.6619],[-7.5222,57.6084],[-7.5448,57.593],[-7.4994,57.575],[-7.4629,57.5663],[-7.4424,57.5793],[-7.4116,57.5751],[-7.3512,57.5537],[-7.3183,57.5521],[-7.3381,57.5397],[-7.3185,57.517],[-7.2875,57.5088],[-7.2525,57.5103],[-7.2363,57.5036],[-7.2198,57.5108],[-7.1575,57.5111],[-7.1339,57.5384],[-7.1442,57.5485],[-7.1813,57.5539],[-7.2401,57.5446],[-7.3121,57.5446],[-7.3121,57.5521],[-7.2567,57.5725],[-7.2302,57.5524],[-7.2084,57.5588],[-7.15,57.5617],[-7.1256,57.5711],[-7.106,57.593],[-7.1543,57.5873],[-7.1644,57.6099],[-7.2021,57.6135],[-7.1973,57.6313],[-7.2159,57.6414],[-7.1711,57.6414],[-7.1373,57.6271],[-7.1131,57.6087],[-7.0992,57.6073],[-7.0651,57.634],[-7.0741,57.6464],[-7.0926,57.6521],[-7.1294,57.6529]]],[[[-7.2226,57.7097],[-7.199,57.708],[-7.17,57.7152],[-7.152,57.7263],[-7.1612,57.737],[-7.1802,57.7347],[-7.2226,57.7097]]],[[[-8.621,57.8332],[-8.6107,57.8127],[-8.5909,57.8048],[-8.569,57.8076],[-8.5522,57.8189],[-8.6053,57.8264],[-8.621,57.8332]]],[[[-7.0446,57.9021],[-7.0092,57.8896],[-6.9971,57.8935],[-6.9974,57.9151],[-7.0155,57.9219],[-7.0377,57.9163],[-7.0793,57.8947],[-7.0793,57.8803],[-7.0552,57.8842],[-7.0446,57.9021]]],[[[-6.8733,58.2168],[-6.8733,58.2099],[-6.7912,58.2099],[-6.8186,58.2373],[-6.8289,58.2338],[-6.8612,58.2534],[-6.88,58.2578],[-6.8862,58.2476],[-6.8596,58.2168],[-6.8733,58.2168]]],[[[-6.9551,57.7438],[-6.894,57.7665],[-6.8733,57.778],[-6.8875,57.7848],[-6.8612,57.7963],[-6.8391,57.8127],[-6.8596,57.8258],[-6.8527,57.8332],[-6.8061,57.8146],[-6.7838,57.8127],[-6.7912,57.8258],[-6.7556,57.8265],[-6.7367,57.8394],[-6.764,57.8679],[-6.8056,57.8803],[-6.7777,57.9021],[-6.7429,57.8913],[-6.661,57.8803],[-6.6678,57.9083],[-6.6957,57.9213],[-6.674,57.9288],[-6.7047,57.9532],[-6.7301,57.963],[-6.764,58.0039],[-6.7161,58.025],[-6.6927,58.041],[-6.6883,58.0585],[-6.592,58.0585],[-6.592,58.0523],[-6.6295,58.0509],[-6.6658,58.0447],[-6.6947,58.0301],[-6.7094,58.0039],[-6.6998,57.9762],[-6.6512,57.9238],[-6.6194,57.9151],[-6.6125,57.9213],[-6.635,57.9516],[-6.6205,57.9545],[-6.6064,57.9356],[-6.5784,57.9172],[-6.5375,57.9213],[-6.5511,57.9431],[-6.5076,57.936],[-6.4897,57.9431],[-6.4555,57.9765],[-6.4696,57.9869],[-6.5051,57.9925],[-6.5507,58.0101],[-6.5449,58.0175],[-6.5182,58.0126],[-6.4245,58.0039],[-6.4009,58.0073],[-6.3524,58.0386],[-6.3777,58.0388],[-6.3907,58.0464],[-6.3661,58.0585],[-6.3798,58.066],[-6.3786,58.079],[-6.394,58.1018],[-6.4206,58.1057],[-6.4513,58.0957],[-6.5813,58.079],[-6.6194,58.0796],[-6.6032,58.0856],[-6.5511,58.0932],[-6.5238,58.1069],[-6.4897,58.1001],[-6.4412,58.1274],[-6.3907,58.1335],[-6.373,58.1411],[-6.378,58.1536],[-6.3661,58.1621],[-6.4003,58.2099],[-6.3847,58.2097],[-6.3382,58.1963],[-6.2936,58.1994],[-6.2474,58.1855],[-6.2153,58.1894],[-6.1864,58.2099],[-6.16,58.2168],[-6.1675,58.2304],[-6.1539,58.2447],[-6.1611,58.259],[-6.1948,58.2509],[-6.2432,58.223],[-6.2709,58.2165],[-6.3109,58.215],[-6.3477,58.2211],[-6.3661,58.2373],[-6.3385,58.2376],[-6.3183,58.2447],[-6.3179,58.2683],[-6.2882,58.2746],[-6.2787,58.2887],[-6.2538,58.2934],[-6.25,58.313],[-6.2337,58.3228],[-6.1675,58.3465],[-6.1675,58.3539],[-6.1955,58.3563],[-6.2153,58.3676],[-6.1924,58.4091],[-6.1669,58.4195],[-6.188,58.4461],[-6.2054,58.4813],[-6.2432,58.511],[-6.2674,58.512],[-6.2963,58.4973],[-6.3456,58.4632],[-6.5233,58.3908],[-6.5575,58.3686],[-6.6207,58.3507],[-6.6814,58.3465],[-6.7034,58.3359],[-6.7156,58.3397],[-6.737,58.3236],[-6.8186,58.2851],[-6.8012,58.2834],[-6.7912,58.2714],[-6.8118,58.2646],[-6.7838,58.2304],[-6.7526,58.2248],[-6.7429,58.2031],[-6.7094,58.1894],[-6.7367,58.1684],[-6.7485,58.1829],[-6.7985,58.2024],[-6.8695,58.1894],[-6.8875,58.1684],[-6.8596,58.1348],[-6.8596,58.1069],[-6.8881,58.1359],[-6.8983,58.1567],[-6.8971,58.1721],[-6.9304,58.1968],[-6.9371,58.211],[-6.9073,58.2099],[-6.9073,58.2168],[-6.962,58.2302],[-6.9773,58.2274],[-7.0309,58.2447],[-7.0561,58.2257],[-7.0539,58.2014],[-7.0172,58.1894],[-7.0377,58.1846],[-7.1128,58.182],[-7.093,58.1684],[-7.1128,58.1553],[-7.1265,58.124],[-7.1075,58.112],[-7.1128,58.1001],[-7.0756,58.0622],[-7.024,58.0796],[-7.0519,58.0585],[-7.0582,58.0386],[-7.0287,58.0384],[-6.9346,58.0523],[-6.9952,58.0338],[-7.0582,58.025],[-7.0519,58.0114],[-7.0718,58.0119],[-7.1128,57.9902],[-7.0658,57.971],[-7.0446,57.9765],[-7.0363,57.9606],[-7.0098,57.9553],[-6.9521,57.9567],[-6.8971,57.9356],[-6.8391,57.9356],[-6.8391,57.9288],[-6.8658,57.9213],[-6.8519,57.9106],[-6.8817,57.9143],[-6.9116,57.9106],[-6.9626,57.8947],[-6.9626,57.8878],[-6.9142,57.8679],[-6.9623,57.8688],[-6.9849,57.8649],[-6.9974,57.8537],[-7.0793,57.8127],[-7.0886,57.8334],[-7.1251,57.8369],[-7.1128,57.8159],[-7.1019,57.8115],[-7.0414,57.7705],[-6.9808,57.7351],[-6.9551,57.7438]]],[[[-2.953,58.84],[-2.997,58.8353],[-3.0356,58.8263],[-3.0356,58.8201],[-2.9672,58.8201],[-2.9672,58.8126],[-2.9913,58.8066],[-3.0157,58.8126],[-2.9849,58.7871],[-2.9744,58.772],[-2.9878,58.7574],[-2.9399,58.7307],[-2.9178,58.7383],[-2.911,58.7487],[-2.9263,58.7791],[-2.914,58.7849],[-2.9211,58.7975],[-2.9136,58.8105],[-2.8854,58.8201],[-2.8837,58.8322],[-2.907,58.8381],[-2.953,58.84]]],[[[-3.2484,58.7922],[-3.2367,58.8057],[-3.2155,58.8143],[-3.1727,58.8201],[-3.1872,58.8365],[-3.2074,58.84],[-3.1932,58.8536],[-3.2461,58.8962],[-3.2876,58.906],[-3.3218,58.9237],[-3.3494,58.9285],[-3.3932,58.9202],[-3.4163,58.9083],[-3.4333,58.885],[-3.4302,58.8748],[-3.3735,58.868],[-3.3788,58.8536],[-3.3583,58.8332],[-3.3278,58.8183],[-3.2993,58.7791],[-3.2059,58.779],[-3.1563,58.7868],[-3.1317,58.8065],[-3.1601,58.808],[-3.2185,58.7933],[-3.2484,58.7922]]],[[[-2.7277,58.9709],[-2.7776,58.9575],[-2.796,58.9567],[-2.7754,58.9287],[-2.8119,58.9291],[-2.8376,58.9504],[-2.7819,58.9739],[-2.7754,58.984],[-2.7902,58.9923],[-2.8312,58.9877],[-2.8647,58.9748],[-2.8854,58.9771],[-2.8784,58.9982],[-2.8954,58.991],[-2.9331,59.0113],[-2.9744,58.9991],[-3.012,59.0174],[-3.0597,58.9914],[-3.0973,58.994],[-3.1317,59.0051],[-3.0909,59.0187],[-3.0537,59.0473],[-2.9945,59.0597],[-3.0082,59.0666],[-2.9945,59.0733],[-3.0514,59.0902],[-3.0703,59.1013],[-3.0492,59.1081],[-3.0845,59.128],[-3.1216,59.124],[-3.1562,59.1422],[-3.1827,59.1472],[-3.2311,59.1484],[-3.2793,59.1435],[-3.3238,59.1274],[-3.3502,59.098],[-3.344,59.0528],[-3.3667,59.0161],[-3.3533,58.9828],[-3.3232,58.9572],[-3.2894,58.9504],[-3.2894,58.9567],[-3.257,58.9783],[-3.2666,59.0071],[-3.2592,59.0158],[-3.241,59.0113],[-3.2458,59.0305],[-3.2279,59.0386],[-3.2074,59.0051],[-3.2353,58.9726],[-3.2385,58.9509],[-3.2279,58.9287],[-3.2028,58.9159],[-3.1426,58.9212],[-3.118,58.9157],[-3.1012,58.9301],[-3.0703,58.9287],[-3.0845,58.943],[-3.0238,58.9405],[-2.9938,58.9588],[-2.9812,58.9601],[-2.9372,58.9132],[-2.915,58.8991],[-2.8393,58.8826],[-2.808,58.888],[-2.785,58.9107],[-2.7338,58.9202],[-2.7065,58.9324],[-2.7076,58.959],[-2.7277,58.9709]]],[[[-2.542,59.1206],[-2.5353,59.128],[-2.5716,59.1188],[-2.5952,59.1295],[-2.5823,59.144],[-2.6178,59.1484],[-2.6116,59.1614],[-2.6655,59.1552],[-2.6243,59.1339],[-2.6224,59.1164],[-2.6655,59.1081],[-2.6861,59.0892],[-2.6707,59.0815],[-2.6492,59.0855],[-2.6518,59.1013],[-2.6144,59.1072],[-2.5995,59.0959],[-2.5973,59.0733],[-2.576,59.0801],[-2.5326,59.0836],[-2.5148,59.0938],[-2.5424,59.103],[-2.542,59.1206]]],[[[-3.0048,59.128],[-2.9752,59.1338],[-2.9772,59.1634],[-2.953,59.1832],[-2.9808,59.1874],[-3.0218,59.1823],[-3.0426,59.1863],[-3.0492,59.1968],[-3.0742,59.1975],[-3.1024,59.1903],[-3.1204,59.1766],[-3.1147,59.1584],[-3.0918,59.1428],[-3.0656,59.1336],[-3.0048,59.128]]],[[[-2.8301,59.1968],[-2.8301,59.1758],[-2.8016,59.1682],[-2.7814,59.1414],[-2.7345,59.1484],[-2.7589,59.1642],[-2.7611,59.1931],[-2.7277,59.2242],[-2.7436,59.2381],[-2.7686,59.2379],[-2.7611,59.2521],[-2.7775,59.2529],[-2.7919,59.237],[-2.786,59.1968],[-2.8173,59.1912],[-2.8301,59.1968]]],[[[-2.4464,59.293],[-2.4924,59.2894],[-2.5188,59.2743],[-2.5632,59.2651],[-2.5768,59.2713],[-2.5518,59.2874],[-2.5221,59.2993],[-2.5221,59.3067],[-2.5472,59.3057],[-2.5877,59.2932],[-2.6116,59.293],[-2.5911,59.2788],[-2.5956,59.2648],[-2.6246,59.2583],[-2.6588,59.2304],[-2.688,59.218],[-2.6926,59.1923],[-2.6793,59.2099],[-2.6619,59.2071],[-2.6042,59.2446],[-2.5886,59.2387],[-2.5694,59.2446],[-2.5768,59.2242],[-2.5331,59.2512],[-2.5163,59.2521],[-2.5148,59.2304],[-2.4974,59.2392],[-2.459,59.2791],[-2.4398,59.2842],[-2.3925,59.2855],[-2.411,59.319],[-2.4464,59.293]]],[[[-3.0492,59.3198],[-3.0203,59.2803],[-2.9897,59.2671],[-2.9747,59.2788],[-2.9747,59.293],[-2.9203,59.2831],[-2.871,59.2583],[-2.8854,59.2304],[-2.8501,59.2521],[-2.8301,59.2521],[-2.839,59.2651],[-2.871,59.2713],[-2.8955,59.303],[-2.9878,59.3198],[-2.9878,59.3266],[-2.9604,59.3266],[-2.9639,59.3402],[-2.9464,59.3496],[-2.9652,59.3609],[-3.0082,59.3341],[-3.0243,59.3304],[-3.0771,59.3341],[-3.0734,59.3245],[-3.0492,59.3198]]],[[[-1.6513,59.529],[-1.6455,59.5141],[-1.5967,59.5321],[-1.6104,59.5395],[-1.5831,59.56],[-1.6252,59.5558],[-1.6437,59.5456],[-1.6513,59.529]]],[[[-0.7846,60.6151],[-0.8091,60.6083],[-0.8221,60.6287],[-0.9388,60.6287],[-0.9388,60.6213],[-0.9053,60.5869],[-0.8835,60.5705],[-0.8562,60.5673],[-0.8705,60.5878],[-0.8422,60.5883],[-0.7852,60.5763],[-0.7607,60.5878],[-0.7584,60.6076],[-0.7846,60.6151]]],[[[-1.097,60.4165],[-1.1034,60.4308],[-1.1238,60.4022],[-1.1517,60.3886],[-1.1537,60.4079],[-1.1654,60.4121],[-1.1995,60.4022],[-1.1852,60.4165],[-1.2242,60.4114],[-1.1859,60.4316],[-1.164,60.4255],[-1.1517,60.4308],[-1.1699,60.4631],[-1.1926,60.4711],[-1.1863,60.4822],[-1.2175,60.498],[-1.2604,60.4649],[-1.272,60.4843],[-1.295,60.4711],[-1.281,60.4619],[-1.2336,60.4438],[-1.297,60.438],[-1.3243,60.4277],[-1.323,60.4097],[-1.3702,60.4022],[-1.3518,60.4184],[-1.328,60.4532],[-1.3087,60.4575],[-1.3119,60.4709],[-1.295,60.4923],[-1.3361,60.4854],[-1.3155,60.5189],[-1.3361,60.5332],[-1.3014,60.5648],[-1.3087,60.5878],[-1.2921,60.5996],[-1.2914,60.6231],[-1.3014,60.6431],[-1.3262,60.6112],[-1.3087,60.6015],[-1.3155,60.5941],[-1.3669,60.6123],[-1.3942,60.6143],[-1.4187,60.6083],[-1.4254,60.5878],[-1.4111,60.5804],[-1.458,60.5639],[-1.4801,60.5394],[-1.4639,60.5374],[-1.4359,60.5189],[-1.3844,60.5121],[-1.4175,60.5022],[-1.4551,60.5089],[-1.4882,60.5258],[-1.514,60.5578],[-1.527,60.5568],[-1.5484,60.5394],[-1.5507,60.519],[-1.5615,60.5107],[-1.5862,60.5121],[-1.6094,60.4833],[-1.572,60.4768],[-1.5484,60.4923],[-1.5321,60.4831],[-1.4801,60.4854],[-1.4991,60.4691],[-1.4801,60.4575],[-1.4594,60.4728],[-1.446,60.4923],[-1.4381,60.4605],[-1.439,60.4308],[-1.4156,60.4232],[-1.3844,60.4233],[-1.3953,60.4092],[-1.395,60.39],[-1.3734,60.3811],[-1.3435,60.396],[-1.3376,60.3745],[-1.2843,60.3635],[-1.2604,60.355],[-1.3281,60.3527],[-1.3155,60.3414],[-1.3435,60.3476],[-1.364,60.321],[-1.3361,60.3066],[-1.364,60.2862],[-1.3743,60.3084],[-1.3964,60.3218],[-1.4228,60.3261],[-1.446,60.321],[-1.439,60.3066],[-1.4596,60.3066],[-1.446,60.2862],[-1.4664,60.2787],[-1.4676,60.3085],[-1.4814,60.3165],[-1.5284,60.3135],[-1.521,60.2998],[-1.5558,60.3066],[-1.5484,60.293],[-1.5653,60.2927],[-1.6029,60.3135],[-1.6574,60.3062],[-1.6902,60.2851],[-1.6697,60.2396],[-1.6328,60.2303],[-1.6151,60.2157],[-1.593,60.2172],[-1.5482,60.2297],[-1.5368,60.2109],[-1.5133,60.2217],[-1.5037,60.2434],[-1.4664,60.2172],[-1.5095,60.2099],[-1.5273,60.1929],[-1.4943,60.1701],[-1.4554,60.1562],[-1.4377,60.1634],[-1.4308,60.1849],[-1.4187,60.1906],[-1.4136,60.177],[-1.3976,60.1927],[-1.3981,60.2111],[-1.3566,60.1968],[-1.3497,60.2111],[-1.3761,60.2379],[-1.4111,60.2514],[-1.4111,60.2589],[-1.3786,60.2548],[-1.3577,60.2443],[-1.3293,60.2043],[-1.2869,60.2463],[-1.2677,60.2452],[-1.2947,60.2154],[-1.3124,60.1807],[-1.2982,60.1763],[-1.2694,60.1855],[-1.2889,60.1558],[-1.2677,60.1422],[-1.2626,60.1151],[-1.2877,60.0756],[-1.3029,60.028],[-1.3287,59.9955],[-1.323,59.9777],[-1.3497,59.9709],[-1.323,59.9566],[-1.3459,59.9504],[-1.364,59.9373],[-1.358,59.9216],[-1.376,59.9086],[-1.3479,59.892],[-1.3165,59.896],[-1.3014,59.8889],[-1.3129,59.8731],[-1.295,59.8747],[-1.2746,59.8542],[-1.261,59.8664],[-1.2746,59.8821],[-1.2634,59.9072],[-1.2677,59.923],[-1.2536,59.937],[-1.243,59.9769],[-1.2473,59.9975],[-1.2012,59.9864],[-1.1926,59.9975],[-1.2194,60.0397],[-1.1852,60.0383],[-1.1647,60.0602],[-1.1929,60.0698],[-1.2023,60.0831],[-1.1852,60.0944],[-1.2132,60.1012],[-1.1951,60.1087],[-1.1815,60.1293],[-1.1609,60.1412],[-1.1443,60.1353],[-1.1517,60.1496],[-1.1238,60.1558],[-1.1579,60.1701],[-1.144,60.1876],[-1.1872,60.1912],[-1.1579,60.2247],[-1.181,60.2178],[-1.1995,60.2043],[-1.179,60.2322],[-1.2194,60.2322],[-1.2194,60.2383],[-1.1852,60.2452],[-1.1981,60.2606],[-1.1829,60.2719],[-1.1647,60.2514],[-1.1297,60.2528],[-1.0898,60.2725],[-1.1222,60.2792],[-1.1343,60.2756],[-1.1379,60.2907],[-1.0753,60.321],[-1.1012,60.3311],[-1.1516,60.3373],[-1.1722,60.3476],[-1.0792,60.355],[-1.0704,60.3595],[-1.0623,60.3854],[-1.0683,60.3963],[-1.1002,60.3886],[-1.1175,60.3739],[-1.1193,60.3913],[-1.0487,60.4333],[-1.0344,60.4506],[-1.0727,60.4445],[-1.097,60.4165]]],[[[-0.9872,60.6977],[-1.0009,60.7039],[-0.9935,60.7311],[-1.037,60.7331],[-1.0576,60.7297],[-1.0692,60.7182],[-1.0799,60.7355],[-1.0921,60.7353],[-1.1139,60.7147],[-1.1204,60.6969],[-1.1115,60.6811],[-1.1238,60.6598],[-1.1034,60.6151],[-1.1145,60.6125],[-1.141,60.6312],[-1.1381,60.6492],[-1.1714,60.646],[-1.18,60.6247],[-1.1678,60.5305],[-1.1539,60.5084],[-1.1305,60.496],[-1.097,60.4923],[-1.1077,60.5051],[-1.0555,60.5058],[-1.0317,60.5007],[-1.0207,60.5155],[-1.027,60.5358],[-1.0419,60.553],[-1.0225,60.5557],[-1.0111,60.5777],[-1.0207,60.5941],[-1.0521,60.5976],[-1.0692,60.6151],[-1.041,60.608],[-1.0139,60.6151],[-1.0368,60.6429],[-1.0623,60.6629],[-1.0426,60.6616],[-0.9935,60.6356],[-0.9797,60.6567],[-0.9971,60.6761],[-0.9872,60.6977]]],[[[-0.9047,60.684],[-0.8705,60.684],[-0.8462,60.676],[-0.8219,60.685],[-0.85,60.7182],[-0.8017,60.7448],[-0.8085,60.7786],[-0.7607,60.8001],[-0.788,60.807],[-0.7607,60.8131],[-0.7639,60.8254],[-0.7828,60.8382],[-0.8318,60.8403],[-0.8531,60.8035],[-0.891,60.7927],[-0.8603,60.8129],[-0.8603,60.8376],[-0.8815,60.845],[-0.9042,60.814],[-0.9388,60.8001],[-0.9262,60.7847],[-0.9357,60.756],[-0.9525,60.7523],[-0.9432,60.726],[-0.9662,60.725],[-0.9599,60.7094],[-0.9662,60.6902],[-0.9348,60.6821],[-0.9047,60.684]]],[[[-1.3151,60.0937],[-1.3234,60.0882],[-1.3158,60.1155],[-1.3457,60.109],[-1.338,60.0935],[-1.3476,60.0834],[-1.3539,60.0512],[-1.3384,60.064],[-1.339,60.0439],[-1.3268,60.0506],[-1.3048,60.0866],[-1.3151,60.0937]]],[[[-2.0532,60.1555],[-2.0879,60.1555],[-2.1123,60.138],[-2.0869,60.1233],[-2.063,60.118],[-2.0481,60.1292],[-2.0532,60.1555]]],[[[-1.0629,60.164],[-1.0749,60.1828],[-1.0975,60.1757],[-1.1349,60.1787],[-1.1356,60.168],[-1.1193,60.1556],[-1.1222,60.1231],[-1.0839,60.1052],[-1.0738,60.1077],[-1.0527,60.1484],[-1.0505,60.1696],[-1.0629,60.164]]],[[[-0.9188,60.3862],[-0.9676,60.381],[-1.0064,60.369],[-1.0341,60.3402],[-1.0152,60.3341],[-0.976,60.3403],[-0.9112,60.3823],[-0.9188,60.3862]]]]},"properties":{"geonunit":"Scotland","name":"Scotland"}}
]}